PlaceName,Latitude,Longitude
"Kudle Beach Road, Gokarna 581326 India",14.5432369,74.3171358
"1,Opp, Ganesh Medicals, Near Pumpwell Circle, Mangalore 575002 India",12.8696935,74.86311340000002
"Kundana Hobli Plot No 12a Hegganahalli Village Devanahalli Taluk, Bengaluru 560052 India",13.0058847,77.5050689
"No. 31, 32,33 E Block Extn. 2nd Cross,14th Main Sahakaranagra, Near Kodigehalli Signal, Bengaluru 560092 India",12.9998893,77.5577849
"Anantha Kalyan Nagar Manipal #5-297, Udupi 576104 India",13.349271,74.7863698
"SH-91 Theppadakandi, Basavanahalli, Dubare Elephant Camp Main Road, Guddehosur, Kushalnagar 571234 India",12.3726436,75.9004325
"Basaveshwara Extension Near Balamuri Temple, Kushalnagar 571234 India",12.4647796,75.9543072
"Ganga Sagar A Boutique Hotel Main Road, Near Bajpe Market, Mangalore 574142 India",12.9794206,74.88318799999999
"Court Back Road Taluk Office Circle, Udupi 576101 India",13.332374,74.747362
"Maruthi Veethika road, Udupi 576101 India",13.3405182,74.749464
"Opp. Woodlands Hotel, Near Sri Krishna Temple, Udupi India",13.3408807,74.7421427
"Kediyoor Complex, Udupi 576101 India",13.3354175,74.7205385
"Plot No 514 Opp Lumbini Garden Outer Ring Road Service Road, Bengaluru 560045 India",13.0434124,77.6096254
"62 B M G Road Opp. Jss Hospital Near JSS Hospital, Mysuru (Mysore) 570004 India",12.2955614,76.655683
"S.D. No 1 , Udupi - Manipal Road Kadiyali Junction, Udupi 576102 India",13.3473413,74.7568536
"S.D. No 1 , Udupi - Manipal Road Kadiyali Junction, Udupi 576102 India",13.3473413,74.7568536
"Badagupete Road near Sri Krishna Temple, Udupi 576001 India",13.3408807,74.7421427
"Anemahal Bangalore - Mangalore Road, Sakleshpur 573134 India",12.9432588,75.7836087
"Malpe Beach, Udupi 576 108 India",13.3554792,74.70444250000001
"138, Hirimande, Sakleshpur 573125 India",13.0024461,75.6430609
"Near Ksrtc Ticket Booking Centre, Udupi 576101 India",13.3239534,74.7395591
"Sakleshpur - Halsulige Road, Sakleshpur 573127 India",12.9715324,75.8078796
"Jambardi Village, Kyamnahalli Post, Sakleshpur 573165 India",12.9441511,75.78656529999999
"Agani, Hanbal post, Sakleshpur 573165 India",13.0046838,75.6969615
"Kadumane Estate, Sakleshpur Kadamane Tea Estate, Sakleshpur India",12.9182101,75.6731734
"Kavi Muddana Road S.NO-114/B2P5, Udupi 576101 India",13.3239534,74.7395591
"Byakaravalli Village and Post, Sakleshpur 573134 India",12.9441511,75.78656529999999
"Athihalli Village Ramegowda guesthouse road, Sakleshpur 573123 India",12.7632765,75.732833
"Hadya Village, Hethur Post, Sakleshpur 573123 India",12.9441511,75.78656529999999
"Vanagoor,2 Kms on Kudrastae-Bisle Road Hassan District, Sakleshpur 573134 India",12.71983,75.6856818
"Hongadahalla, Hettur Hobli near by Coorg 2 hours drive to Coorg, 5 hours drive from Bangalore, Sakleshpur 573123 India",12.9441511,75.78656529999999
"Haragarahalli village, Sakleshpur 573134 India",12.9441511,75.78656529999999
"I.B Road, Kushalnagar 571234 India",12.4576837,75.9594822
"Heddurga Road ear Gundan Bellur, Palya Circle, Sakleshpur 573134 India",12.9441511,75.78656529999999
"Haragarahalli, Sakleshpur India",12.8642709,75.7633127
"I.B Road Coorg, Kushalnagar 571234 India",12.4576837,75.9594822
"Survey Number #81/82, Dindighatta Village, Palya Post, Alur Taluk,, Sakleshpur 573218 India",12.9471576,75.94342089999999
"Sri Balaji Farm,Chickbettagere Village Guddehosur Post, Kushalnagar 571234 India",12.4555177,75.9570234
"Kudige, Kushalnagar 571232 India",12.4948998,75.9535167
"BM Road 1st floor, Opp to RMC yard, next to woodland showroom, Kushalnagar 571234 India",12.4515253,75.96584589999999
"No 24 Hosapatna Village Nanjarayapatna Post Nanjarayapatna Post, Kushalnagar 571234 India",12.3807719,75.9061242
"Mangalore - Mysore Highway, Kushalnagar 571234 India",12.4470416,75.8149486
"2203/54 D - 28 New Sayyaji Rao Mysore Bengaluru Road Near Highway Circle, Mysuru (Mysore) 570015 India",12.3261161,76.64469509999999
"Sunnadakere Road Guddehosuru, Kushalnagar 571234 India",12.4555177,75.9570234
"Kaveri River Road Ayyappa Swamy Temple Rd, Bus Stand, Behind KSRTC, Kushalnagar 571234 India",12.456521,75.960143
"No 2 Nazarbad Main Road Opp Park, Nazarbad, Mysuru (Mysore) 570010 India",12.3092053,76.6619649
"Bangalore Nilgiri Road Opp. Woodlands Theatre, Mysuru (Mysore) 570001 India",12.3193188,76.6584606
"#85 - 87 B E M L Road Hootagalli, Mysuru (Mysore) 570018 India",12.3411354,76.58396809999999
"Gandadakote, KMT School Road, Kushalnagar 571234 India",12.455534,75.9456894
"35/A, Bangalore Nilgiri Road Behind Bhima Jewellery, Mysuru (Mysore) 570001 India",12.3110994,76.6593602
"43/A B N Road opposite Woodland Theatre, Hardinge Circle, Mysuru (Mysore) 570001 India",12.2958104,76.6393805
"43/A B N Road opposite Woodland Theatre, Hardinge Circle, Mysuru (Mysore) 570001 India",12.2958104,76.6393805
"2932/A, Off Bangalore-Nilgiri Road Suburban Bus Stand, Near K.S.R.T.C. Building, Behind Kalyan Jewels, Mysuru (Mysore) 570001 India",12.3137083,76.65844109999999
"1 MG Road Indiranagar Extension, Mysuru (Mysore) 570 010 India",12.2977996,76.6522182
"Nethra Nivas Nazarbad Main Road Nazarbad Main Road, Mysuru (Mysore) 570010 India",12.3085782,76.664233
"5 Jhansi Lakshmi Bai Road, Mysuru (Mysore) 570005 India",12.304798,76.292927
"2275 Tumkur Road Yeshwantpur, Bengaluru 560022 India",13.027916,77.54234579999999
"No 21,Guddehosur Coorg, Kushalnagar 571234 India",12.4555177,75.9570234
"1 Palace Road, Bengaluru 560001 India",12.9955214,77.5893672
"No. 3, Abba Road, Mysuru (Mysore) 570007 India",12.318241,76.6629932
"2/1  St Johns Road, Bengaluru 560042 India",12.987609,77.617189
"2257/1 Vinoba Road Near Kala Mandir, Mysuru (Mysore) 570005 India",12.3103214,76.6487847
"13 - 14 Vinoba Road, Mysuru (Mysore) 570005 India",12.3119794,76.6431709
"Virupapur Gadde , Sanapur post Sunnyguesthouse virapapuragaddi sanapur post gangvathi taluka Koppal dist karanataka, Hampi 583234 India",15.350264,76.455422
"Virupapur Gadde , Sanapur post Sunnyguesthouse virapapuragaddi sanapur post gangvathi taluka Koppal dist karanataka, Hampi 583234 India",15.350264,76.455422
"Plot No - 30, Rajaram Mohan Roy Road Off Richmond Road, Bengaluru 560027 India",12.967888,77.5916707
"Allasandra Bellary Rd Yelahanka, near Jakkur Flying Club, Bengaluru 560065 India",13.1175904,77.6085818
"#479 ,O.T.C Road Cottonpet, Majestic, Bengaluru 560053 India",12.9730782,77.570724
"Cross the River from Hampi Sanapur, Hampi 583234 India",15.3350132,76.46002399999999
"R.V Layout Plot 104/1, Kumara Park West Extension, Bengaluru 560020 India",12.9955462,77.5801548
"93 Richmond Road, Bangalore, Bengaluru 560025 India",12.9669572,77.60978419999999
"71 Virupapurgaddi Sanapur Gangavathi, Hampi 583234 India",15.3350132,76.46002399999999
"273 Kadirampur Behind Canara Bank Behind Canara Bank, Hampi 583239 India",15.3115462,76.4620971
"Opp Govt. Hospital, P.K.Halli Road, Hampi 583276 India",10.994577,76.9697968
"Reservoir Road, Hampi 583234 India",15.355232,76.4342097
"Janata Plot 2nd Ward, Hampi 583239 India",15.3350132,76.46002399999999
"River Side Road, Hampi 583239 India",15.3363349,76.45720519999999
"Main Doddaballapur Road Rajankunte, Northwest Country, Bengaluru 560064 India",13.1993646,77.5617449
"Road Nanthoor Near Pumpwell Circle, Mangalore 575002 India",12.8690238,74.8643573
"Near Stone Bridge Cross, Anjanadri hill Sanapur, Anegondi, Hampi 583234 India",15.3350132,76.46002399999999
"Narayanpet, 2 Km From Basapur Village, Hampi 583239 India",16.8166501,77.6297956
"Bagalur - Devanahalli Rd Boyalahalli Village, Bengaluru 562149 India",13.1325768,77.6672134
"No 890, Anegundi Road, Hampi 583227 India",15.3932604,76.5185379
"Nandigudda Road, Mangalore 575001 India",12.8591896,74.848569
"M G Road, Mangalore 575003 India",12.8825301,74.839408
"Kankanady By-Pass Road Kanachur Complex, Opposite Sulthan Gold, Mangalore 575002 India",12.8697844,74.85837339999999
"Opp to Anjanadri Hill Temple, Hampi 563127 India",15.3350132,76.46002399999999
"Nandigudda Road Shanker Vittal HQ, Attavar, Mangalore 575001 India",12.8627459,74.8470294
"Bunts Hostel Road Near Jyothi Circle, Mangalore 575003 India",12.8750547,74.8485105
"P.K.Halli Road Near Kannada University, Kamalapura, Hospet Taluk, Hampi 583276 India",15.2857474,76.491308
"13-13-1519/1/2/3, K.S. Rao Road, Mangalore 575003 India",12.8712069,74.8420225
"K S Rao Road Hampankatta, Mangalore 575001 India",12.8717605,74.842071
"K.R Road Near Bunts Hostel Circle, Karangalpady, Mangalore 575003 India",12.8750547,74.8485105
"Dubbanashashi Road Bhavikodla, Gokarna 581319 India",14.5678921,74.3077301
"702, Survey No. 1615 A and B, Om Beach Road, Gokarna 581326 India",14.533117,74.3263378
"Gokarna Police St. Rd, Om Beach Road Banglegudda, Gokarna 581326 India",14.5439915,74.3214325
"Attavar Road near Railway Station, Mangalore 575001 India",12.8605202,74.8475459
"Balmatta Road, Mangalore 575001 India",12.8704411,74.8463756
"Old Port Road Opposite to the District Commissioner's Office, Mangalore 575001 India",12.9141417,74.8559568
"Kudle Beach Road No.295, Cp - 2850, Gokarna 581326 India",14.5432369,74.3171358
"Mani Bhadra Road, Gokarna 581326 India",14.5419715,74.31522749999999
"Kudle Beach Plot No 245 Behind Kudle Beach Parking, Gokarna 581326 India",14.5306868,74.3224755
"Om Beach Road Bungle Gudda, Gokarna 581326 India",14.5448995,74.3238998
"Om Beach Road, Gokarna 581326 India",14.533117,74.3263378
"Mw 626 By 1 Om Beach Road, Gokarna 581326 India",14.5370814,74.33277389999999
"365kw Kudle Beach, Gokarna 581326 India",14.5437315,74.3135985
"Beach Road, Gokarna 581326 India",14.5770632,74.3040372
"1020 Om Beach Rd, Gokarna  581326 India",14.5493371,74.3251487
"Main Road Gokarna, Gokarna 581326 India",14.5495881,74.3252134
"Main Road Gokarna, Gokarna 581326 India",14.5495881,74.3252134
"Gokarna main beach, near Kariyappa Katte, Bijjur, Gokarna 581326 India",14.5437352,74.3136288
"Kudle Beach Rd, Gokarna 581326 India",14.5432369,74.3171358
"State Highway 21, Virajpet 571218 India",12.1949851,75.8040022
"Om Beach Rd Kudle Beach, Gokarna 581326 India",14.5305012,74.32548190000001
"Gonikoppal - Virajpet Road 4/2 Bittangala Village, Virajpet 571218 India",12.1197402,75.88143769999999
"890/1 Gokarna Village Om Beach Road Karnataka, Gokarna 581326 India",14.533117,74.3263378
"Gowri Complex, Gonikoppal, Virajpet 571213 India",12.184729,75.9328675
"Qh Center Falnir Road, Mangalore 575002 India",12.8679782,74.8505627
"Karadigundi Estate, Devarunda, Mudigere 577132 India",13.0223668,75.6311741
"Muthigepura, Mudigere 577132 India",13.0992893,75.6469934
"MRPL Road Surathkal Junction, Mangalore 575014 India",12.9825027,74.8140513
"Heggala Kedamullur Village, Virajpet 571218 India",12.1615763,75.7553941
"Sharavathi Estate, Mudigere 577132 India",13.1365287,75.64032449999999
"Nangala Road Bittangala Post, Virajpet 571218 India",12.1597968,75.8324325
"Balmatta-Kankanady Rd Opp Mangalore Nursing Home, Paramount West Gate, 5th Floor, Mangalore 575002 India",12.8715114,74.8548323
"72,Jewargi Road, Near Bhagyawanti Nagar, Gulbarga, Karnataka, Gulbarga India",17.3070468,76.8188709
"Kudle Hiiltop, Opp Kudle Beach, Gokarna 581326 India",14.5344971,74.315815
"Om Beach, Gokarna India",14.5192405,74.3230039
"Kudle Beach Road, Gokarna 581326 India",14.5432369,74.3171358
"Supreme Paradise Building, Opp. SBI Bank Road B.H.Road, 1st Turn, 2nd Cross, Garden Area, Shimoga 577201 India",13.9314191,75.5717153
"Kudle Beach Gokarna, Gokarna 581326 India",14.5437315,74.3135985
"Near Syndicate Bank, Kamath Complex,, Gokarna 581326 India",14.5371752,74.32941989999999
"Kudle Beach Bougain Villa, Gokarna 423144 India",14.5432369,74.3171358
"Kudle Beach, Gokarna 581326 India",14.5437315,74.3135985
"Dubbanashashi Rd Bhavikodla, Gokarna 581326 India",14.5678921,74.3077301
"Fish Market Road, Opp Om International, Near KSRTC Bus Stand Next to Ganesh Hotel, Gokarna 581326 India",14.5371752,74.32941989999999
"Kudle Beach Rd Ganpati temple, Gokarna 581326 India",14.5432178,74.31701559999999
"Gokarna Beach Road Near Badrakali Temple, Gokarna 581326 India",14.5449265,74.3140124
"Garden Road Behind Center Kamat, Gulbarga India",17.329731,76.8342957
"Om Beach, Gokarna India",14.5192405,74.3230039
"Nelaguni, Gokarna 581319 India",14.5703146,74.3176876
"1 - 73/1 Station Road Near Mini Vidhana Soudha, Gulbarga 585102 India",17.3214297,76.82959199999999
"Kudle Beach, Om Beach road, Gokarna 581326 India",14.5305012,74.32548190000001
"Kadechur Central, opp City Municipal Corporation, Main Road Jagat Circle, Gulbarga India",17.3331305,76.8351689
"Opp. Gescom,Station Road, Gulbarga 585102 India",17.3178328,76.8261275
"Alvekodi Near Alvekodi Church Kumta-, Gokarna 581343 India",14.4149137,74.4027294
"Kudle Beach Road Kudle Hill Top, Gokarna 581326 India",14.5344971,74.315815
"opp Railway Station, Gulbarga 585102 India",17.329731,76.8342957
"MSK Mill Road Vasantha Nagar, Gulbarga 585102 India",17.3229328,76.821894
Gulbarga 585103 India,17.3429962,76.7567368
"Nh50 Near Sultanpur Chowk, Gulbarga 585104 India",17.4005438,76.84831199999999
"Mularahalli Village, Mudigere 577132 India",13.0325514,75.559693
"New Jewargi Road Near Indian Oil bunk, Gulbarga 585104 India",17.3118411,76.8152952
"Kumbaradi Village, Mudigere 577132 India",13.1365287,75.64032449999999
"Bakkadi Village Mekanagadde Post 20min drive from Sakleshpur, Mudigere 577132 India",13.1365287,75.64032449999999
"2-244, Main Road, Opp. Public Garden, Jagat, Gulbarga 585105 India",17.3267543,76.8389413
"2-244, Main Road, Opp. Public Garden, Jagat, Gulbarga 585105 India",17.3267543,76.8389413
"Mallikarjuna Estate, near Daradahalli Handpost, Daradahalli Village, Mudigere 577132 India",13.1365287,75.64032449999999
"Kottrakere Village, Devaramane Gudda, Mudigere Taluk, Chikmagalur, Mudigere 577132 India",13.0608003,75.5378599
"Ram Mandir Circel.High Court Rood-Gulbarga, Gulbarga 585105 India",17.329731,76.8342957
"Devaramane, Hornadu, Mudigere 577181 India",13.2757566,75.3357994
"Devarunda post, Mudigere 577132 India",13.0392552,75.6376535
"KSR Road, Mangalore 575001 India",12.8717605,74.842071
"Station Main Road Kandoor Mall, 3rd floor, S V P Circle, Gulbarga 585102 India",17.319137,76.8277681
"Opp. First Neuro Hospital, Kodakkal Padil Post, Mangalore 575007 India",12.8705812,74.8958675
"Mandagadde Post,, Shimoga 577220 India",13.734665,75.456321
"Chota Mangalore, Mangalore 575020 India",12.8211837,74.84115899999999
"Urban Retreat Road,Pilikula Vamanjoor, Mangalore 575028 India",12.9238327,74.90006629999999
"MUDA Layout Someshwar Beach, Mangalore 575023 India",12.9044817,74.8659414
"S C S Hospital Road Balmatta Junction, Mangalore 575002 India",12.8747234,74.8551467
"#40, U Hosahalli Chikmagaur Dist., Mudigere 577132 India",13.1365287,75.64032449999999
"Opp KSRTC Bus Stand Bejai, Mangalore 575004 India",12.8861771,74.84212490000002
"S No. 2/1 Thirthahalli Road, Shimoga India",13.7311504,75.2516729
"K.K.R Road Karangalpady, Mangalore India",12.8770257,74.84428129999999
"Devangi Post, Thirthahalli Taluk Malnad Region, Shimoga 577 415 India",13.9299299,75.568101
"GHS Road, Mangalore 575001 India",12.8682551,74.8403161
"Door No - 5-5-301, M.G Road, near Sdm Law Collages, Mangalore 575003 India",12.8869295,74.83813970000001
"Beach Road Beach Road Someshwar Uchil, Mangalore 575021 India",12.9141417,74.8559568
"KT Krupal, Sri Manjunatha Rice Mills Gabadi, Tudur Post, Shimoga 577662 India",13.9299299,75.568101
"Kodialguttu Road Opp. R.K Auto World, Mangalore 575003 India",12.8806468,74.84178399999999
"Guddekeri Post Thirthahalli Taluk, Shimoga 577411 India",13.5660825,75.1284874
"Guddekeri Post Thirthahalli Taluk, Shimoga 577411 India",13.5660825,75.1284874
"Naalur Post, Thirthahalli Taluk, Shimoga 577424 India",13.5940889,75.1355659
"Guddekeri Via Agumbe Thirthahalli Tq, Shimoga 577411 India",13.5026635,75.0903154
"Gajanoor, Shimoga 577202 India",13.853376,75.5400433
"3rd Parallel Rd, Durgigudi, Shimoga India",13.9345562,75.57351899999999
"B.H. Road Behind Corporation Bank, Bhadravathi, Shimoga 577301 India",13.8246566,75.6868928
"Nangala Village Bittangala Post, Virajpet 571218 India",12.1949851,75.8040022
"Jog Falls Sagar Taluk, Shimoga 577435 India",14.1670402,75.0403
"Nangala Village, Bittangala post, Virajpet 571218 India",12.1949851,75.8040022
"Maggula Village, Near Institute Of Dental Sciences, Virajpet 571218 India",12.2024902,75.8141728
"Gonikoppa Road, Virajpet 571218 India",12.1261162,75.888611
"South Western part of coorg district Coorg, Virajpet 571212 India",12.1949851,75.8040022
"Bharathipura Post Thirthahalli Taluk, Shimoga 577432 India",13.7054847,75.26207819999999
"Near Iruppu Water Falls Kurchi Village, Virajpet 571217 India",11.9661026,75.9833292
"State Highway 21 Arji Village, Perumbadi, Virajpet 571218 India",12.1785192,75.7995775
"West Nemmale Village and Post T Shettigeri, Virajpet 571249 India",12.1949851,75.8040022
"Sharda Residency Khb Colony Road Kavoor Road Plot No.21, Behind Hotel Coriander, Mangalore 575015 India",12.9233169,74.86533519999999
"F M C Road near Clock Tower, Virajpet 571218 India",12.1977249,75.8029365
"Apparanda Sagar Ganapathy Yavakapadi Village,, Virajpet 571212 India",12.1949851,75.8040022
Virajpet 571218 India,12.1949851,75.8040022
"Sagara Road 35/2A, Opposite Sharavathi Dental College, Shimoga 577202 India",13.9299299,75.568101
"Virajpet-Mysore Rd, Virajpet 571218 India",12.1917045,75.8087018
"Balraj Urs Road Near railway station, Shimoga 577201 India",13.9379268,75.5784088
"Belmar Aroor, Udupi India",13.4056699,74.7791505
"Thombathu, Hengavalli post Via Goliangadi, Kundapura Taluk, Udupi 576212 India",13.5517563,74.9346113
"Nh 66,, Udupi 576103 India",13.4354679,74.7445927
"Near Service Bus Stand, Udupi 576101 India",13.3422873,74.74727899999999
"Malpe Beach Road Near Gandhi Statue Malpe Beach, Udupi 576108 India",13.3562156,74.712396
"Kundalahalli Village, Sakleshpur 577119 India",12.9689968,77.72088529999999
"Keshava Iyengar Rd #28/28/ 1 L 37/1, Behind Suburb Stand, Lashkar Mohalla, Mysuru (Mysore) 570001 India",12.312242,76.6577908
"#435, K.R.S Road Metagalli, Mysuru (Mysore) 570016 India",12.3514192,76.6290703
"Kallumetlu Village,acchanahalli Sakleshpur, Hanbal Post,karnataka, Sakleshpur 573165 India",12.9699722,75.6665881
"Kotiganahally Estate Agani , Hanbal Post, Sakleshpur 573134 India",13.0046838,75.6969615
"Nh 66 Padubidri, Udupi 574111 India",13.1407854,74.7720464
"#25, Vasantha Mahal Road, Opp. Chamundi Vihar Stadium Nazarbad, Mysuru (Mysore) 570011 India",12.3069493,76.6673036
"Calicut Road, Gundlupete, Mysuru (Mysore) 571111 India",11.8083459,76.6927259
Sakleshpur 573134 India,12.9441511,75.78656529999999
"#783/3. 229/4, Mahajana Layout Abhishek Road Hebbal ( Near Vijaya Nagar 2nd Stage Water Tank), Mysuru (Mysore) 570017 India",12.3390979,76.6143013
"38/139 Ramavilas Road, Near Jagan Mohan Palace Subbarayanakere, Chamrajpura, Ashoka Road, Mysuru (Mysore) 570004 India",12.3056285,76.6475189
"#146/1 Ashoka Road Opp. St.Philomenas Church, Mysuru (Mysore) 570001 India",12.3210417,76.65826349999999
"Agani Village, Hanbal Post, Sakaleshpura, Sakleshpur India",13.0046838,75.6969615
"#849 N26/2 Zoo Road Nazarbad Ittige Gudu, Mysuru (Mysore) 570010 India",12.3016953,76.6641623
"106/1, Nanjangud Road, Mysuru (Mysore) 570004 India",12.2540599,76.6589973
"2720 Sri Harsha Road, Mysuru (Mysore) 570001 India",12.3086648,76.6583437
Sakleshpur 573134 India,12.9441511,75.78656529999999
"No.1979 Kothwal Ramaiah Street Near Rajkamal Theatre, Next to Sridevi Restaurant, Off Dhanvantri Road, Mysuru (Mysore) 570001 India",12.3115134,76.6478695
"2927/7, Irvin Road beside KSRTC Suburban Bus Stand, Mysuru (Mysore) 570001 India",12.313483,76.6582924
"Kodlipet Road Varshini Estate, Sakleshpur 573134 India",12.8741482,75.76445319999999
"view point, Mankanalli Bisle Kooduraste, Sakleshpur 573123 India",12.9441511,75.78656529999999
"Achhanahalli Bilisare Village, Sakleshpur 573165 India",12.9763916,75.6594339
"Belur Road Lakkunda Basaveshwara Coffee Estate, Sakleshpur 573215 India",13.1177911,76.003284
"Bangalore-Mangalore Road, Sakleshpur 573134 India",12.9432588,75.7836087
"Athibeedu, Devaldakere Post, Sakleshpur 577119 India",12.9441511,75.78656529999999
"Nelson Mandela Road Opposite to Highway Circle, Mysuru (Mysore) 570015 India",12.33217,76.6510321
"Devaladakere, Hanbal, Sakleshpur 573119 India",13.0046838,75.6969615
"Byagadahalli Kudraste, Kudrasthe, Sakleshpur 573123 India",12.7375902,75.7584351
Sakleshpur 573165 India,12.9441511,75.78656529999999
"Brindhavan Estate, Kyanahalli Main Road, Arekere Arekere, Sakleshpur 573134 India",12.8863288,75.766567
"Yermalbada Fisheries Road Yermal Bada, Udupi 574119 India",13.3408807,74.7421427
"Prasad Estate Haside Village, Halasulige Post, Sakleshpur 573127 India",12.9441511,75.78656529999999
"B.M. Road # 3 Prabhu Complex, Kushalnagar 571234 India",12.4571174,75.9596564
"Mysore-Madikeri Road Opp. Cauvery Nisargadhama, Guddehosur Post, Kushalnagar 571234 India",12.3398426,76.171775
"Bollur Village Guddehosur Post, Kushalnagar 571234 India",12.4525127,75.9241195
"Survey No 66, Chimmecool Road Agni Village Hanbal, Hobli, Sakleshpur 573134 India",12.9441511,75.78656529999999
"Jinnapura Estate Kaganoor Village, Alur Taluk, Sakleshpur 573123 India",12.8428934,75.8853465
"Girgur road Near Golden Temple, Kushalnagar 571324 India",12.4430867,75.9727458
"Bugadahalli Village, Sakleshpur 573134 India",12.9441511,75.78656529999999
"Near Madikeri, Kushalnagar 571254 India",12.4555177,75.9570234
"Maharanapratap Road, Mysuru (Mysore) 570010 India",12.2892073,76.6743649
"Behind K.S.R.T.C. Bus Stand Shambhavi Fortune, Udupi 576101 India",13.3410096,74.7472785
Kushalnagar 571234 India,12.4555177,75.9570234
"Kinnimulki Main Road Near Govinda Kalyana Mantapa, Udupi 576101 India",13.3297564,74.7441532
"Kundapur Taluk Near Mangalore, Udupi 576214 India",13.3408807,74.7421427
"2203 60 New Sayyaji Rao Road Nelson Mandela Circle, Mysuru (Mysore) 570021 India",12.330364,76.64518
"6/2, Thanisandra Main Road, Bengaluru 560064 India",13.0845982,77.64275760000001
"56 Electronic City Phase - 1 D Opposite Wipro Gate No. 5, Bengaluru 560100 India",12.8392482,77.6593915
"Devaladakere Post Hanbal, Sakleshpur 573165 India",13.0046838,75.6969615
"2932/B, Off Bangalore - Nigiri Road Behind Kalyan Jewels, Mysuru (Mysore) 570001 India",12.3160625,76.659089
"Virupapur Gaddi, Hampi 583234 India",15.3408783,76.45308930000002
"Ramagondana Halli, Varthur Road, WhiteField, Bengaluru 560066 India",12.9569464,77.7409438
"28th KM, Mysore Road, Bengaluru 562109 India",12.8103947,77.4025887
"No 3 Nazarabad Main Road, Mysuru (Mysore) 570010 India",12.3093743,76.6623461
"Plot No, 23, EPIP Zone Whitefield Rd, Bengaluru 560066 India",12.9721622,77.7177999
"#268, Lakshivilas Road Jaganmohan Palace Circle, Mysuru (Mysore) 570001 India",12.3068751,76.6498627
"Lalitha Mahal Road, Mysuru (Mysore) 570028 India",12.298914,76.6922946
"14/7 Mahatma Gandhi Road, Bengaluru 560042 India",12.9748319,77.61060800000001
"Hampi Bazaar Street, Hampi 583239 India",15.3347446,76.4621458
"Mangalore - Mysore Highway Opposite Government Polytechnic College, Kushalnagar 571234 India",12.4470416,75.8149486
"Reservoir Road Near Sanapur Lake, Hampi 583234 India",15.3569246,76.4349201
"Janatha Plot, Hampi 08394 India",15.3350132,76.46002399999999
"Falnir Road, Mangalore, Mangalore 575001 India",12.8679782,74.8505627
"Beside Shagil Watch Company, Near Yenepoya Hospital Derlakatte, Mangalore 575022 India",12.8122283,74.88053359999999
"Kumarakrupa Rd Opposite Golf Club, Bengaluru 560001 India",12.9890903,77.5813203
"Navabharath Circle, Mangalore 575003 India",12.8746895,74.8400869
"Navabharath Circle, Mangalore 575003 India",12.8746895,74.8400869
"Telecom House Road Behind Hotel mayura, Mangalore 575001 India",12.8595223,74.841411
"1 - 262/2 - 16 Sabarabail Mudushedde Vamanajoor, Mangalore 575028 India",12.9326206,74.8966859
"3 Km From Hampi Bazaar Street, Hampi 583239 India",15.3347446,76.4621458
"K.S. Rao Road Karunadham, Mangalore 575001 India",12.8696382,74.842169
"Near Kamalapur, Hampi 583 221 India",15.3350132,76.46002399999999
"Hampi Bazaar, Hampi India",15.3341232,76.4643603
"Kempegowda International Airport Road Behind ITC Factory, Tarabanahalli Village Road, Bengaluru 562157 India",12.9692232,77.7214178
"Belekan Road Kahani Paradise Estate, Belekan, Gokarna 581326 India",14.5203851,74.33919329999999
"Kudle Beach Road Hill Top Gokarna, Gokarna 581326 India",14.5432369,74.3171358
"Om Beach Road, Melinakeri, Gokarna 581326 India",14.533117,74.3263378
"NH 66, Kottara Chowki Near Infosys, Mangalore 575006 India",12.5342681,74.9663858
"58/4 Gokarna Main Beach Road, Gokarna 581326 India",14.5437352,74.3136288
"Door No. 5-7-508/31 Ward No 29 Navabhrath Circle, Kodialbail, Mangalore 575003 India",12.8746895,74.8400869
"Om Beach, Donibhail, Gokarna 581326 India",14.5192405,74.3230039
"Lakshmipura, Dasarahalli Village, Kaimara Post, Chikmagalur 577101 India",13.3806019,75.75332019999999
"Golf Club Road Allampura, Chikmagalur 577101 India",13.3578452,75.7637998
"116 Kiadb Industrial Growth Centre, Hassan 573201 India",13.0186337,76.0949844
"No 275 Erealla Survey DasaraHalli Grama, Chikmagalur India",13.3161441,75.7720439
"Hesagodu Village, Banakal Hobli Mudigere Taluk, Chikmagalur 577113 India",13.1401275,75.54950459999999
"Mallenahalli Road, Hosahalli, Chikmagalur 577101 India",13.5472821,76.2326889
"B.M Road Jewellery Hassan Opposit to Malabar Gold, Hassan 573 201 India",13.0010296,76.09834769999999
"Jenkal-Hodachahalli Hodachahalli Village, Hanbal P.O, Sakleshpur, Hassan 573165 India",12.99051,75.68736299999999
"203, Vinayaka Plantations, Hosahalli Pete Post, Chikmagalur 577130 India",13.3161441,75.7720439
"Indira Gandhi Road Pension Mohalla, Beside Karnataka Bank, Chikmagalur 577101 India",13.3231937,75.7720939
"Vinayaka Block Belur Road Next to Keerthi Krishna Conventional hall, Chikmagalur 577101 India",13.3079049,75.7822338
"Indira Gandhi Rd Srungar Circle, Opposite To Main Syndicate Bank, Joythinagar, Chikmagalur 577101 India",13.3218692,75.7763927
"SH- 57, Bhadra Wildlife Sanctuary, Chikmagalur 577137 India",13.6948738,75.635227
"State Highway 64 Aladgudde Cross Baskal Road, Vastare, Aladagudde, Chikmagalur 577133 India",13.2701943,75.70952659999999
"BM Road Beside malabar gold, behind shubodaya kalyana mantapa, Hassan 573201 India",13.0004886,76.0989019
"72 Harshamahal Road Ward No. 8, Near SBG Theatre, Hassan 573201 India",13.0089071,76.1015214
"BB Hills Road Near, Inam Dattathreya Peeta, Chikmagalur 577131 India",13.4171769,75.7429636
"Jyoti Nagar Post, Chikmagalur 577102 India",13.3218692,75.7763927
"I.G Road Cross Opposite Punjab National Bank, Chikmagalur 577101 India",13.315434,75.771364
"Road Near Cafe Coffeeday Maruthinagar, Chikmagalur 577101 India",13.3078704,75.76549279999999
"Mugthihalli Post, K M Road Mugthihalli Post, Chikmagalur 577133 India",13.4291502,75.9143211
"Pune Bangalore Bypass, Hubli-Dharwad 580001 India",15.3647083,75.1239547
"Girija Estates Survey No: 618, Chikmagalur 577101 India",13.3161441,75.7720439
"52, 5th Cross, Gokul Rd Huda Layout, Ravi Nagar, Basaveshvar Nagar, Hubli-Dharwad India",15.3589284,75.1053139
"Gokul Road Opposite Nehru Nagar Water Tank, Hubli-Dharwad 580030 India",15.3520969,75.0972223
"A-205, Godrej Coliseum, Hubli-Dharwad 400022 India",15.3647083,75.1239547
"A-205, Godrej Coliseum, Hubli-Dharwad 400022 India",15.3647083,75.1239547
"349# Kaddirampura, Hampi 583239 India",15.3350132,76.46002399999999
"PB Rd, Vidya Nagar, Hubli-Dharwad 580031 India",15.3715443,75.1180779
"Beside Convent School, Keshwapur,, Hubli-Dharwad 580023 India",15.3573038,75.145633
"P B Road Opp Kittle College, Hubli-Dharwad India",15.457345,75.0077792
"Waterfalls Road, Sanapur, Hampi 583234 India",15.3350132,76.46002399999999
"Ananth Residency 3'rd Cross Street, Hubli-Dharwad 580020 India",15.3522939,75.144324
"Virupapur Gaddi Main Rd., Hampi 583234 India",15.3408783,76.45308930000002
"Belgum Road, opp IB, Hubli-Dharwad 580002 India",15.3647083,75.1239547
"1456 PB Road, Sattur Near SDM Dental College, Hubli-Dharwad 580009 India",15.4179259,75.0407752
"Virupapura Gaddi Sanapura Gangavati tq. Kappal District, Hampi 583234 India",15.3408783,76.45308930000002
"New Hampi Road, Hampi 583239 India",15.3108819,76.4461899
"Virupapura Gaddi, Sanapura, Munirabaad, Gangavathi Tq, Koppala Drt, Hampi 583234 India",15.3408783,76.45308930000002
"Rajiv Nagar Hampi Area, Hampi 583201 India",15.3350132,76.46002399999999
Hampi 583239 India,15.3350132,76.46002399999999
"New Cotton Market Near VRL office, Hubli-Dharwad 580029 India",15.3544383,75.1352105
"Janatha Flat, Hampi 583239 India",15.3350132,76.46002399999999
"Janatha Plot, Hampi 583239 India",15.3350132,76.46002399999999
"Sakleshpur Road B.M. Road, Hassan 573201 India",12.9441511,75.78656529999999
"No.15, B M Road Near Pruthvi Theatre, Hassan India",12.9460433,75.7848228
"Hubballi Airport Road Beside Hosur Bridge Gokul Road, Hubli-Dharwad 580030 India",15.3512138,75.12758409999999
"Arali Marada Koppalu, Hassan 570103 India",13.1815609,75.8339779
"Kumbarahalli Estate Saklespur, Hassan 573 137 India",12.9441511,75.78656529999999
"Kaddirampur Hampi Road, Near Canara Bank, Hampi 583239 India",15.3115462,76.4620971
"H.N Pura Road Opp. K.I.A.D.B Office, Industrial Growth Center, Hassan 573201 India",13.0033234,76.1003894
"H.N Pura Road K. Hosakoppalu, Near K.MF, Hassan 573201 India",12.9891244,76.1084185
"New Hampi Rd, Hampi 583239 India",15.3108819,76.4461899
"Melekote Tuda Layout, Tumkur 572105 India",13.3297963,77.08306759999999
"Melekote Tuda Layout, Tumkur 572105 India",13.3297963,77.08306759999999
"Alur Rd, Hassan 573215 India",13.0812188,75.8766333
"Oop Gandhada Koti, R.C Road, Hassan 573201 India",13.0102703,76.1029628
"B H Road, Tumkur 572201 India",13.2625743,76.4551021
"Hampi Bazaar Janata Plot, Hampi 583239 India",15.3341232,76.4643603
"P B Road Near Old Bus Stand, Hubli-Dharwad 580029 India",15.3504998,75.1361106
Tumkur India,13.3378762,77.117325
"22 - 23 Jai Bharath Tower Vivekananda Rd, Tumkur 572101 India",13.3429563,77.103341
"Janatha Plot Main Virupakash Tempal 2Mit Walk, Hampi 583239 India",15.3350132,76.46002399999999
"B M Road Opp. Big Bazaar, Hassan 573201 India",13.0003655,76.0957208
"B M Road Opp. Big Bazaar, Hassan 573201 India",13.0003655,76.0957208
"B H Road Kyatasnadra, Tumkur India",13.3232525,76.7293206
"The Glampies, Survey #94, Ballagere Kaval, Hebbur, Tumkur 572120 India",13.1862657,77.0568163
"Bangalore-Mangalore Road Ammeer Mohalla, Hassan 573201 India",12.9881545,76.1094267
"Goravanahalli MN RD NR To Mahalakshmi Temple, Tumkur India",13.3378762,77.117325
"Belur Road Survey No. 357, Handinkere Village, Hassan 573217 India",13.015456,76.0695313
"Thalihalla Village Mallandur Road Jakkanahalli Post, Chikmagalur 577130 India",13.3359641,75.67510279999999
"Middle Beach, Gokarna Near Kariyappa Temple, Gokarna 581326 India",14.5555879,74.3098145
"Tumkur-Kunigal Road, Tumkur 572101 India",13.3368252,77.0968067
"BH Road Next to High School Field, Tumkur 572102 India",13.3386066,77.11091309999999
"Venkateshwara Estate, Mudigere 577132 India",13.1596268,75.4983956
"Exact opposite to Sri Annapoorneshwari Temple, Mudigere 577101 India",13.1365287,75.64032449999999
"Survey No 79A/1, Hissa 2/2, Belehittal Rd Near Namaste Samudra, Gokarna 581326 India",14.5478586,74.31884099999999
"Near Hand Post Circle, Mudigere 577132 India",13.1217041,75.62823829999999
"Sira Road #12, Sira Gate, Tumkur 572106 India",13.3640052,77.10321
"Bavikudla Road Hissa 221, Gokarna 581326 India",14.5495881,74.3252134
"GDA Layout, Near Central Bus Stand, M S K Mill Road, Gulbarga 585103 India",17.3253441,76.8193691
"Near Srinivas College Pappilon Residency Near Srinivas College, Mangalore 575021 India",12.9141417,74.8559568
"Riya Beach, Gokarna 581326 India",14.576637,74.3007168
"M S K Mill Road, Opposite Central Mall, Near Central Bus Stand, Gulbarga 585103 India",17.3262909,76.8191394
"Bh Road Opposite Rto Office, Tumkur 572102 India",13.3354089,77.1220235
"Mahagaon Opp Karnataka Eletricity Bord, Gulbarga India",17.329731,76.8342957
"Kudle Beach Road Hill Top Gokarna, Gokarna 581326 India",14.5432369,74.3171358
"No 14 & 20, Sy. No 113/3, Rawoor Orchid Near Central Bus Stand - Jewargi Cross, Gulbarga 585102 India",17.3243673,76.8202432
"Kankanady Bypass Road, Mangalore 575002 India",12.869662,74.8606953
"Opp. S.B. Patil Petrol Pump - Station Road, Gulbarga 585103 India",17.3178328,76.8261275
"Station Bazar, Gulbarga 585102 India",17.3166244,76.8254899
"Station Bazar, Gulbarga 585102 India",17.3166244,76.8254899
"Dr Jawali Complex Supermarket, Gulbarga India",17.3377057,76.83696549999999
"Paradise Plantation, Mudigere 577133 India",13.2428657,75.7487779
"Opposite SP Office, B H Road, Tumkur 577101 India",13.3344973,77.1230551
"Opposite Chowk Masjid, Near Darga, Gulbarga 585104 India",17.3379578,76.83738249999999
"MSK Mill Road Plot No 29 Beside Central Bus Stand, Gulbarga 585103 India",17.3253441,76.8193691
"Main Road, Gulbarga 585105 India",17.3245213,76.8317981
Gulbarga 585105 India,17.3267543,76.8389413
"Kalasa-Kudremukh Road, Mudigere 577124 India",13.2343586,75.3557927
"Central Bus Stand MSK Mill Main Road, Gulbarga 585103 India",17.3253441,76.8193691
"Shree Sannidhi Layout Vidyanagar, Mudigere 577132 India",13.1365287,75.64032449999999
"Kodialbail P V S Kala Kunj Road, Mangalore 575003 India",12.8764009,74.8380066
"Khan Complex Darga Road, Gulbarga India",17.3418163,76.8444315
"Kambala Road, Mangalore 575006 India",12.9100531,74.8863287
"Kalasa Main Road, Mudigere 577124 India",13.2120038,75.2710595
"MG Road, Mudigere 577132 India",13.1317845,75.6413255
Mudigere 577132 India,13.1365287,75.64032449999999
"Kalasa Karnataka Hornad Haluvalli Bypass Road. Kalasa. Taluk, Mudigere 577124 India",13.2343586,75.3557927
"Bangra Kulur, Mangalore 575013 India",12.9181454,74.8390939
"Shahapur Road Near HP Petrol Pump, Gulbarga 585310 India",17.329731,76.8342957
"KS Rao Road Opposite Prabhat Theatre, Mangalore 575001 India",12.8717605,74.842071
"Urva Stores Kavitha Residency Near Infosys, Mangalore 575006 India",12.900777,74.8353269
"Subhashitha Nagara, Surathkal Nh-66, Mangalore 575014 India",12.9922721,74.7995822
"Pilikula Road, Mudushedde Post, Vamanjoor, Dakshina Kannada, Vamanjoor, Mangalore 575028 India",12.9276515,74.8969476
"Prema Layout # 4 - 147/30 Binary Homes Kottara Cross Road Kottara Chowki,, Mangalore 575006 India",12.9119174,74.8370869
"Kudle Bearch Road, Gokarna 581326 India",14.5432369,74.3171358
"Balmatta Road Near Mandovi Motors, Hampankatta, Mangalore 575002 India",12.8714801,74.8475326
"Bunder Azizudin Road Near Indian Overseas Bank, Mangalore 575001 India",12.8618639,74.8335599
"Beside Central Bus Stand, Gulbarga 585103 India",17.3450256,76.82483900000001
"Dr Jawali Complex, Super Market, Gulbarga India",17.3377057,76.83696549999999
"Bada Roza, Dargah Road, Gulbarga 585104 India",17.3463202,76.8503234
"Kudle Hill top, Gokarna 581326 India",14.5344971,74.315815
"Bus Stand Road Timmapuri Complex, SVP Chowk, Gulbarga 585102 India",17.3368543,76.8122032
"Timmapuri Circle Station Road, Gulbarga 585102 India",17.3190225,76.8272523
"Balmatta - Kankanady Road Paramount West Gate Bendoorwell, Mangalore 575002 India",12.8715114,74.8548323
"Ganapathi High School Road, Hampankatta, Mangalore 575001 India",12.8699924,74.8400215
"3 - 89 At Site No 88 Khb Colony Airport, Near Airport Near High Court Biddapur, Gulbarga 585101 India",17.3186571,76.8043355
"Near Kudle Beach Om Beach Road, Gokarna India",14.5305012,74.32548190000001
"Western Woods, Mudigere 577132 India",13.0426949,75.5669855
"Western Woods, Mudigere 577132 India",13.0426949,75.5669855
"Pattumudi Soudha Ballalbagh, Mangalore India",12.8809726,74.83882559999999
"Old Jewargi Road Utunoor, Gulbarga 585102 India",17.3174982,76.8226483
"Balmatta Main Road Near Don Bosco Hall, Mangalore 575001 India",12.8707145,74.84694499999999
"Station Road, Behind Ak Asian Grand, Gulbarga 585102 India",17.3229775,76.83116140000001
"Makonahally C - 53/1 State Highway 66, Mudigere 577132 India",13.2038311,75.3345707
"Balur Post State Highway 66, Mudigere 577132 India",13.1365287,75.64032449999999
"G.Hosahalli, Mudigere 577132 India",13.0078796,75.7535855
"Vinayaka Estates Muttigepura, Mudigere 577132 India",13.1365287,75.64032449999999
"Vinayaka Estates Muttigepura, Mudigere 577132 India",13.1365287,75.64032449999999
"#1 - 383 Beside Railway Station Gate Ib Road Kalaburagi, Gulbarga 585102 India",17.3245213,76.8317981
"Sangam Residency Luxury Nagchoon Road Plot No 1 - 9b Khuba Plot Station Bazzar, Gulbarga 585105 India",17.326179,76.83029069999999
"Ragavendra K.P Rudra Krupa Plantation, Chikamagalur, Mudigere 577132 India",13.1365287,75.64032449999999
"Station Bazar Near Railway Station, Gulbarga 585102 India",17.3166244,76.8254899
"Falnir Road Hotel Highland Residency Falnir Road Opposite Highland Hospital, Mangalore 575002 India",12.866831,74.854792
"Garden Area,3rd Cross, Shimoga 577201 India",13.9319981,75.5713377
"Sidapur Road Virarajendrapet - Coorg, Virajpet 571218 India",12.1949851,75.8040022
"Alake Rd Near Alake Bridge, Mangalore 575003 India",12.8747148,74.8338123
"Rathnamma Madhav Road, Shimoga 577201 India",13.9518031,75.5906526
"Saanidhya School Road Opp. Corporation Bank, Shaktinagar, Mangalore 575006 India",12.90194,74.8792335
"Maidan Ist Cross Road Near Clock Tower, Above Fathima Stores, Hampankatta, Mangalore 575001 India",12.8679517,74.8608579
"Gandhi Bazar, Shimoga India",13.9224917,75.5727914
"Kadanga Muroor village and post, Virajpet 571212 India",12.1949851,75.8040022
"Next To Dental College, Virajpet 571218 India",12.1949851,75.8040022
"Chevur Estate, Bittangala Village, Virajpet Taluk, Virajpet 571218 India",12.1976895,75.8001602
"Hunsur Main Road Hinkal, Mysuru (Mysore) 570017 India",12.3295326,76.6051304
"Virupapura Gaddi, Hampi 583234 India",15.3408783,76.45308930000002
"Prakash Tower Dodatti Chowk, Virajpet 571218 India",12.1988701,75.80405929999999
"Hegala, Virajpet 571218 India",12.1949851,75.8040022
"Arji Hills Near Perumbadi Check Post, Virajpet 571218 India",12.1947336,75.8035307
Virajpet 571218 India,12.1949851,75.8040022
"B H Road, Opposite Vinayak Theatre BH Road, Shimoga 577201 India",13.9302586,75.57047659999999
"# 6 P.b. Siddartanagar, Mysuru (Mysore) 570011 India",12.3037644,76.6866406
"#1015, Udayaravi Road Kuvempunagar, Mysuru (Mysore) 560023 India",12.2864116,76.6271761
"Vidyasamudra Road Near Geetha Takies, Udupi 576101 India",13.3439764,74.7502748
"#67 Shankarmatt Layout M. G. Road Opposite To Jss Hospital, Mysuru (Mysore) 570004 India",12.2964765,76.6557773
"Golden Palms Avenue, Off Tumkur Road Hobli, Tumkur Road, Bengaluru 562123 India",13.1577019,77.3263878
"Chamappagi Road Right Wing Of Race Course Opp Police Horse Park, Mysuru (Mysore) 570010 India",12.2921807,76.67465589999999
"No.15, Mysore-Bangalore Road Beside JSS Dental College, Mysuru (Mysore) 570015 India",12.3422176,76.6542721
"2 Jhansi Rani Lakshmi Bai Rd Devaraja Mohalla, Shivarampet, Mysuru (Mysore) 570005 India",12.3118491,76.64503309999999
"Heggadde Post, Sakleshpur 573134 India",12.9441511,75.78656529999999
"Hanbal Hobli, Sakleshpur India",13.0046838,75.6969615
"Halugunda Road, Virajpet 571218 India",12.2182436,75.7959535
"21st West Cross Ashoka Road, Mysuru (Mysore) 570001 India",12.3166616,76.6570215
"No 62/3 Thonthalapura Yeslur Post, Sakleshpur India",12.9441511,75.78656529999999
"Near Coorg Golf Links Bittangala Village, Virajpet 571218 India",12.1815912,75.82797459999999
"Bilisare, Devaladakere Post, Sakleshpur 577101 India",12.9763916,75.6594339
"Hanbal, Sakleshpur 573119 India",13.0046838,75.6969615
"Mysore - Madikeri Rd, Kushalnagar 571234 India",12.3398426,76.171775
"Acchnalli village No.154, Devaldkere Post, Hanbal Hobli, Achanahalli, Sakleshpur 573165 India",13.0045574,75.6986216
"B.M Road, Sakleshpur 573134 India",12.9456372,75.7884323
"Yedvanad, Kushalnagar 561234 India",12.4555177,75.9570234
"#3615/1 Sayyaji Rao Road Opposite Old RMC, Mysuru (Mysore) 570021 India",12.3229095,76.6457011
"Makkihalli Village , Hanbal post, Sakleshpur 573165 India",13.0046838,75.6969615
"Sh- 91 Theppadakandi Dubare Main Roa, Basavanahalli,, Kushalnagar 571234 India",12.433918,75.9225065
"Sh- 91 Theppadakandi Dubare Main Roa, Basavanahalli,, Kushalnagar 571234 India",12.433918,75.9225065
"Sh- 91 Theppadakandi Dubare Main Roa, Basavanahalli,, Kushalnagar 571234 India",12.433918,75.9225065
"River Edge Camp, Theppadakandi, Dubare Main Road, Kushalnagar 571234 India",12.3726436,75.9004325
"River Edge Camp, Theppadakandi, Dubare Main Road, Kushalnagar 571234 India",12.3726436,75.9004325
"River Edge Camp, Theppadakandi, Dubare Main Road, Kushalnagar 571234 India",12.3726436,75.9004325
"1 - 86 Bm Road, Kushalnagar 571234 India",12.4571969,75.9596119
"Harangi Road, Near Chicakatur Kudige Road, Kushalnagar 571234 India",12.4712662,75.9523578
"Agalatti Rd, Sakleshpur 573134 India",12.9323811,75.6904081
"Mysore - Madikeri Rd Near Nisargadhama, Kushalnagar 571234 India",12.3398426,76.171775
"BM Road Koppa, near Kaveri Bridge Periyapatna, Kushalnagar 571104 India",12.4555177,75.9570234
"Plot No. 89, Bm Road Opposite Kushalnagar Post Office, Kushalnagar 571201 India",12.4571969,75.9596119
"Bengaluru - Mangaluru Highway Balegadde, Sakleshpur 573127 India",12.9432588,75.7836087
"BM Road Next To National Wines, Near RMC, Kushalnagar 571234 India",12.4524074,75.9650371
"Baanangala Attibeedu road, Sakleshpur 573165 India",12.9441511,75.78656529999999
"Opposite RMC, Next to Woodland Showroom, Kushalnagar 571234 India",12.4521567,75.9659738
"Chakkudige Village Hurudi, Sakleshpur 577132 India",13.0430328,75.7142543
"1294/B Jhansi Lakshmi Bai Road Close to Railway Station, Mysuru (Mysore) 570005 India",12.3047942,76.29277069999999
"Nelson Mandela Road Opp. Ksrtc Bus Depot, A Layout, Bannimantap, Mysuru (Mysore) 570015 India",12.3333269,76.6481299
"Gokulam 3rd Stage 5th Main Road, Mysuru (Mysore) 570002 India",12.3348398,76.6242347
"5 Contour Road Hebbal First Stage, Mysuru (Mysore) 570016 India",12.3331811,76.62355869999999
"No. 292/3, Lakshmikanthanagar, Hebbal 2nd Stage, Mysuru (Mysore) 570016 India",12.3503258,76.60755259999999
"Bannur Road Varuna, Hobli, Mysuru (Mysore) 570011 India",12.307801,76.6808483
"3157/1 Opp Govt Guest House North Gate Bn Road Lashkar Mohalla, Mysuru (Mysore) 570001 India",12.3034282,76.6582204
"538 1st Block Indira Extension Behind KSRTC Bus Stand, Kushalnagar 571234 India",12.4567173,75.96010470000002
"770/5, F-25, Ramanuja Road Annex Rajendra Kalamandhira, Mysuru (Mysore) 570 004 India",12.3005867,76.65396179999999
"Sh-88 Opposite Rmc, Next To Woodland Showroom, Kushalnagar 571234 India",12.4521567,75.9659738
"Sy No 135 Bugadahalli Village, Sakleshpur 573134 India",12.9441511,75.78656529999999
"#800 & 801, 10th Cross, Vijayanagar 1st Stage Opp Aishwarya Petrol Bunk, Hunsur Road, Mysuru (Mysore) 570017 India",12.325082,76.611634
"State Highway 110 Baliganahalli, near Magge, Sakleshpur 570321 India",12.8665259,75.9370548
"No.129,130, Madeshwara Ngr Lyt High Tension Rd, 2nd Stage, Vijayanagar, Mysuru (Mysore) 570017 India",12.3413171,76.62268329999999
"Mysore - Madikeri Rd, Kushalnagar 571104 India",12.3398426,76.171775
"Saklespur Taluk, Sakleshpur India",12.9441511,75.78656529999999
"Bilisare Village, Sakleshpur 577119 India",12.9441511,75.78656529999999
"Halasulege Road Kelagalale, Sakleshpur 573127 India",12.9441511,75.78656529999999
"Chakkudige Village, Hurudi Post, Sakleshpur 573165 India",13.0430328,75.7142543
"Ballupet Old Bm Road, Sakleshpur 573214 India",12.9434332,75.785775
"2898/1, Keshava Iyengar Road Halladkeri, behind Suburban Bus Stand, Mysuru (Mysore) 570001 India",12.3112717,76.65782279999999
"Bandadka - Bengaluru Rd, Sakleshpur 573134 India",12.9432588,75.7836087
"Head Post Office Rd Near Krishna Temple, Opposite Head Post Office, Udupi 576101 India",38.459371,110.658983
"Opposite. Suburb Bus Stand, Mysuru (Mysore) India",12.313483,76.6582924
"Bannimantap Main Road Opp K.S.R.T.C Bus Stop, Near High Way Circle, Mysuru (Mysore) 570015 India",12.3306812,76.6454518
"Bollur Village, Kushalnagar 571234 India",12.4525127,75.9241195
"Attihalli Village, Sakleshpur 573123 India",12.9441511,75.78656529999999
"Hampiriver Road Virupapura Gaddi, Hampi 583234 India",15.3363316,76.4577547
"No 986/625 Hunsur Main Road Opp-Nissan Car Showroom, Mysuru (Mysore) 570017 India",12.3253419,76.6111492
"Donahalli Village, Hanbal P.O, Sakleshpur 577119 India",12.9441511,75.78656529999999
"No D - 29 6th Main Road V.V. Puram, Mysore, Mysuru (Mysore) 570002 India",12.3240212,76.6312672
"Herur, Kushalnagar 571234 India",12.4555177,75.9570234
"Block B, Taramakki Road, Near KSRTC Bus Stand Ganjigadde, Gokarna 581326 India",14.5476092,74.3217207
"170/3 Jambaradi Village, Sakleshpur 573165 India",12.9441511,75.78656529999999
"No 1 5th Main Road West of Chord Road, Rajajinagar, Bengaluru 560010 India",12.9893055,77.5500972
"Kudlur Kudige Road, Kushalnagar 571234 India",12.4555177,75.9570234
Hampi 583239 India,15.3350132,76.46002399999999
Hampi 583239 India,15.3350132,76.46002399999999
"Laxman Residency National Highway 66, Mangalore 575004 India",12.8906737,74.8540874
"Watehalli post Via Arehalli, Sakleshpur 573134 India",13.0155001,75.79908309999999
"Malpe Beach 46, Malpe Beach, Udupi 576 108 India",13.3613804,74.6976506
"K S Rao Road, Mangalore 575001 India",12.8717605,74.842071
"Main Rd, Gokarna 581326 India",14.5495881,74.3252134
"#1 Golf Avenue Adjoining KGA Golf Course, HAL Airport Road, Bengaluru 560008 India",12.9524469,77.64697149999999
"Janata Plot opp ISSTA Travels, Hampi 583239 India",15.2845364,76.4282051
"Janata Plot, Hampi India",21.0850621,71.764843
"2270 Chittaranjan Palace Vinoba Road Chittaranjan Palace, Jayalakshmipuram, Mysuru (Mysore) 570012 India",12.3222639,76.6174753
"Nazarabad Mohalla Vasanth Mahal Road Near Nazarabad Police Station, Mysuru (Mysore) 570010 India",12.3105531,76.6632425
"2-18-1578/1, Kapikad, Mangalore 575004 India",12.891235,74.839184
"Kudle Beach, Gokarna 581326 India",14.5437315,74.3135985
"Near RTO Circle, Belgaum India",15.8660434,74.5194741
"Nehru Nagar Near JNMC, Belgaum 590010 India",15.882637,74.5180505
"3935 Club Road, Belgaum India",15.8680594,74.5091271
"12/B, RPD Cross, C D Deshmukh Road, Belgaum 590006 India",15.834757,74.504935
"Gandhinagar Hotel Sankam Residency Airport Road Gandhi Nagar, Belgaum 590016 India",23.2156354,72.63694149999999
"Old P. B. Road, Nehru Nagar, Belgaum 590010 India",15.8343356,74.5371938
"Village Belgundi, Belgaum 590018 India",15.8348049,74.4027294
"Ramlingkhind Rd CTS No. 1265, Shiv Sadan, Belgaum 590001 India",15.8578194,74.5086407
"Pathalagere Homestay, Kodachadri road Kattinahole Matthikai Post, Shimoga 577452 India",13.8623079,74.8752009
"Light House Hill Road Hampankatta, Mangalore 575001 India",12.8717746,74.846772
"#3360/2B College Road, Belgaum 590001 India",15.8639404,74.5081478
"Gallapur, Tumkur India",13.3378762,77.117325
"203, Rani Chennamma Nagar Near Belgaum Foundry Cluster, Belgaum 590006 India",15.8248508,74.4914737
"Gogte Plaza, Belgaum 591113 India",15.9286453,74.5298497
"Cts 4833 49 Ayodhya Nagar Civil Hospital Road, Belgaum 590001 India",15.8735278,74.5122136
"Shivaji Road, Belgaum 590001 India",15.8542563,74.5112248
"Shivaji Road, Belgaum 590001 India",15.8542563,74.5112248
"140/1, Belgaum-Jamboti Road, Belgaum 590014 India",15.6910084,74.36607839999999
"CTS No. 732, Khanapur Road Near Tilakwadi 3rd gate, Tilakwadi, Belgaum Opp D Mart, Belgaum 590007 India",15.8046779,74.4836158
"S S Mutt Road Kyathasanadra, Tumkur India",13.0248346,76.7453668
"Pete Road, Kyatasandra Near Basava Temple, Tumkur India",13.3708551,77.29259119999999
"10637, J.N.M.C Road Opp. Phoenix School, Nehru Nagar, Belgaum 590010 India",15.8841617,74.5171926
"S S Temple Road Vinob Nagar, Tumkur India",13.3378762,77.117325
"B H Road, Tumkur India",13.3457126,77.0835196
"Dr.Rajkumar Road, Bellary 583101 India",15.1431768,76.9427203
"Bangalore Road Opposite Old Bus, Bellary India",15.136586,76.9241512
"RTH Building Royal Circle, Bellary India",15.1451041,76.92807800000001
"1676/1, Kirloskar Road Opp.Nucleus Mall, Ramling Khind Road, Belgaum 590001 India",15.8589783,74.5090235
"1164/1165 Saraf Galli Shahapur, Belgaum 590003 India",15.8419277,74.5185075
"CTS No 3380/3 College Road Kolhapur Circle, Belgaum 590010 India",15.8771306,74.5144869
"Vivekanand Road Bus Stand Road, Tumkur India",13.3426936,77.1041633
"Kathgali Road Opposite Belgaum Golf Course, Desur, Khanapur, Belgaum 590014 India",15.6406634,74.51703189999999
"34/35 Kapeel Tower Kapileshwar Road Kapeel Tower, Belgaum 590001 India",15.858848,74.5083417
"1044/3B2 Opp Fort Lake Besides Fruit Market, Belgaum 590016 India",15.8653163,74.5276418
"Beejadi Beach Road Beejadi, Koteshwara, Kundapur 576222 India",13.5905664,74.67535
"Inside Turtle Bay Beach Resorts Kanchugodu. Gujjadi Post, Kundapur 576247 India",17.3900857,78.49333519999999
"Shirwad, Karwar 581306 India",14.8108084,74.1742052
"01 Hankal Kundapura, Kundapur 576201 India",13.635703,74.68930300000001
"Badagani, Haldipur, Honnavar, Karwar 581 327 India",14.2797502,74.4439252
"NH 218, Bijapur Road-Gaddanekeri Cross, Bagalkot 587102 India",16.1862171,75.61257960000002
"65, Halapeth NR Sahinsha Wali Darga, Bagalkot India",16.1901999,75.710457
"Sector-4 No-11&12, Navanagara Hubli-Bypass Road, Bagalkot 587101 India",16.1691096,75.6615029
"Ward No. 13 Near Yallamma Temple Teradal, Bagalkot 587315 India",16.494439,75.05235340000002
"Station Road Near Bus Stand, Bagalkot 587101 India",16.1691096,75.6615029
"Near Bus Station, Bagalkot 587101 India",16.1691096,75.6615029
"Bijapur Road, Bagalkot 587301 India",16.5106414,75.2932593
"2 41/2/a Pavan Priyanka Plaza, Kothaguda X Road, Opp Harsha Toyota Showroom, Kundapur 500084 India",17.4643489,78.3755955
"Kaikini Road, Near Canara Bank, Karwar 581301 India",14.8082922,74.1326032
"Sec No-33, Plot No-19C Navanagar Opp. LIC Office, Bagalkot 587103 India",16.1690997,75.6596355
"Near New Bus Stand, Kundapur 576201 India",13.6235274,74.6917418
"National Highway 52, Bagalkot 587102 India",16.1666085,75.6091724
"Survey No.109, Gaddankeri Near Seemikeri Cross, Bagalkot 587104 India",16.1842952,75.6178991
"109, Gaddenkeri, NH52 Navanagar, Bagalkot 587104 India",16.1684486,75.6095548
"NH 16 ,Tariwada, Kodibag, Karwar 581303 India",14.8350455,74.1314215
"BH Road, Shimoga 577201 India",13.9342224,75.5632793
"Near Bus Stand B H Road, Shimoga 577201 India",13.9303079,75.577441
"Green Woods Village, A Unit Of Fort Gate Holiday Home, Kundapur 576201 India",13.6235274,74.6917418
"Maldarwada, Devbagh, Chittakul, Sadashivgad, Karwar 581 352 India",14.8456561,74.1160317
"Lokapur Road Ranna Circle, Bagalkot India",16.1306059,75.4726658
"1, B.H Road Opp., Malnad Hospital, Near Dairy Circle, Bidire Bus Stop, Shimoga 577222 India",13.5520381,76.0159248
"Anagalli Road Near Sangam Bus Stop, Kundapur 576201 India",13.6329807,74.7182479
"Gaddanakeri cross, Bagalkot 587102 India",16.1862171,75.61257960000002
"Tariwada, Karwar 581352 India",14.8350455,74.1314215
"Honnali Main Road Jyothi Prakash Complex, Tavare Chanthalli, Shimoga 577201 India",13.941744,75.574202
"NH 66, Hemmady, Kundapur India",13.6259531,74.6938376
"Goa - Panvel Hwy, Near Shastri Park, Kundapur 576201 India",13.6235274,74.6917418
"Sy No 191, Janwada Rd Near Old Water Filter House, Bidar 585401 India",17.9699023,77.497805
"Bharathipura Post Thirthahalli, Shimoga 577432 India",13.7054847,75.26207819999999
"Main Road, Kundapur 576201 India",13.6626974,74.6624119
"Jabshetty Market Near Nandi Petrol Bunk, Bidar India",17.9103939,77.51990789999999
"Main Road, Kundapur 576201 India",13.6626974,74.6624119
"Karwar Kajubag Main Road, Karwar 581301 India",14.8093395,74.130218
"Hungund, Bagalkot 587118 India",16.0576259,76.06094759999999
"No.8-9-285/ A-4 Swamy Towers, Udgir Road, Bidar India",18.3818024,77.1209992
"Guddekeri Post, Thirthahalli Taluk, Shimoga India",13.5660825,75.1284874
"Guddekeri Post, Thirthahalli Taluk, Shimoga India",13.5660825,75.1284874
"Fort Gate Holiday Homes, Fort Gate Near Inspection Bungalow, Kundapur 576201 India",13.6235274,74.6917418
"N T Road Near New Bus Stand, Shimoga India",13.9299299,75.568101
"Savarline Road, Shimoga India",13.932298,75.5698329
"604 Dr. Pikle Road, Karwar 581301 India",14.8115472,74.1290265
"Madodi-Adgodi hosanagara, Shimoga 577201 India",13.9074659,74.94361889999999
"Agro Tech Park, Industrial Area-Hubli Bypass Road, Navanagar, Bagalkot 587103 India",15.3647083,75.1239547
"Cintacor Island Resort, Kurumgad Island,, Karwar 581301 India",14.8439257,74.0985376
"Durgigudi Jpn Road, Shimoga 577201 India",13.933962,75.5717393
"001, Amma Arcade, 2nd & 3rd Floor, 100 Feet Road, Police Chowki Circle, Vinoba Nagara, Shimoga 577204 India",13.9503163,75.5603422
"Inside Almatti Dam Sitimani Camp, Bagalkot 587207 India",16.331,75.88799999999999
"Near Deepak Film Talkies Opposite Sales TAX Office, Bidar India",17.9103939,77.51990789999999
"Jpn Road Gopi Circle, Opp. Manasa Hospital, Shimoga 572001 India",13.9337195,75.5729271
"Station Road, Bidar 585328 India",18.0514026,77.2255104
"Halady Road, Kundapur 576222 India",13.5889211,74.748417
"Basveshwar Circle Naubad, Bidar India",17.9349111,77.4731589
"Humnabad Near Manik Nagar Kaman, Bidar India",17.7859138,77.1125599
"8-9-108, Zyd Nanded Road Udgir Road, Bidar India",17.932385,77.4828119
"Balraj Urs Road Opp to Mahatma Gandhi Park, Shimoga 577201 India",13.9379268,75.5784088
"Apmc, Bagalkot 587101 India",16.1691096,75.6615029
"Anshi Village Trida Taluk, Dandeli 581301 India",15.2361191,74.6172819
"Gobral, Dandeli India",15.3169532,74.6107628
"Kulgi-Potoli Road Virnoli Village, Joida, Uttara kannada, Dandeli 581363 India",15.4853113,74.5176769
"Badkanshida Village, Dandeli 581325 India",15.2361191,74.6172819
"Joida Road, Potoli Village, Dandeli 581363 India",15.1687799,74.4848003
"Kerwad Village, Alur Gram, Dandeli 581325 India",15.2789493,74.6828568
"Vilaspur tank, Bidar 585401 India",17.9911759,77.3920128
"Village Ambeli, Dandeli 581365 India",15.2526549,74.505312
"Chandevadi Road Varande Village, Dandeli India",15.2361191,74.6172819
"Gobral Village, Barchi Post, Dandeli 581325 India",15.3169532,74.6107628
"Near Bus Stand, Sringeri 577139 India",13.4197675,75.2566564
Dandeli 581325 India,15.2361191,74.6172819
"19-6-303, Naubad Road, Havappa Layout Shivnagar South, Bidar 585401 India",17.9259302,77.4995806
"Phradhani Village, Near Ganeshgudi, Dandeli 581325 India",15.2842677,74.5302159
"#A1/602/1, J.N. Road, Dandeli 581325 India",15.251081,74.6205091
"H NO 113 Crocodile Park Road, Dandeli 581325 India",15.2458133,74.6369072
"210 Bamanagi, Dandeli 581325 India",15.2361191,74.6172819
"Bus stop K.A Street, Sringeri 577139 India",13.4197675,75.2566564
"SH 15 Bidar Mannakheli Highway, Bidar 585226 India",17.7220512,77.3847267
"Shidle, Sringeri 577139 India",13.4197675,75.2566564
"Near JCDM collage, Sringeri 577139 India",13.4197675,75.2566564
"Bada Kanshirada, Road, Dandeli 581325 India",15.2215335,74.6448008
"Kogilban, Dandeli 581325 India",15.2391797,74.6275996
"K V Ramappayya St Managaru, Sringeri 577139 India",13.4219405,75.2589706
"Bamanagi Village, Post Pradhani Bamanagi Village, Dandeli 581325 India",15.2361191,74.6172819
"Bharathi Street, Sringeri 577139 India",13.421862,75.2547217
"Harihara Street, Sringeri 577139 India",13.4176053,75.2504884
"Harihara Street, Sringeri 577139 India",13.4176053,75.2504884
"Udgir Rd, Opposite Gurunanak Gate, Bidar 585401 India",17.9218213,77.5090066
"Udgir Rd, Opposite Gurunanak Gate, Bidar 585401 India",17.9218213,77.5090066
"Usoda Village, Dandeli Wildlife Sanctuary, Dandeli 581325 India",15.251081,74.62050909999999
"Bharathi Street, Near Sharadamba Temple, Sringeri 577139 India",13.421862,75.2547217
"IPM Campus, Bailpar Near Old Dandeli Bridge, Dandeli 581325 India",15.2342778,74.6183849
"Chikmaglur Road Shankaracharya Circle, Near Welcome Gate, Sringeri 577139 India",13.427619,75.255287
"Bharathi Street, Sringeri 577139 India",13.421862,75.2547217
"Bharathi Street, Sringeri 577139 India",13.421862,75.2547217
"K.R. Bhaskkar Rao Keremane Mashige Post, Sringeri 577139 India",13.4240384,75.21969229999999
"Begar post, Sringeri 577120 India",13.4197675,75.2566564
"Managar, Sringeri 577139 India",13.4197675,75.2566564
"Thimmappa Hegde Arcade Bharathi Street, Sringeri 577139 India",13.421862,75.2547217
"#142, MD Block, Somvarpet 571236 India",12.5966239,75.8479485
"Hotel Sringeri Residency National Highway 13, Near Bus Stand, Sringeri 577139 India",13.4197675,75.2566564
"Thakeri Village and Post Somwarpet Taluk, Somvarpet 571236 India",12.5971194,75.8494171
"Gundicoppa Estate,Belur Village & Post Belur Village & Post, Somvarpet 571236 India",12.5572684,75.8561634
"Solapur - Mangalore Hwy, Sringeri 577139 India",13.4244142,75.2502112
"Kare Koppa, Belur Basavanahalli, Somvarpet 571236 India",12.5943101,75.8504904
"Kalkandur Village, Somvarpet 571236 India",12.6181677,75.832255
Somvarpet 571236 India,12.5943101,75.8504904
"51/13 Ts No, Bellary 583101 India",15.1243283,76.94702199999999
"Bellary Ring Rd Beside Allum Bhavan, Near Auto Nagar Check Post, Venkateswara Nagar, Bandimot,, Bellary 583101 India",15.135205,76.955298
"Barashi Street, Sringeri 577139 India",13.4197675,75.2566564
"Off Thanthipala Road, Somvarpet 571201 India",12.474747,75.7565904
"Meenakshi Circle, Bellary 583101 India",15.1243283,76.94702199999999
"Mountain View Lane, Maragodu, Madikeri Taluk 571201 India",12.3686838,75.79245
"Mangala Devi Nagar, Bellary India",15.15153,76.9164875
"Opp Sanjeevani Hospital Close To Hampi & Vidyanagar Airport Shankar Hill Town, Bellary 583123 India",15.1784692,76.62820549999999
"Trishul Estate, Kurali Road, Napoklu, Madikeri Taluk 571214 India",12.4244205,75.7381856
"N.H 169 Opp Main Bus Stand, Sringeri 577139 India",13.389942,75.2197094
"Brahmin Street, Bellary 583101 India",15.1398285,76.9247535
"Dr Rajkumar Road, Off Royal Circle, Bellary 583101 India",15.1451041,76.92807800000001
"Galibeedu, Madikeri Taluk 571201 India",12.4551706,75.7026632
"Banavara Road, Somvarpet 571236 India",12.6454575,75.9261918
"Kolakeri Village, Napoklu, Madikeri Taluk India",12.4244205,75.7381856
"16/13 Parvathi Nagar Main Road Near Hampi, Bellary 583103 India",15.1525919,76.9291726
"140/189, Anantpur Road, Bellary 583101 India",15.1401207,76.92069459999999
"Dr. Rajkumar Road Bellary, Bellary 583101 India",15.1431768,76.9427203
"Napoklu, Madikeri Taluk 571214 India",12.4244205,75.7381856
"Biligeri Junction, Mekeri, Madikeri Taluk 571201 India",12.3614614,75.7404682
"S/N convent bane ,somwarpet, Somvarpet 571236 India",12.5943101,75.8504904
"#17, Palace Estate Near Nalanda Palace, Kakkabe Post, Napoklu, Madikeri Taluk 571212 India",25.2621826,85.47880649999999
"Station Road Opp. Bsnl Office, Bellary 583101 India",15.1443592,76.9230053
"SY. No.55a/5, Vijayalakshmi Toranagallu, Bellary 583123 India",15.1983957,76.6699848
"Kaloor Road, Galibeedu, Madikeri Taluk 571201 India",12.4551706,75.7026632
"Nh63, Bellary-Hospet Main Road Lakshmi, Toranagallu, Bellary 583123 India",15.1167499,77.2655247
"94/16,TS No 97, Bellary 583101 India",15.144985,76.9289731
"Kyatasandra Near Pate Bidi Chandramouleshwara Badavane, Tumkur India",13.3124815,77.14465500000001
"Gopal Swamy Road, Opp Anjana Diagnostic Center, Bellary 583101 India",15.1542948,76.93463899999999
"Bus Stand Kyatasandra, Tumkur India",13.314414,77.1455371
"Bus Stand Kyatasandra, Tumkur India",13.314414,77.1455371
"Koratagere Circle Near Circle, Tumkur India",13.5138574,77.2396141
"J C Road, Tumkur India",13.3418439,77.0982875
"1st Monnangeri, Galibeedu Post, Monnangeri, Madikeri Taluk 571201 India",12.4278887,75.7060758
"Mukkodlu Road, Thanthipala Road Makkandur, Madikeri Taluk 571201 India",12.474747,75.7565904
"60 Aravat Voklu Road, Mekeri, Madikeri Taluk 571201 India",12.3889008,75.7482577
"S I T Main Road, Tumkur India",13.3289496,77.1206467
"Cal Tax Circle Vivekananda Road, Tumkur India",13.3426936,77.1041633
"B H Road Near Shree Siddaganga Polytechnic, Tumkur India",13.7480644,75.7722952
"B H Road Near Shree Siddaganga Polytechnic, Tumkur India",13.7480644,75.7722952
"2nd Main Road Mandipet, Tumkur India",13.3436339,77.0976616
"B H Road Near Bus Stand, Gubbi, Tumkur 572216 India",13.3091531,76.9423444
"Heggere, Tumkur India",13.2786322,76.6982955
"Survey No. 449/2,3,4, Kalledevarapura, Kaimara Post Chikamagalur, Chikmagalur 577101 India",13.3715047,75.745144
"Mandipet, Tumkur India",13.3431956,77.0960163
"K. T. Complex Near Petol Bunk, Tumkur India",13.3378762,77.117325
"Bm Road, Mandya 571438 India",12.4165708,76.6893051
"Ring Road, Gokual Extenction Bangalore Shivmoga, Tumkur 572103 India",13.3160743,77.1326969
"Ravi Residency Old RMS Road, Near Syndicate Bank Arsikere, Hassan 573103 India",13.3145423,76.2551195
"No.28, 6th Cross, Ashok Nagar Opposite Government College, Tumkur India",13.3378762,77.117325
"Hospete Tharikere Shimogga State Hwy Chickmangalore Taluk, Thogarihankal, Chikmagalur 577137 India",13.4761156,75.79316829999999
"Narasingha Roa Road Basavanhalli, Chikmagalur 577101 India",13.3295747,75.7756661
"Sir Siddappa Kambli Road Opp. HDMC, Hubli-Dharwad India",15.3536987,75.1423381
"Sir Siddappa Kambli Road Opp. HDMC, Hubli-Dharwad India",15.3536987,75.1423381
"1, NH275, Bangalore-Mysore Road, Mandya 571401 India",12.3728934,76.6641076
"B. M. Road Near Police Station circle, Hassan 573201 India",13.0003655,76.0957208
"Near Advaith Hyundai Kiragandur Gate, Mandya 571401 India",12.5183303,76.8681611
"B R Koppal Srirangapatna, Mandya India",12.4237094,76.6828604
"Pune-Bangalore Road Opp: KSRTC Bus Stand, Davanagere 577502 India",14.4644085,75.921758
"B M Road N R Circle, Opp Canara Bank Regional Office, Hassan 573201 India",13.0019443,76.09958879999999
"Karthic Road Via D.A.R Quarters, Subramanya India",20.593684,78.96288
"B M Highway, Mandya India",12.5218157,76.89514880000002
"Hotel Amaravathi No 185,B M Road Mandya Kasaba Hobli, Mandya 571403 India",12.5459027,76.9321248
"Hotel Amaravathi No 185,B M Road Mandya Kasaba Hobli, Mandya 571403 India",12.5459027,76.9321248
"Near Biladwara Sullia Taluka Kukke, Subramanya 574238 India",12.6636275,75.61584789999999
"KRS Main Road, Mandya India",12.3701583,76.624385
"Srirangapatnam, Mandya India",12.4237094,76.6828604
"Koppikar Road Opposite Nehru Stadium, Hubli-Dharwad 580020 India",15.3508942,75.1422015
"National Highway 75 Bellur Cross, Mandya 571418 India",12.9619719,76.7425141
"Cts No 96/B-8, First Floor, Airport Road Near Hosur Bridge, Hubli-Dharwad 580030 India",15.3831098,75.1198214
"Factory Circle, Shivaleela Complex, Besides Padma Sagar Restaurant, Mehdavia Sadat Nagar, Mandya 571401 India",12.5302701,76.9088443
"Kadur Road, Lakya Cross, 10th Km Milestone Opposite Om Farm, Chikmagalur 577168 India",13.3423566,75.8322069
"#D2/2225/2225 Bengaluru Mysuru Highway, Mandya 571401 India",12.5276498,76.8925509
"Byadarahalli Post HalgurHobli, Malavalli Taluk, Mandya 571421 India",12.3891899,77.2310104
"Indira Gandhi Road Next To Punjab National Bank, Above Khansamaa restaurant, Chikmagalur 577101 India",13.3213372,75.7722115
"Temple Road Subramanya Near Kumaradhara River Opp To Hotel Vijya Comfort, Subramanya 574238 India",12.6595958,75.6079223
"Devraj Urs, P.B. Road, Davanagere 577006 India",14.4591038,75.9321194
"Car Street, Subramanya 574238 India",12.6595958,75.6079223
"Sandhunavar Estate Opp Agriculture University, Hubli-Dharwad 580005 India",15.491162,74.9851678
"#48 Railway Station Road Opp. BSNL Office, Hubli-Dharwad 580020 India",15.3526511,75.1455083
"Hotel Shivani Sagar College Road Rn Shetty Stadium Complex, Hubli-Dharwad 580001 India",15.4589679,75.00515709999999
"Lamington Road Near Railaway Station Road, Hubli-Dharwad 580020 India",15.3506123,75.1486323
"P.B Road, Davanagere 577002 India",14.4581997,75.9331466
"P B Road Opposite Basel Mission School, Hubli-Dharwad India",15.3485779,75.1361979
"Gahana Garden Near Kumaradhara  Kukkesubramanya, Sullia Taluk, Subramanya India",12.5580735,75.3907667
"Opp Akshay Park Near New Central Bus Stand, Hubli-Dharwad 580030 India",15.3501372,75.11640729999999
"P.B Road Opposite Old Bus Stand, Davanagere India",14.4644085,75.921758
"Ashoka Road, Davanagere India",14.4658565,75.9232341
"Station Road Kamat Vasanth Bhavan Building, Hubli-Dharwad 580020 India",15.3646576,75.123952
"College Road, Hubli-Dharwad 580001 India",15.4568521,75.0027413
"College Road, Hubli-Dharwad 580001 India",15.4568521,75.0027413
"Akkamahadevi Road, Davanagere 577001 India",14.470729,75.9405178
"789/1 Mandipet Near Sbm Main Branch, Davanagere 577002 India",14.4711824,75.9245494
"Besides Old Bus Stand, Hubli-Dharwad 580020 India",15.3504998,75.1361106
"Bazaar Street, Mandya India",12.52985,76.8920628
"Near Kahikatte, Sullia Taluk D.K, Subramanya India",12.5580735,75.3907667
"2, Ashoka Road, KB Extension Near Gandhi Circle, Davanagere 577002 India",14.4659191,75.9232959
"P B Road Near Tolnaka, Hubli-Dharwad India",15.3653059,75.1234396
Subramanya 574230 India,12.6595958,75.6079223
Subramanya 574238 India,12.6595958,75.6079223
"Injadi, Subramanya 574238 India",12.6595958,75.6079223
"Hanuman Mandir Road Collage Road, Hubli-Dharwad 580001 India",15.3543486,75.1058898
"Hanuman Mandir Road Collage Road, Hubli-Dharwad 580001 India",15.3543486,75.1058898
"Opp. Post Office, Kukke-Subrahmanya Dk, Subramanya 574238 India",12.6636275,75.61584789999999
"Trishul Campus, K.B. Extension, P.B. Road, Davanagere 577003 India",14.4625994,75.9280543
"Akshay Park, Gokul Road, Hubli-Dharwad India",15.350503,75.1105173
"P B Road, Hubli-Dharwad 580001 India",15.3678493,75.12095049999999
"Mahaveer Road Sangam Circle, Hubli-Dharwad 580001 India",15.454587,75.01006989999999
"Mahaveer Road Sangam Circle, Hubli-Dharwad 580001 India",15.454587,75.01006989999999
"NH-48 , Bellur Cross, Nagamandala Taluk, Mandya 571448 India",20.8044222,73.0714457
"NH-48 , Bellur Cross, Nagamandala Taluk, Mandya 571448 India",20.8044222,73.0714457
"NH-48 , Bellur Cross, Nagamandala Taluk, Mandya 571448 India",20.8044222,73.0714457
"Near Bus Stand Opp. Ashlesha Guest House Next to Corporation Bank, Subramanya 574238 India",12.6664115,75.6131656
"PB Road Opp Old Bus Stand, Hubli-Dharwad India",15.3504998,75.1361106
"104 Mysore Road, Mandya 571607 India",12.5314295,76.9082574
"P.B Road, Davanagere 577002 India",14.4581997,75.9331466
"Club Road Court Circle, Hubli-Dharwad 580020 India",15.3535297,75.140479
"Varur Hubli NH 4 Poona Bengalooru Highway, Hubli-Dharwad 581207 India",15.2377457,75.1423471
"Lamington Road, Hubli-Dharwad 580020 India",15.3513927,75.1419035
"Hubli-Dharwad Road 3rd Floor, SKD Heights, Hubli-Dharwad 580021 India",15.3647255,75.1244725
"Kadirampur, Hampi 583239 India",15.3129646,76.44980129999999
"P.B Road Opp RMC Link Road, Davanagere 577002 India",14.4686291,75.9259581
"No 113/4 Link Road Beside New KSRTC Bus Stand P B Road, Davanagere 577002 India",14.4598865,75.93061039999999
"2 Station Road Near Railway Station, Hubli-Dharwad 580020 India",15.3514558,75.1462088
"Railway Station Road Opp Railway Station, Hubli-Dharwad 580020 India",15.3488397,75.1509427
"#194/1A, Opp. Unakal Lake Srinagara Cross, P.B. Road..Hubli, Hubli-Dharwad 580 031 India",15.3843853,75.1081063
"Kashikatte Dakshina Kannada, Sullia Taluk, Subramanya 574328 India",12.5580735,75.3907667
"Janata Plot, Hampi Bazaar Area, Hampi India",15.3347446,76.4621458
"P.B. Road opposite Agriculture University,, Hubli-Dharwad 580005 India",15.3653059,75.1234396
"Batavadi Circle, Tumkur India",13.333723,77.1319777
"Hongadahalla Village Sakleshpur Taluk, Hassan 573134 India",12.9441511,75.78656529999999
"Tumkur Urdigere Road Near Tamapanahalli Bus Stop, Tumkur 572100 India",13.3483188,77.2376414
"Opposite K.H. Patil College Beside Nekar Bhavan, Hubli-Dharwad 580031 India",15.3655844,75.1206967
"S S Square, Maharshi Valmikki Circle, Opposite BSNL Quarters Kunigal Road Maralur, Tumkur 572105 India",13.3378762,77.117325
"BH Road, Tumkur 572101 India",13.3413645,77.0947413
"Reservoir Rd Koppal, Sanapur Gangavathi, Hampi 583234 India",15.3537039,76.4337134
"B G Palya Circle B H Road, Tumkur India",13.3420721,77.0943497
"Mg Road, Tumkur 572101 India",13.3403978,77.1040065
"Unkal Lake, Hubli-Dharwad 580025 India",15.3782466,75.1063735
"Unkal Lake, Hubli-Dharwad 580025 India",15.3782466,75.1063735
"Jananatha Plot, Hampi 583239 India",15.3350132,76.46002399999999
"B H Road Kyatasanadra, Tumkur India",13.3232525,76.7293206
"Gopi Circle, Shimoga 577201 India",13.9337195,75.5729271
"Kudle Beach Rd. Dandebagh, Gokarna 581326 India",14.5416534,74.3166511
"Kundapure Market Road Opposite to Muncipal Water Tank, Tumkur 576201 India",13.3378762,77.117325
"Karle Village Hassan Taluk, Hassan 573120 India",12.8379523,76.1180605
"Halekote Devarayanadurga Tumkur, Tumkur 572140 India",13.3741575,77.2127134
"Indira Gandhi Road Near Bus Stand, Chikmagalur 577101 India",13.315434,75.771364
"Bh Road Opposite Gayatri Talkies, Tumkur 572101 India",13.3375333,77.1039278
"Hesagodu Village, Mudigere 577113 India",13.1365287,75.64032449999999
"Sargodu Village, Mudigere 577132 India",13.1365287,75.64032449999999
"Iqbal Colony Near Qp Palace Madina Colony, Gulbarga 585103 India",17.3442725,76.8090072
"123 Kollibyle 1 1st Floor Giridarshini, Hesgal Post, Mudigere 577132 India",13.1503974,75.6598976
"Niduvale, Mudigere 577122 India",13.1832152,75.4981881
"Niduvale, Mudigere 577122 India",13.1832152,75.4981881
"Halse Post, Muthigepura Mudremane, Mudigere 577132 India",13.1034193,75.642983
"After Sanapura Lake, Towards Annegundi And Hanuman Temple, Hampi 583234 India",15.3333243,76.4684882
"Nh173 Mudigere. Road, Mudigere 577111 India",13.1472781,75.6457565
"Msk Mill Road, Opp Central Bus Stand, Gulbarga 585103 India",17.3266573,76.8179514
"6/1, Shahbazar Aland Road Naka, Gulbarga India",17.3456689,76.8270195
"8-1305/66/B, Humnabad Highway Kapnoor Area, Gulbarga 585104 India",17.3803314,76.858742
"Basaveshwara Road, behind Private Bus Stand, Tumkur 572101 India",13.3425796,77.1012314
"Thotadamane, Durgadahali, Sunkasale Post, Mudigere India",13.1574297,75.4468538
"Service Road Kythasandra Near Siddaganga Mata, Tumkur 572104 India",13.313304,77.1472189
"PB No. 121, B.M Road, Hassan 573201 India",13.003045,76.1128757
"77/16 Sedam Road, Near Budha Vihar Main Gate, Gulbarga 585102 India",17.3247155,76.86250369999999
"Kumar Layout, House No. 06, K.M.Road, Mudigere 577132 India",13.132863,75.640405
"Manorama Embassy, Aiwan-E-Shahi Area, Pda College Road, Gulbarga 585102 India",17.3182583,76.8283558
"00, SH1, Keribhosga, Aland Road, Gulbarga 585104 India",17.3534586,76.8191381
"Rajendra Palace Hampankatta Signal, Mangalore 575001 India",12.8683087,74.84296859999999
"Bagmane rd 41, Mudigere 577130 India",13.1365287,75.64032449999999
"B M Road, Opp S D M Ayurvedic Hospital & College Thanneeruhalla, Hassan 573201 India",12.995528,76.0829873
"No. 19/1 Mulrahalli Road, Mudigere 577113 India",13.1365287,75.64032449999999
"Royal Residency Near Rao Circle, Mangalore 575002 India",12.8498024,74.86825689999999
"Billur Post, Pattadur Village, Mudigere 577132 India",13.1365287,75.64032449999999
"Rudrapada Temple Road, Gokarna 581326 India",14.5371752,74.32941989999999
"Near Parashuram Temple Road, Gokarna 581326 India",14.5473598,74.3201682
"Bejai Surabhi Complex, Mangalore 575004 India",12.8901797,74.84672789999999
"Balur Estate Javali Post, Mudigere Taluk, Chikmagalur, Mudigere 577122 India",13.1596268,75.4983956
"Kolavara Basavani Thirthahalli District, Shimoga 577205 India",13.9455878,75.5101999
"Kimmane Plantation, Billur Post, Mudigere 577101 India",13.1365287,75.64032449999999
"Ashoka Tourist Road Kadri, Mangalore 575002 India",12.8804608,74.85915779999999
"Muggalamakki Jogannanakere post, Mudigere 577132 India",13.1365287,75.64032449999999
"Next To Mangalore Central Railway Station Nr Railway Station, N.G. Rd, Attavar, Mangalore 575001 India",12.8633417,74.843251
"35/2 Aladevara Hosur Sagar Road Behind PESITM College, Shimoga 577204 India",13.9299299,75.568101
"6-64, Kolachikambla, Mulki, Mangalore 574154 India",13.0830636,74.7799168
"Sagar Road, Shimoga 577201 India",13.9384857,75.5800678
"Near Bendorewell Junction Kankanady - Balmatta Road, Mangalore 575002 India",12.8712279,74.8554781
"KS Rao Road Hampankatta, Mangalore 575001 India",12.8717605,74.842071
"Kyamanahalli Post Bilisare Village, Sakleshpur 573165 India",12.9763916,75.6594339
"Simha Farms, Kodachadri, Nittur, Hosanagar, Shimoga 566452 India",13.9056426,74.9431122
"Falnir Road Near Platinum Theatre, Mangalore 575001 India",12.8679782,74.8505627
"Arodi, Haniya Post Hosanagara Taluq, Shimoga 577418 India",13.9153869,75.06403499999999
"Near Hunbal, Sakleshpur 573134 India",13.0046838,75.6969615
"Hanchina Manne Road NH 66, Gokarna Road, Hiregutti, Gokarna 581333 India",14.5838812,74.3677665
"Sunkasale Post, Mudigere 577121 India",13.1574297,75.4468538
"Rukmini Arcade Rukmini Arcade, near City Bus Stand, Udupi 576101 India",13.352163,74.78675
"QH Center, Falnir Road Kankanady, Mangalore 575002 India",12.8679782,74.8505627
"Agani Village Hanbal, Sakleshpur India",13.0046838,75.6969615
Sakleshpur India,12.9441511,75.78656529999999
"University Road Opp. K S Hegde Medical College & Hospital, Mangalore 575018 India",12.8096253,74.88355279999999
"Om Beach, Gokarna 581326 India",14.5192405,74.3230039
"Nh - 17 Gokarna Kumta, Karnataka, Gokarna 581333 India",14.4275482,74.4190929
"Palangala Village Karada Post, Kodagu District, Virajpet 571218 India",12.1949851,75.8040022
"Main Road, Balmatta, Mangalore 575002 India",12.8759974,74.84998209999999
"Acchanahalli Grama, Devalkere Post Hanbal Hobli, Sakleshpur 573156 India",13.0046838,75.6969615
"B M Road Nisargadama Tourist Center, Kushalnagar 571234 India",12.4469716,75.9369766
"Oscar Estates Ltd, NH-48, Sakleshpur 573134 India",20.8044222,73.0714457
"93, 2nd cross, Hongadahalla village, Sakleshpur 573134 India",12.9441511,75.78656529999999
"Varshini Estate, Sakleshpur India",12.8741482,75.76445319999999
"Near K S R T C Bus Stand, Udupi 576101 India",13.3410096,74.7472785
"Karadigodu Road, Virajpet 571253 India",12.3003395,75.8772503
"Jaladharshini Estates Kollibylu Village, Mudigere 577132 India",13.1365287,75.64032449999999
"Agani Road, Sakleshpur India",12.9560408,75.6791319
"Donigal Estate & Post, Sakleshpur 573123 India",12.9441511,75.78656529999999
"Jambaradi Village, Kyamanahalli Post, Sakleshpur 573165 India",12.9754056,75.7040461
"1458/1, Narayana Shastry Road, Devaraja Mohalla, Near Sapna Book House, Mysuru (Mysore) 570004 India",12.3116696,76.6480131
"1458/1, Narayana Shastry Road, Devaraja Mohalla, Near Sapna Book House, Mysuru (Mysore) 570004 India",12.3116696,76.6480131
"Durgigudi Road, Shimoga India",13.9359699,75.5712156
"42 A SB Temple Road Near City Bus Station, Supermarket, Gulbarga 585101 India",17.3392088,76.8335798
"Ammangala Estate, Valnoor via Kushalnagar, Kushalnagar 571234 India",12.35533,75.8962938
"Hebbasale Village And Post, Sakleshpur 573134 India",12.9441511,75.78656529999999
"Mahatma Gandhi Road Kodialbail, Mangalore 575003 India",12.8746143,74.84009619999999
"Hassan Rd Sri Sai Layout, Kushalnagar 571234 India",12.4578297,75.958647
"New Extension, Kushalnagar 571201 India",12.4340607,75.7353172
Kushalnagar 571234 India,12.4555177,75.9570234
"Bypass Road Near KSRTC Busstop, Kushalnagar 571234 India",12.4553757,75.9673089
"near Valnur on Kushalnagar Dubare Road, Kushalnagar India",12.3726436,75.9004325
"Golden Temple Road Near Bota Farm, Kushalnagar 571104 India",12.4430867,75.9727458
"Main Road No 364, Sakleshpur 573214 India",12.9441511,75.78656529999999
"BM Road, Kushalnagar 571234 India",12.384125,76.0307988
"Madapatana, Kushalnagar 571234 India",12.4526275,75.9380341
"Harangi Backwater Road, Kushalnagar 571234 India",12.4717216,75.8960685
"Coorg Bungalow Inn, Girgur Road, Koppa Post, Kushalnagar 571234 India",12.4555177,75.9570234
"Mysore - Madikeri Road 2nd Floor, Opp to R.M.C , B.M Road, Kushalnagar 571234 India",12.4244205,75.7381856
"#6/107/A Hotel Royal Palace New Sayyaji Rao Road, Mysuru (Mysore) 570021 India",12.3241886,76.645067
"#51/5 Behind Chikkathur Govt School, Kushalnagar 571232 India",12.4555177,75.9570234
"#51/5 Behind Chikkathur Govt School, Kushalnagar 571232 India",12.4555177,75.9570234
"Sh-91, Kushalnagar 571234 India",12.3574163,75.8854562
"R.J Mansion, 3rd Block, Market Road, Bapuji Extension, Kushalnagar 571234 India",12.457464,75.9629312
"Aiyappa Swamy Temple Road Beside B.S.N.L Building, Kushalnagar 571234 India",12.4550305,75.9608879
"BN Block kuvempunagar Aravinda Nagar, Mysuru (Mysore) 570023 India",12.2765825,76.6261085
"#120/1 Ring Road Hebbal Industrial Area, Near Bharath Cancer Hospital, Mysuru (Mysore) 570017 India",12.3614412,76.6008334
"Rangasamudra near Dubare River Elephant Camp, Kushalnagar 571234 India",12.3714053,75.9035682
"12, HUDCO Main Road, Jayalakshmipuram, B Layout, Bannimantap, Mysuru (Mysore) 570015 India",12.341789,76.6506342
"Vijaya Nagar 4th Stage Near Svei School, Mysuru (Mysore) 570018 India",12.3159012,76.6380119
"Dubare Main Road Sh - 91 Theppadakandi, Basavanahalli, Guddehosur Post, Kushalnagar 571234 India",12.433918,75.9225065
"Dubare Main Road Sh - 91 Theppadakandi, Basavanahalli, Guddehosur Post, Kushalnagar 571234 India",12.433918,75.9225065
"Dubare Main Road Sh - 91 Theppadakandi, Basavanahalli, Guddehosur Post, Kushalnagar 571234 India",12.433918,75.9225065
"Bollur Village, Kushalnagar 571234 India",12.4525127,75.9241195
"Madapatna Road, Bollur Village, Kushalnagar 571234 India",12.4526275,75.9380341
"BM Road, Kushalnagar 571234 India",12.384125,76.0307988
"Dreamland Homestay Road, Kushalnagar 571234 India",12.4648127,75.9538822
"B M Road 1st Floor, City Centre, Kushalnagar 571234 India",12.4555072,75.95782919999999
"Plot No. 16/1, Theppadakandi, Basavanahalli Village, Dubare Road, Kushalnagar 571234 India",12.3726436,75.9004325
"BM Road Near Bharat Petroleum Pump, Kushalnagar 571234 India",12.384125,76.0307988
Kushalnagar 571234 India,12.4555177,75.9570234
"#214/214 Megalapura Kilanapura Gramapanchayathi Varuna Hobali Mysore Taluk, Mysuru (Mysore) 570010 India",12.2679985,76.7433915
"Corporate Bank Building, BM Road, Kushalnagar 571234 India",12.384125,76.0307988
"3147 Bangalore-Nilgiri Road, Convent Road Near Five-Light Circle, Mysuru (Mysore) 570001 India",12.3178868,76.6592218
"3147 Bangalore-Nilgiri Road, Convent Road Near Five-Light Circle, Mysuru (Mysore) 570001 India",12.3178868,76.6592218
"Chikkathur Village, Kushalnagar 571232 India",12.4555177,75.9570234
"No 66 Vivekananda Road Yadavgiri, Mysuru (Mysore) 570020 India",12.3240195,76.6384373
"Bisle Ghat Road Vanagoor Kudrasthe Near Bisle Ghat Forest, Sakleshpur 573123 India",12.7120951,75.6833605
"Dubare Forest Road Dodda Bettageri, Kushalnagar 571234 India",12.3590041,75.9523547
"B M Road, Kushalnagar 571234 India",12.384125,76.0307988
"121 Ekanth Holiday Home, Basavanahalli village, Kushalnagar 571234 India",12.4555177,75.9570234
"No.48, Block 4, Hebbal Ring Road Opposite Seshadripuram College, Mysuru (Mysore) 570017 India",12.9889055,77.574044
"104 Vivekananda Road Yadavagiri, Mysuru (Mysore) 570020 India",12.3261685,76.6401205
"Golden Temple Rd, Girgur Road, Kushalnagar 571234 India",12.4313964,75.968255
"Golden Temple Road Near Bota Farm, Kushalnagar 571104 India",12.4430867,75.9727458
"2225, Sawday Road Meena Bazzar, Mandi Mohalla, Mysuru (Mysore) 570021 India",12.3196483,76.65589279999999
"Near Lakshmi Bar Golden Temple Road, Kushalnagar 512354 India",12.4430867,75.9727458
"Narayana Shastri Road # 1459, Opp More Mega Store, Mysuru (Mysore) 570001 India",12.3115787,76.6483894
"Hanbal, Avaerkadu, Sakleshpur 577119 India",13.0046838,75.6969615
"#22 above reliance fresh, near Andolana circle Vishwamanava Double Road, Mysuru (Mysore) 570001 India",12.2875727,76.6174675
"Malali Village And Post, Sakleshpur 573134 India",12.9441511,75.78656529999999
"Atthibeedu Road, Sakleshpur 577132 India",12.991158,75.6503548
"Saklespura, Sakleshpur 573134 India",12.9441511,75.78656529999999
"Harangi Backwater Road Harangi Backwater Herur Village, Kushalnagar 571234 India",12.4717216,75.8960685
"Virupapur Gaddi, Hampi India",15.3408783,76.45308930000002
"Nersa Village Khanapur Taluka, Belgaum District, Belgaum 591302 India",15.5993708,74.42838069999999
"Hadya Village, Hadya, Hethur Post, Sakleshpur 573123 India",12.9441511,75.78656529999999
"Nh 66 Near Karavali Bypass, Udupi 576103 India",13.4354679,74.7445927
"Kanakadasa Road Near Shri Krishna Temple, Udupi 576101 India",13.3407661,74.7504491
"No 13 Kushalnagar Kudumangalore Kudige Post, Kushalnagar 560045 India",12.484951,75.95213
"Harley Estate, Sakleshpur 573134 India",12.9346533,75.72668949999999
"Naryanpet near Basapur Hampi Naryanpet, Basapur, Hampi 583234 India",15.3350132,76.46002399999999
"244 Main Road, Hampi 583239 India",15.3350132,76.46002399999999
"Plot No. 439, Jaitanmal Parvati Nagar, Udyambag, Belgaum 590006 India",15.8250048,74.483335
"3844/3, Near Ksrtc Bus Depot, Highway Circle New Bamboo Bazaar Main Road, Next to Indian Oil Petrol Station, Bannimantap, Mysuru (Mysore) 570015 India",12.3379614,76.65183960000002
"47/1 Dickenson Road Manipal Centre, Bengaluru 560042 India",12.9803905,77.61299609999999
"Acchanahalli, Sakleshpur India",12.9441511,75.78656529999999
Udupi 576221 India,13.5232736,74.6927354
"BilisareVillage, Hanbal Hobl, Sakleshpur 573165 India",13.0046838,75.6969615
"Rottikallu Road Bilisare Village, Hanbal Hobli, Sakleshpur 573165 India",12.9723439,75.6592982
"Sanapur, Hampi India",15.3350132,76.46002399999999
"#110 Mysore Bangalore Road, Mysuru (Mysore) 570003 India",12.3494641,76.6605492
"Dubbare Road, Kushalnagar 571234 India",12.3726436,75.9004325
"229-232 Navage Cross Belgaum Chorla Road, Belgaum 590014 India",15.8497158,74.4976676
"CoffeeBean Villa Sakleshpur Bangalore - Mangalore Highway Nh-48, Sakleshpur 573134 India",12.9432588,75.7836087
"135 Residency Road Opposite Bangalore Club, Bengaluru 560025 India",12.9658687,77.5987483
"Om Beach Road, Gokarna 581326 India",14.533117,74.3263378
"Bypass Road Kushalnagar, Kushalnagar 571234 India",12.4553757,75.9673089
"#314, Beloor Village Kundapur Taluk, Udupi 576221 India",13.5232736,74.6927354
"2 Banni Mantap Road Opp KSRTC Bus Depot, Near Highway Circle, Mysuru (Mysore) 570015 India",12.3333269,76.6481299
"70 Ashoka Road, Mysuru (Mysore) 570001 India",12.3152633,76.6565336
"Hethur Post, Sakleshpur India",12.9441511,75.78656529999999
"Bannur Ring Road KSFC Layout, Near Devegowda Circle, Mysuru (Mysore) 570019 India",12.310426,76.70290709999999
"345/A, Near Infosys Road Hebbal Industrial Estate, Hebbal Industrial Area, Mysuru (Mysore) 570016 India",12.3557093,76.6046686
"# 111 Kshetraiah Road, K. R. Mohalla, Mysuru (Mysore) 570001 India",12.3048534,76.6491039
"#172 Nelson Mandela Road Bannimantap, Near Highway Circle, Mysuru (Mysore) 570015 India",12.33217,76.6510321
"Middle Beach Near Kariappa Katte, Gokarna 581319 India",14.5555879,74.3098145
"Anegundi Anegudi Village, Ganganathi, Hampi 583227 India",15.3350132,76.46002399999999
"CTS 1019/2A , Mahantesh Nagar, Belgaum 590016 India",15.8734745,74.5350423
"10620, A /3, Opposite Kannada Bhavan. Nehru Nagar, Belgaum 590010 India",15.8779191,74.5174765
"near AM Shaikh Medical College Nehru Nagar, Belgaum 590010 India",15.8783213,74.5180848
"K S Rao Road, Opposite Prabhat Talkies, Mangalore 575001 India",12.8717605,74.842071
"Mujawar Galli, Belgaum India",15.853564,74.5119858
"Mahatma Phule Road Near Goaves Circle, Belgaum 590003 India",15.8405721,74.50886009999999
"Belgavi Road, Belgaum 591123 India",15.9462603,75.3003337
"Cbt, Belgaum 590001 India",15.8632554,74.5212435
"Near R.T.O Circle Pune-Bangalore Road, Belgaum India",18.5204303,73.8567437
"Opposite Khot Bangla, Off Jamboti Road Santibastwad, Belgaum 590014 India",15.6910084,74.36607839999999
"College Road, Belgaum 590 001 India",15.8639298,74.5081946
"Khanjar Galli, Belgaum India",15.8620108,74.5142907
"P B Road Near Kholhapur Cross, Belgaum India",15.8496953,74.4976741
"Bengaluru - Mumbai Highway Sutaagatticross Belguam, Belgaum 591243 India",16.0580393,74.5137931
"Raj Purohit Sweet Centre, Belgaum 590001 India",15.8849641,74.51185439999999
"1504, Maruti Galli, Belgaum 590002 India",15.8574764,74.51288260000001
"Kaktives Road Near Chanamma Circle, Belgaum 590001 India",15.8646356,74.5113942
"College Road, Belgaum 590 001 India",15.8639298,74.5081946
"College Road, Belgaum 590001 India",15.8639404,74.5081478
"Kirloskar Road below Top In Town Bar & Resturant opp Nucleus Mall, Belgaum 590001 India",15.8593841,74.5086541
"Near Dr. Jayaram Hospital, Hospet India",15.2751521,76.3858262
"Falls Road Gokak, Belgaum 591307 India",16.1946888,74.7500232
"B.D. Road, Chitradurga India",14.2247681,76.4005799
"Hiriyur Main Road, Chitradurga India",13.9380968,76.6226803
"Main Road, Belgaum 591304 India",16.7265635,75.0605903
"College Road, Near Bus Stand, Hospet 583201 India",15.2688542,76.39092409999999
"Navyug Complex, Khade Bazaar, Belgaum 590016 India",15.8620528,74.5193342
"Shivaji Nagar, Belgaum India",15.8675404,74.51977280000001
"101 Plot No, Belgaum 590001 India",15.8596329,74.508242
"101 Plot No, Belgaum 590001 India",15.8596329,74.508242
"Station Road, Belgaum 590001 India",15.8499527,74.508965
"Khade Bazar, Belgaum 590001 India",15.8644474,74.51556699999999
"Kaddirampur, Vijayanagara, Hampi 3 Kilometers From Hampi, Hospet 583239 India",15.3350132,76.46002399999999
"Kaddirampur, Vijayanagara, Hampi 3 Kilometers From Hampi, Hospet 583239 India",15.3350132,76.46002399999999
"Birunani After KKR Bridge, Virajpet 571218 India",12.1949851,75.8040022
"3 Kms from Virajpet, Near Ammatti Bus Stop, Virajpet 571218 India",12.1949851,75.8040022
"Opp Honda Showroom, Virajpet 571218 India",12.1949851,75.8040022
"Poomale mandh road, opp Kodava samaj, kukloor P O Virajpet, Kodagu , Karnataka, Virajpet India",12.1949851,75.8040022
"Arji Village and Post, Near Arji Church, Virajpet 571218 India",12.1736125,75.797258
"Ammathi Madikeri Road Ammathi Ontiangadi, Virajpet 571211 India",12.3398426,76.171775
"DHS Enclave, Near Private Bus Stand Road, Virajpet 571218 India",12.1948313,75.8039795
"Gonikoppal Road Near Kaveri College, Virajpet India",12.1949851,75.8040022
"Virajpet-Mysore Road, Virajpet 571218 India",12.1917045,75.8087018
"Poomale Mandh Road Near Kodava Samaj Kukloor Post, Virajpet 571218 India",12.2076378,75.7963477
"Nalvathoklu, Virajpet 571218 India",12.1980389,75.882387
"Thekkamaki Estate, Chembebellur Post Coorg, Virajpet India",12.1949851,75.8040022
"Main Road, Virajpet 571218 India",12.1949851,75.8040022
"1st Perumbadi, Kerala Road, Virajpet 571218 India",12.1947336,75.8035307
"Nalavathoklu village and post, Virajpet 571218 India",12.1949851,75.8040022
"13/23 Nisarga Layout, Virajpet 571218 India",12.1864125,75.81344639999999
"Malagar Village, Jagara Hobli, Jagara Post, Chikmagalur 577101 India",13.435039,75.66153840000001
"Guddada Bangale, Chikmagalur 577118 India",13.510439,75.50437610000002
"Athigundi Village Datha Peetha Road, Chikmagalur 577101 India",13.4291156,75.7422368
"Koduvalli Anur Post, Chikmagalur 577101 India",13.3161441,75.7720439
"Sri Nandini Guest House Near Cafe Coffee Day Maruthi Nagara K. M Road, Opp Gandharva Nursery, Chikmagalur 577101 India",13.3075252,75.7783524
"Thalihalla Estate Jakanhalli Post, Chikmagalur 577130 India",13.3309997,75.6729805
"Naidu Complex, I.G. Road Next to Vijaya Bank, Chikmagalur 577101 India",13.315434,75.771364
"Indira Gandhi Rd, Chikmagalur 577101 India",13.315434,75.771364
"District Stadium Road Ward No. 21,40/17, Dantaramaki, Chikmagalur 577101 India",13.3259272,75.7858387
"#166, Mavinahalla Village, Chikmagalur 577131 India",13.3161441,75.7720439
"Siderbhan Estate,Muthodi road Mallanduru, Chikmagalur 577130 India",13.4351121,75.6426711
"Mallandur Rd, Chikmagalur 577101 India",13.3268451,75.7599507
"Kenshodeva Enclave, Chikmagalur 577131 India",13.316144,75.772044
"Ait Campus Road Ait College road, Chikmagalur 577102 India",13.3418653,75.7982147
"State Highway 66 Mudigere Taluk, Chikmagalur 577132 India",13.2038311,75.3345707
"Blue Mountain Estate Tarikere Taluk, Chikmagalur 577137 India",13.439082,75.8301537
"Virajpet Town, Hudikeri Area, Hysodlur, Virajpet 571249 India",12.0718672,75.9344897
"Handi, Machagondanahally 20 km. Chikmagalur-Mudigere Road, Chikmagalur 577111 India",13.1212191,75.62809000000001
"Indira Gandhi Road Near Bolarameshwara Temple, Chikmagalur 577101 India",13.315434,75.771364
"Woodway Estate, Chikmagalur 577130 India",13.3431875,75.67456250000001
"The Vintage, Baptist Farm Gavanahalli Village, Mugathihalli,, Chikmagalur 577133 India",13.2839352,75.75313849999999
"Guddadamane Post Aldur, Chikmagalur 577111 India",13.23594,75.624462
"Kudremukha, Chikmagalur 577142 India",13.2226055,75.2508229
"Kalyancool homestay, maradi road, Bannur, Aldur p/o, Chikmagalur district, Karnataka, India, Chikmagalur 577111 India",13.2988282,75.6132954
"Mallandur Road Vijayapura, Chikmagalur 577101 India",13.327575,75.7658799
"Bhagwan Mahaveer Road, Tumkur 572102 India",13.3336164,77.1052415
"Shankar Mutt Road, SH 57 Basavanahalli, Chikmagalur 577101 India",13.3290524,75.774448
"Sira Road Lingapura, Tumkur India",13.374286,77.0999545
"Sira Road Lingapura, Tumkur India",13.374286,77.0999545
"Sira, Main Road Opp. Govt. Bus Stand, Tumkur India",13.3640052,77.10321
"Sakrepatna, Chikmagalur 577135 India",13.4549952,75.911483
"Kempanalli Karkipeete, Chikmagalur 577101 India",13.3495861,75.77457609999999
"Muddakanahalli Road Madhugiri, Tumkur India",13.6643166,77.20889869999999
"M K Arcade Hotel Rg Road, Opp Polytechnic College, Chikmagalur 577101 India",13.3335645,75.7734515
"Belur Road 11 Nisarga Lodge, Near Kote Kere, Opp Indian Petrol Bunk, Chikmagalur 577101 India",13.3087501,75.7881633
"Settihalli Opp H M S College, Tumkur India",13.3378762,77.117325
"00, Unnamed Road, Ward No. 18, Bangalore, Tumkur 572101 India",13.3415541,77.1053673
"Sira Road Near S E T College, Tumkur India",13.3640052,77.10321
"Maruthinagar Shettihalli Main Road, Tumkur India",13.326248,77.1180511
"Tumkur Road, Pavagada, Tumkur 561202 India",14.1030998,77.2807423
"B.H Road Behind Rto Office, Near Manjunatha Choultry, Tumkur 572103 India",13.3385215,77.1153032
"Herekolale Lake, Chikmagalur 577101 India",13.3593883,75.7108942
"Sadashiv, Tumkur 572105 India",13.3236893,77.0881034
"Sadashiv, Tumkur 572105 India",13.3236893,77.0881034
"Santhrupti Complex Madhugiri, Tumkur India",13.3425088,77.10335669999999
"Batawadi Circle, B H Road Opposite Hindu Sadara Samudaya Bhavana, Tumkur 572107 India",13.3290527,77.1306991
"B H Road Kyatasnadra, Tumkur India",13.3232525,76.7293206
"Santhepet, Tumkur India",13.3378762,77.117325
"Santhepet, Tumkur India",13.3378762,77.117325
"B H Road Chikkanayakanahalli, Tumkur India",13.7480644,75.7722952
"Kunigal Road, Banashankari Road, Near Apoorva Service Station, Tumkur India",13.3334377,77.0955206
"NH 4, Sira Highway Beside Sridevi Medical College, Tumkur 572102 India",13.3378762,77.117325
"Heerehalli Kyatasandra, Tumkur India",13.2718135,77.180149
"Near SIT College B.H Road, Tumkur 572103 India",13.3268979,77.12609479999999
"Madhugiri High School Road, Tumkur India",13.3378762,77.117325
"Sri Vigneshwara Comfort Building B H Road, Ashoknagar, Tumkur India",13.3330591,77.1190329
"Barline Main Road, Tumkur India",13.3213959,77.1011626
"K B Cross Road C. N. Halli, Tumkur India",13.3116479,76.6549883
"Kyatasandra Bus Stand Road, Tumkur India",13.314414,77.1455371
"Main Road, Sira Near New Bus Stand, Tumkur India",13.7451493,76.89796620000001
"3rd Cross Mandipet, Tumkur India",13.3299908,77.0928484
"Gargandur Village Madapura, Somavarapet Taluk, Suntikoppa 571251 India",12.4981802,75.8192578
"BH Road Opp. Polytechnic College, Tumkur 572102 India",13.3383537,77.1080486
"BH Road Ashok Nagar, Tumkur, Tumkur 572101 India",13.3368678,77.1192315
"State Highway 91 BasavaHalli, Theppadakandi, Dubare main road, Kushalnagar, Suntikoppa 571234 India",12.433918,75.9225065
"Kedakal Village & Post, Suntikoppa India",12.4369707,75.79891669999999
"Bymana House Nargane Village, Suntikoppa 571237 India",12.4525736,75.82942729999999
"Windflower Resort Road, Suntikoppa 571237 India",12.4336963,75.8120647
"Nakoor Village Kanbaile Post, Suntikoppa 571237 India",12.4525736,75.82942729999999
"Hardur Post, Suntikoppa 571237 India",12.4525736,75.82942729999999
"Nani Estate, Horoor Post Sunticoppa, Coorg, Suntikoppa 571237 India",12.4526295,75.8293858
"Madikeri Road Village Andagove, Suntikoppa India",12.3398426,76.171775
"Mysore road, Near Cinchona Estate, Suntikoppa 571201 India",12.4525736,75.82942729999999
"No 5/5, Lingapura Word No. 01, Tumkur 572106 India",13.4159051,77.1510837
"Kushal Nagar, toward Madikeri, Suntikoppa India",12.4243138,75.9995117
"Kedakal Village And Post Sunticoppa somwarpet taluk Kodagu district, Suntikoppa 571237 India",12.4526295,75.8293858
"Nakoor Village, Kanbille post, Somwarpet Taluk, Suntikoppa 571237 India",12.4525736,75.82942729999999
"Kedakal Post Via Suntikoppa, Suntikoppa 571237 India",12.4369707,75.79891669999999
"Nakoor Village, Kanbail Post, Suntikoppa 571237 India",12.4525736,75.82942729999999
"Chiklihole Reservoir Road Chiklihole Dam Walking Trail, Suntikoppa 571234 India",12.3964442,75.8786117
"Kedakal Post, Suntikoppa 571237 India",12.4369707,75.79891669999999
"7 Upputhodu Baane Near Kodagarally, Suntikoppa 571237 India",12.4525736,75.82942729999999
"7th Hoskote ,Suntikoppa , Coorg, Suntikoppa 571237 India",12.4496984,75.8626614
"Nakoor Nakkor Sirangala Village, Suntikoppa 571237 India",12.4525736,75.82942729999999
"Mysore - Madikeri Rd OPP Central Bank of India, Suntikoppa 571201 India",12.4212248,75.7352573
"Sunticoppa Mysore - Madikeri Road 7th, Suntikoppa 571237 India",12.4510655,75.8277128
"102 Andagove, Suntikoppa 571237 India",12.4525736,75.82942729999999
"Laxmi Bazar Road Near Roopavani Talkies, Chitradurga India",14.2241474,76.3996691
"Nehru Circle Challakere, Chitradurga 577522 India",14.313395,76.6528225
"Jattipalla - Kanakapura Rd Koorgahalli Estate, Suntikoppa 571237 India",12.4510655,75.8277128
"Mathikadu Post, Suntikoppa 571237 India",12.4525736,75.82942729999999
"Challakere Road State Highway 48 Beside Disha Hotel, Chitradurga 577501 India",14.1832023,77.0461844
"Haleri Village, Kadanga Paisari, Suntikoppa India",12.4525736,75.82942729999999
"Sri Rampura New Bus Stand, Chitradurga India",13.6218723,76.4163961
"Thaikappa Estate Horoor Post and Village, Suntikoppa 571237 India",12.4525736,75.82942729999999
"No.121, 7th Hoskote, Kallukore Road 7th Hoskote, Suntikoppa 571237 India",12.4496984,75.8626614
"Hosadurga Huliyur Road, Chitradurga India",13.7985261,76.2850567
"P1 Kedakal Village Survey No Suntikoppa Hobli, Somwarpet Taluk, Suntikoppa 571237 India",12.5943101,75.8504904
"Nh 48 Near Chitradurga Fort, Chitradurga 577501 India",14.2356871,76.4003493
"Nakoor Shirangala Kanbail Post, Suntikoppa 571237 India",12.4525736,75.82942729999999
"Opp.KSRTC Bus Stand, Chitradurga 577501 India",14.2269645,76.3960893
"Roopavani Road, Chitradurga 577501 India",14.2138373,76.40424039999999
"12, Adishakti Nagar, Industrial Area, Chitradurga 577501 India",14.2189547,76.41791479999999
"Sri Sai Badavane, Near Bsnl Office, Old Bengalore Road Chellakere Gate, Chitradurga 577501 India",14.2092852,76.4218999
Hospet 583201 India,15.2688542,76.39092409999999
"Haliyas Road, Chitradurga 577502 India",14.2250932,76.3980464
"NH-4, opposite police Samudhaya Bhavan, Chitradurga 577501 India",14.2365477,76.4013923
"P.B. Road, Chitradurga India",14.2283599,76.3923238
"Near RTO Office Near the junction of NH-4 and Turuvanur Road, Chitradurga 577501 India",14.2312587,76.4099008
"7/3 B NH-4 Bypass, Chitradurga 577501 India",14.0663241,76.5528826
"1st cross, Umapathi Complex, VP Extension 1st Cross Rd opposite Forest Department, Chitradurga 577501 India",14.2305982,76.4068532
"No 15 Ane Bagilu Road, Chitradurga 577501 India",14.2138373,76.40424039999999
"College Road Near K.S.R.T.C Bus stand opp. Pai Shivananda Lodge, Hospet 583201 India",15.2756289,76.38887749999999
"No.2 & 3, Nh 4 Vidya Nagar, Chitradurga India",17.4124097,78.5150252
"Mrp Lodge Building, V P Extension Road, Chitradurga 577501 India",14.227922,76.40399
"Hampi Road Opp Malligi Hotel, Hospet 583201 India",15.2735744,76.39297839999999
"Iceland Road, Hospet 583201 India",15.2688542,76.39092409999999
"College Road, Hospet 583201 India",15.2755125,76.3871771
"Santhe Honda Road, Chitradurga 577 501 India",14.2263628,76.4009677
"Turuvanur Road, Near District Hospital Ck Pura, Chitradurga 577501 India",14.2268534,76.4076939
"Dam Road, Sanjaynagar Behind City Hospital, Hospet India",13.0369229,77.57851339999999
"Station Road Opp Rotary Club, Hospet India",15.2783285,76.38883489999999
"Abheraj Baldota Rd Vijayanagar, Hospet 583225 India",15.2663848,76.3728155
"Abheraj Baldota Rd Vijayanagar, Hospet 583225 India",15.2663848,76.3728155
"Abheraj Baldota Rd Vijayanagar, Hospet 583225 India",15.2663848,76.3728155
"Near Bus Stand Hospet, Hospet 583201 India",15.2688542,76.39092409999999
"Opp Sbi Bank, Hospet 583201 India",15.2688542,76.39092409999999
"Near City Bus Stand Railway Station Road Beside Cindicate Bank, Hospet 583201 India",15.2688542,76.39092409999999
"Near Swathi Hotel, Hospet 583201 India",15.2688417,76.3908606
"Near Ksrtc Bus Stand Hampi Ice Land Road, Hospet 583201 India",15.2749976,76.3890083
"343 4th Ward opp SBI Bank, Station Road, Hospet 583201 India",15.2837415,76.3871535
"Next to Maharani College, opposite to Fort, Chitradurga 577501 India",14.2158865,76.3997196
"Chowk Hussainpura Shivala Rd Near RTO Office, Chitradurga 577501 India",14.2250932,76.3980464
"Sardar Patel Road beside Bajaj showroom, Hospet 583201 India",15.2786197,76.3878831
"2nd floor, 16-329B Manipal Alevoor Road, Manipal 576104 India",13.3428674,74.7901846
"Hanumanahalli - Kotturu - Joladakudligi Road hospet-huligi main road, Hospet 583234 India",15.0602475,76.5214943
"Alevoor road, Manipal 576104 India",13.3349953,74.7899111
"Railway Station Road Opp. Sbi Bank And Atm, Hospet 583201 India",15.2688542,76.39092409999999
"Opposite Manipal Institute of Technology, Manipal 576 119 India",13.3525321,74.79282239999999
"Daffodils, Laxmindra Nagar Kunjibettu Post, Manipal 576102 India",13.3474268,74.76358809999999
"Eshwar Nagar Udupi - Hebri Rd, Near Mit, Manipal 576 104 India",13.3505155,74.785707
"Near K.S.R.T.C Bus Stand, College Road, Hospet 583201 India",15.2749976,76.3890083
"Station Road, Hospet 583201 India",15.2837415,76.3871535
"Collage Road Behind K S R T C Bus Station, Hospet 583201 India",15.2709916,76.3957525
"Collage Road Behind K S R T C Bus Station, Hospet 583201 India",15.2709916,76.3957525
"Manipal-Udupi Road Penta Square, Opposite KFC Shivalli Village, Indrali Ward, Manipal 576102 India",13.3615299,74.7841783
"Perampalli Road, Near Shambhavi Circle Near DC Office, Vidyaratna Nagar, Manipal 576104 India",13.362656,74.7855916
"Manipal-Alevo Road Down Town Towers, Manipal 576104 India",13.3388828,74.7899868
"V/45 Station Road Yalamanchili Complex, Hospet 583201 India",15.2789802,76.38875569999999
"Station Road V/45, Yalamanchili Complex, Hospet 583201 India",15.2688542,76.39092409999999
"Opposite MIT and above the Coffee day, Manipal India",13.352384,74.7867838
"Manipal Drive, Manipal 576104 India",13.3533553,74.7853531
"Perampalli Nekkar Krishnadasa Marga 316/30 Ramani Pal Road 2nd cross, Manipal 576104 India",13.3529477,74.7821076
"16-131-F4, Behind SIBM, Ananth Nagar II stage, Manipal 576104 India",13.3359968,74.7816162
"Station Road, Hospet 583201 India",15.2837415,76.3871535
"End Point Road Near Royal Embassy, Manipal 576104 India",13.3664995,74.78537250000001
"10/90 J.N. Road Hampi, Hospet 583201 India",15.3350132,76.46002399999999
"Vidyarathna Nagar Behind Manipal University Building, Manipal 576104 India",13.3533433,74.78489549999999
"End Point Road, Near Crumbz Bakery, 2nd Cross, Vidyaratna Nagar, Manipal 576104 India",13.3664995,74.78537250000001
"DC Office . End Point Road, Manipal 576104 India",13.3664995,74.78537250000001
"Station Road, Hospet 583201 India",15.2837415,76.3871535
"Academy Towers, Tiger Circle, Manipal 576104 India",13.3515704,74.78755420000002
"Opp M.I.T Manipal-karkala Road Eshwarnagar , NH69A, Udupi District, Manipal 576104 India",13.3473919,74.79243699999999
"Opp: Manipal Institute of Technology Parkala Road, Manipal India",13.3525321,74.79282239999999
"Basaveshwara Road, Tumkur India",13.3378762,77.117325
"Durga Road Pavagada, Tumkur India",14.1030998,77.2807423
"1, Sri Krishna Leela, Opp Mit Main Road, Manipal 576104 India",13.3501203,74.7926394
Manipal 574106 India,13.352384,74.7867838
"B H Road, Tumkur India",13.3457126,77.0835196
"Kadagdal Road, Near Boikeri, Ibnivalvadi, Madikeri Taluk 571201 India",12.4331488,75.786202
"Aleevoor Road, Industrial Area 1, Dasharath Nagar, 2nd cross, Manipal 576104 India",13.3392804,74.7908418
"2nd floor, Manipal Commercial Complex Opp KMC, Manipal 576104 India",13.3527438,74.7896128
"Manipal-Udupi Hwy, Main Road, Manipal 576104 India",13.3472689,74.7742238
Sringeri India,13.4197675,75.2566564
Sringeri India,13.4197675,75.2566564
Sringeri India,13.4197675,75.2566564
"Near Sri Sharadhamba Temple, Sringeri 577139 India",13.4162583,75.2509671
"Near Sri Sharadhamba Temple, Sringeri 577139 India",13.4162583,75.2509671
"Kinnimulki, Manipal 576101 India",13.3224607,74.73809609999999
"Barathi street, Sringeri India",13.421862,75.2547217
"Barathi street, Sringeri India",13.421862,75.2547217
"Chettalli Road, Near Capitol Village Resort, Ibnivalvadi, Madikeri Taluk 571201 India",12.3985401,75.77095190000001
"Near Syndicate Bank ATM, Murudeshwar 581350 India",14.093993,74.4898633
"Daffodils, Laxmindra Nagar 2nd Cross, Near Indian Nursery, Manipal India",13.3392804,74.7908418
"Near Jadkal Bridge Kollur Mookambika road, Kollur 576220 India",13.7955001,74.8040814
"Aghanashini Road House No. 443A, Near Ashwinidhama Ayurvedic Hispital, Kumta 581351 India",14.4419941,74.3853439
"92/A New Tank Bund Road, Bellary 583104 India",15.1406273,76.9213409
"Taluk, Kundapur, Main Rd Near Kollur Bus Station, Kollur 576220 India",13.860807,74.81040899999999
"Sri Annapoorneshwari Residency Site No 28, Sringeri 577120 India",13.4197675,75.2566564
"Bangalore Road, Beside Nataraj Theater Opp. Prakash Enigneering Works, Bellary 583101 India",12.9715987,77.5945627
"Villa Wodeyarmutt Kochavalli, Sringeri 577139 India",13.3879291,75.2482716
"Villa Wodeyarmutt Kochavalli, Sringeri 577139 India",13.3879291,75.2482716
"Villa Wodeyarmutt Kochavalli, Sringeri 577139 India",13.3879291,75.2482716
"Rajathadri Road, Manipal 576104 India",13.3630061,74.7848028
"IB Road, Shekhar Nagar, Raichur 584101 India",16.1860327,77.3454244
"Near Kollur Mookambika Temple Kundapura Taluk, Kollur 576220 India",13.8637888,74.8144538
"Karma Beach Road, Kumta 581351 India",14.4758883,74.3726967
"Mallalli Falls Road, Somvarpet 573123 India",12.680643,75.72366699999999
Somvarpet 571235 India,12.6794522,75.92309759999999
"Syndicate Bank Head Office Road Near Tiger Circle, Manipal 576104 India",13.3518543,74.78679939999999
"Madikeri Road, Somvarpet 571237 India",12.4325785,75.7491276
"#187 Next to Government PU college Baada, Kumta 581351 India",14.4275482,74.4190929
"Hiriyur Road near New KSRTC Bus Stand Bapu Ji Nagar, Bellary 577599 India",15.1336823,76.9232524
"Sannu Suresh Kumar, 1st Monnangeri Village Near Navodaya School, Monnangeri, Madikeri Taluk 571201 India",12.4278887,75.7060758
"Rajathadri Road Vidyarathna Nagar, Manipal 576104 India",13.3630061,74.7848028
"Near Railway Bridge, NH-17, Kumta India",14.4275482,74.4190929
"Colledge Road, Kumta 581343 India",14.4398727,74.4264593
"Baragadde, Kumta 581343 India",14.4270095,74.4144562
"Sulimalthe Village, Hancode Post, Somvarpet 571236 India",12.5943101,75.8504904
"Madhav Nagar, Manipal 576104 India",13.3542289,74.7871011
"Nh - 66, Kumta 581327 India",14.4253982,74.4193442
"No 96 I-Roomz Hoysala Residency Anantapur Road Near Royal Circle,Opp. ICICI Bank, Bellary 583101 India",15.1430994,76.9430023
"Gangavali Beach Road, Kumta 581319 India",14.5862571,74.3056387
"# 5/231 Kibbetta Village Chowdlu, Somvarpet 571236 India",12.6073585,75.8595989
"No 8 Aditya Orchards, Kollur India",13.8631865,74.8104053
"Old Bus Stand Road Nellikeri, Kumta 581343 India",14.4275482,74.4190929
"Janata Vidyalaya Road Male Hitlu, Holegadde, Kumta 581327 India",14.3667376,74.421785
"Aghnaashini Road, Kumta 581351 India",14.4306728,74.4051826
"Jyeshthpura, P/O: Baada (Bada), Kumta-Aghanashini Road South of Gokarna, Kumta 581351 India",14.4757296,74.3748761
"N H 66 Opp. KSRTC Bus Stand, Kumta 581343 India",14.4234589,74.4163734
"597 Kadle Beach, Kumta 581351 India",14.4438237,74.3814537
"Kurali Road Moovera, Trishul Estate, Somvarpet 571236 India",12.5943101,75.8504904
"Bada, Kumta 581343 India",14.4757296,74.3748761
"National Highway 17, Kumta 581343 India",14.4275482,74.4190929
"National Highway 17, Kumta 581343 India",14.4275482,74.4190929
"Hodike Shiroor Honnavar, Kumta 581338 India",14.2797502,74.4439252
"Aghanashini Rd, Gudeangadi, Kumta 581351 India",14.4746236,74.3749572
"National Highway 66 Hanuman Layout, Kumta 581343 India",14.4234589,74.4163734
"Nh-66 Devagundi, Handigon, Kumta 581332 India",14.4253982,74.4193442
Kumta 581351 India,14.4275482,74.4190929
"Hiregutti Village, Gokarna Road Kumta Taluk, Uttarkannada Dist., Kumta 581 333 India",14.4275482,74.4190929
"NS Hegde, Kumta 581343 India",14.4298005,74.4181035
"Kumta - Aghanashini Road opposite Panchayat Office Road, Kumta 581351 India",14.4306728,74.4051826
"Kollur Ambika Guest House Main Road, Kollur 576220 India",13.8633019,74.8128869
"Vidya Residency Court Road, Near Old K S R T C Bus Stand, Bellary 583101 India",15.1393932,76.9214428
"63/82 Goldsmith Street, Bellary 583101 India",15.1243283,76.94702199999999
"Kudle Beach Rd, Kumta 581326 India",14.5432369,74.3171358
"Nirvana Beach Birkodi, Kagal Post, Kumta 581351 India",14.4949784,74.3626247
"No 114 Court Road, Bellary 583101 India",15.1479743,76.9323301
"Shimoga Road Near Sree Mookambika Temple, Kollur 576220 India",13.9299299,75.568101
"Nh-66, Kumta 581343 India",14.4234589,74.4163734
"Nh-66, Kumta 581343 India",14.4234589,74.4163734
"Aghanashini Road DRN Hospitalities Pvt. Ltd, Baada, Kumta 581351 India",14.4306728,74.4051826
"Kollur Main Road/ Souparnika Road Ground Floor, 1 Floor, 2 Floor, 3rd Floor, 1/243c, Nandanum Arcade, Kollur 576220 India",13.8631865,74.8104053
"Shimoga Road, Kollur India",13.8631865,74.8104053
"#201, Car Street Opp. Jain Temple, Bellary India",15.1379167,76.9251305
"Ravi Chetanas Building, Nittur, Hosanagar, Taluk, Dist-Shimoga-, Kollur 577452 India",13.9220638,74.9058968
"Near Mookambika Temple, Kollur 576220 India",13.8637888,74.8144538
"Main Road, Kollur 576220 India",13.8633539,74.8123507
"Opposite Mothi Cirlce, Bellary 583101 India",15.123373,76.947639
"After Nagarava Bridge Meru U Link Taxis Private Limited 1st Stage Bellary Highway Road Near Manyata Tech Park, Bellary 560043 India",15.1393932,76.9214428
"Schidananda Talkies Hampi Hospet, Bellary India",15.3350132,76.46002399999999
"Sri Mookambika Temple Near Kollur Bus Stand, Kollur 576220 India",13.8637888,74.8144538
"Kollur - Kundapura Road, Kollur 576220 India",13.8095208,74.8031411
"Nagesh Poojary, Kollur 576220 India",13.8631865,74.8104053
"Bangalore Road, Bellary 583101 India",15.136586,76.9241512
Kollur India,13.8631865,74.8104053
"New Trunk Bund Road, Bellary 583104 India",15.1479216,76.90956469999999
"Car Street, Kollur 576220 India",13.8631865,74.8104053
"Near Gandhi Chowk Hospot, Bellary India",15.1393932,76.9214428
"Near Kollur Mookambika Temple, Kundapura Taluk, Kollur 576220 India",13.8637888,74.8144538
"Harshan Road Near Janatha Upahar Darshini, Bnestewan Pet, Raichur 584101 India",16.2350965,77.3439283
"Shimoga Road, Kollur India",13.8631865,74.8104053
"Mookambika Temple Road, Kollur 576220 India",13.8637888,74.8144538
"Ponnambare, Theralu Post near Birunani & T-Shettigiri, Virajpet 571236 India",12.1949851,75.8040022
"Kollur - Kundapur Rd Beside Sri Mookambika Temple, Kollur 576220 India",13.8637888,74.8144538
"KSCM Complex ,Kustagi Road ,Sindhanur, Raichur India",15.7626068,76.7415379
"Near Halkal Kollur, Kollur 576220 India",13.8262151,74.8021622
"Shimoga road Uduppi District, Kollur 576220 India",13.8631865,74.8104053
"Beside Sri Mookambika Temple, Kollur 576220 India",13.8637888,74.8144538
"Bus Station Road, Raichur 584101 India",16.1997123,77.3440176
"Station Road, Raichur 584101 India",16.1997123,77.3440176
"Main Road, near Sri Mookambika Temple Next to Temple ,Government Inspection Bunglow, Kollur 576220 India",13.866067,74.8125424
"10710, Nehru Nagar, P.B. Road, Belgaum 590010 India",15.8343356,74.5371938
"Bus Station Road, Raichur 584101 India",16.1997123,77.3440176
"Kollur Mookambika - Kundapura Road Old Mayura Bar, Kollur 576220 India",13.8078343,74.8033253
"Lingasuguru Road opp Suryanagar, Raichur 584124 India",12.7933827,77.70153839999999
"Ghandi Chowk, Basaveswara Road Above Hdfc Bank Ltd, Raichur 584101 India",16.2080028,77.3523414
"2/4 Sagar Road Jaganmatha Boardign and Lodging, Kollur 576220 India",13.8631865,74.8104053
"Opp Bus Stand, Sindhanur, Raichur 584101 India",16.2025447,77.3464629
"Station Road, Raichur India",16.1997123,77.3440176
"Chanamma Circle Club Road, Belgaum India",15.8673067,74.5116377
"Arab Mohalla Circle,Gousahla Road, Raichur 584101 India",16.2100169,77.3496433
"Mookambika Forest Reserve Kundapur Taluk, Udupi, Kollur 576220 India",13.8637888,74.8144538
"Car Street, Kollur 576220 India",13.8631865,74.8104053
"Muncipal Tipu Sultan Chowk Goshala Road, Raichur 584101 India",16.216018,77.3565608
"Station Rd, Azad Nagar, Androon Quilla, Raichur 584101 India",16.1997123,77.3440176
"Station Road, opp Sri Ramalu Park Opp Sri Ramalu Park, Hospet India",15.277956,76.3893835
"Mavalli-1,Hiredomi,Murudeshwar Beach Road, Murudeshwar,Uttara Kannada,, Murudeshwar 581350 India",14.0950595,74.4837752
"Moodlakatte Road Murdeshwra, Murudeshwar 581350 India",14.0929689,74.4923769
"Moodlakatte Road Murdeshwra, Murudeshwar 581350 India",14.0929689,74.4923769
"Post Office Road near Venkataraman Temple, Murudeshwar 581350 India",14.093993,74.4898633
"Chandramouleshwar Circle Androon Quilla, Raichur 584101 India",16.2021597,77.34823519999999
"College Road Shanbhag Circle, Hospet 583201 India",15.2757564,76.38776639999999
"Basti Road Opposite Getha Clinic, Murudeshwar 581350 India",14.093993,74.4898633
"Upstairs KK Sports, Jail Road, near DDPI office, Raichur 584101 India",16.2031917,77.3493447
"12/1 41 - 44 Gunj Main Rd Gunj Circle, Osman Gunj, Raichur 584101 India",16.2172597,77.3630009
"Circle Gunj Road Shakti Complex - Behind Vaikuntam Complex, Raichur 584102 India",16.2160407,77.3573498
"No. 27/5 Kollur Beside Sri Mookambika Temple, Kollur 576220 India",13.8637888,74.8144538
"Beach Road, Murudeshwar 581350 India",14.0905092,74.4886345
"Raichur - Bagalkote Rd, Raichur 584101 India",16.206936,77.3361797
"Temple road Murudeshwara, Murudeshwar 581350 India",14.093993,74.4898633
"Beach road, Murudeshwar 581350 India",14.0905092,74.4886345
"Saibaba Layout, Mekeri, Madikeri Taluk 571201 India",12.3889008,75.7482577
"Station Road, Raichur India",16.1997123,77.3440176
"Chembebellur Post, Virajpet Virajpet-Ammathi Road, Imangalaa Deviation, Virajpet 571211 India",12.2210818,75.883184
"Chembebeloor Road Near Kodava Samaj, Virajpet 571218 India",12.2082228,75.79705009999999
"Naveen Beach Road, Murudeshwar 581350 India",14.0982826,74.4871707
"Church Beach Road, Murudeshwar 403516 India",14.093993,74.4898633
"Keri Road Near Shree Venkataraman Temple, Murudeshwar 581350 India",14.0957597,74.4891183
"Temple and Beach Road Opp. Syndicate Bank, Murudeshwar 581350 India",14.093993,74.4898633
"Bhatkal Taluk, Murudeshwar 581350 India",14.093993,74.4898633
"Arij Village Perumbadi, Virajpet 571218 India",12.1947336,75.8035307
"Murudeshwar Temple Main Road, Murudeshwar 581350 India",14.0950648,74.4947611
"Temple Road Opp. Syndicate Bank, Murudeshwar 581350 India",14.093993,74.4898633
"Sation Road Opp Public Garden, Raichur 584101 India",16.216018,77.3565608
"Chandramouleshwar Circle Near Vijay Bank, Raichur 584101 India",16.216018,77.3565608
"Near Syndicate Bank, Temple Road, Murudeshwar 581350 India",14.093993,74.4898633
"Bhatkal Taluk, Murudeshwar 581 350 India",14.093993,74.4898633
Murudeshwar 581350 India,14.093993,74.4898633
"near EK Minar Masid Navrang Darwaza Road, Raichur 584101 India",16.2032837,77.35267650000002
"Surya Nagar, Lingasuguru Road Maski, Raichur 584124 India",15.95823,76.6544601
"Raichur Rd, Raichur 584101 India",16.2315169,77.3553685
"Kunjila, Virajpet 571218 India",12.1949851,75.8040022
"Keri Road Near Venkatramana Temple Murudeshwar, Murudeshwar 581350 India",14.0979807,74.4895154
"Kopatty village, Bhagamandala, Madikeri Taluk 571247 India",12.3865503,75.5286981
"Near Talacauvery, Bhagamandala, Madikeri Taluk 571236 India",12.3835908,75.4941839
"Nalavathoklu Village and Post, Virajpet 571218 India",12.1949851,75.8040022
"Virarajpet Road Next To Ganesh Estate, Near Satya Sai Baba Temple, Mekeri, Madikeri Taluk 571201 India",12.4060298,75.7411083
"17 Nh, Murudeshwar 581 350 India",14.093993,74.4898633
"Station Rd, Opposite To Public Park, Azad Nagar, Raichur 584101 India",16.1965815,77.3432361
"Beach Road Near Shiva Temple, Murudeshwar 581350 India",14.0940079,74.4899142
"Murudeshwar Temple Main Road Bhatkal Taluk, Murudeshwar 581350 India",14.0950648,74.4947611
"76/1 B R Ambedkar Circle, Station Road, Raichur 584101 India",16.2015148,77.34507789999999
"Near Syndicate Bank, Temple Road, Murudeshwar 581354 India",14.093993,74.4898633
"Mekeri, Madikeri Taluk 571201 India",12.3889008,75.7482577
"Near Temple Kathalekadu Maragodu Road, Maragodu, Madikeri Taluk 571252 India",12.332715,75.7884487
"Mutharmudi Road, Napoklu, Madikeri Taluk 571252 India",12.3279084,75.75915
"Main Road Opp Bus Stand, Murudeshwar 581350 India",14.093993,74.4898633
"NH167,Station Road, Opposite Public Garden Next to Hassan Iyengar Bakery, Raichur 584101 India",16.2149217,77.3569096
"Galibeedu, Madikeri Taluk 571201 India",12.4551706,75.7026632
"Near Gowri Shankara Temple Virajpet Road, Mekeri, Madikeri Taluk 571201 India",12.3985529,75.7434085
"24/1/2/3,Gonikoppa Road, Virajpet 571218 India",12.1261162,75.888611
"Beach Road Near Kinara Beach, Kundapur 576222 India",13.5929299,74.6748422
"1st Floor 619 10'th a Cross Street, Maragodu, Madikeri Taluk 560086 India",12.332715,75.7884487
"Gandhibazar Main Road Bhatkal Taluk, Murudeshwar 581 350 India",14.093993,74.4898633
Murudeshwar 581350 India,14.093993,74.4898633
"Beach Road, Matadahitlu, Murudeshwar 581350 India",14.0905092,74.4886345
"Sh90 Bhagamandala - Talcavery Road, Bhagamandala, Madikeri Taluk 571247 India",12.2153147,75.7892963
"Padakal Village Chettimani Post, Bhagamandala, Madikeri Taluk 571247 India",12.3779027,75.5729733
"Annapurna No.76, Bhagamandala, Madikeri Taluk 571247 India",12.3865503,75.5286981
"Mutharmudi, Napoklu, Madikeri Taluk 571252 India",12.3285262,75.7429636
"Murudeshwar Temple Road, Murudeshwar 581350 India",14.0950648,74.4947611
"Kadangamurur Village, Opp Native Club Club Mahindra Virajpet Rd, Kadanga Marur, Virajpet 571212 India",12.2061018,75.7274738
"Temple Main Road Near Corporation Bank Building, Murudeshwar 581350 India",14.093993,74.4898633
"Ashraya Inn Deluxe, Napoklu, Madikeri Taluk 571214 India",12.4244205,75.7381856
"Temple Main Road, Murudeshwar 581350 India",14.093993,74.4898633
"Madikeri Road 130 Karnagiri Village, 3rd Mile, Opp GMP School, Maragodu, Madikeri Taluk 571201 India",12.4244205,75.7381856
"Madikere Road, Napoklu, Madikeri Taluk 571214 India",12.4197703,75.73919169999999
"Madikeri - Napoklu Road, Napoklu, Madikeri Taluk 571214 India",40.8517983,14.26812
"Chimta Coury Haklu, Shimoga 577411 India",14.0085797,75.1545381
"100 Ft Road Vinobha Nagara, Shimoga India",13.9498565,75.5552075
"Mallikarjuna Nagar, Honnali Road, 8th Ward, Shimoga 577201 India",13.943434,75.586342
"100 Ft Road Vinobha Nagara, Shimoga India",13.9498565,75.5552075
"Kolavara House, Soppugudda, Thirthahalli, Shimoga 577432 India",13.6958855,75.2457184
"705-e,, Karwar 581301 India",14.8184812,74.1416127
"Near Venkateshwara Theatre Thirthahalli, Shimoga 577432 India",13.6910056,75.24385869999999
"Jail Road, Raichur 584101 India",16.203222,77.3509191
"LLR Road, Shimoga 577201 India",13.9333016,75.5707186
"Thalathmane Post Opp Ananya Greens Resort, Mekeri, Madikeri Taluk 571201 India",12.3952221,75.73287979999999
"Cutinho Road, Karwar 581301 India",14.8066549,74.1281418
"1 Mission Compound, Shimoga 577202 India",13.9355328,75.5662424
"Sadashivgad Karwar 1877, Purushottam Naik, Chittakula Near Sadicha Hall, Karwar 581352 India",14.8550923,74.1329458
"BH Road Bhadravathi, Shimoga 577301 India",13.8509173,75.6873695
"Karwar Goa Highway, Karwar 581345 India",14.901376,74.1122506
"J.N Rd Above Canara Bank, Dandeli 581325 India",15.248997,74.6219232
"Hasan Maad, Dandeli 581325 India",15.2634617,74.6290636
"Tilak Nagar 2nd Floor, Opp.Congress office, Shimoga 577201 India",13.9373848,75.57351899999999
"IPM Colony Bailpar, Dandeli 581325 India",15.2317352,74.6177173
"No 541/B Above Anmol Tyres MRF Showroom Green Street, Karwar 581301 India",14.8106235,74.1294256
"Reserve Camp, Near Police Station, Jog, Shimoga 544435 India",13.9299299,75.568101
"SY No. 1289/2B, Bavan, Majali Beach Road Post Majali , Majalai Beach, Karwar 581345 India",14.8662295,74.1083965
"Bazar Line, Jog Falls, Shimoga Sagar, Shimoga 577401 India",14.1670402,75.0403
"Nh 66, Karwar 581352 India",14.8601595,74.1286137
"Sagara Road Main Road, Shimoga India",13.9322282,75.5456819
"Near Pace College, Shimoga 577201 India",13.9489376,75.5965157
"Near Jog Falls, Shimoga 577435 India",14.2056458,74.7863698
"Muduvalli, Shimoga 577424 India",13.64805,75.145315
"Agumbe Hobli Guddekere, Shimoga 577411 India",13.5026635,75.0903154
"Balraj Urs Road, Shimoga 577201 India",13.9379268,75.5784088
"Sorab Road Sagar, Shimoga India",14.1799854,75.0431093
"Pansoli Village, Dandeli India",15.1923819,74.6177173
"1 Near Pace College, Shimoga 577201 India",13.9489376,75.5965157
"No 513 Hotel Navaratna Palace Kajubag Main Road, Karwar 581301 India",14.8102533,74.1303077
"No.25/317, Sri Laxmi Ranganatha Krupa O T Road, Kurubara Palya, Shimoga India",13.9291895,75.5734389
"Mughle Complex Opposite To Shapur Masjid, Bidar India",17.9103939,77.51990789999999
"State Highway 57, Honnali Road, Near Pace College, Shimoga 577201 India",13.9324851,75.585042
"B H Road, Near Bus Stand, Shimoga 577201 India",13.9303079,75.577441
"Nh- 17, Near Kali Bridge, Kodibag Uttara Kannada Dist, Karwar 581303 India",14.8257132,74.1319534
"Maldarwada, Devbag Brg, Karwar 581352 India",14.8554846,74.1161567
"Sadanand Complex, 3rd Floor Main Road Sadashivgad, Karwar 581352 India",14.8599257,74.1269322
"Honnesara Post, Sagar Taluk, Shimoga 577417 India",13.9299299,75.568101
"Haradur, Karwar 571102 India",12.4899253,76.1001009
"Gokarna Near New Bus Stand, Karwar India",14.5478586,74.31884099999999
"Old Dandeli, Dandeli 581325 India",15.2361191,74.6172819
"Habbuwada, Station Road, Karwar 581301 India",14.8139151,74.1391503
"Sagar Shimoga, Shimoga 577401 India",14.1670402,75.0403
"Near Subhash Chandra Bose Circle, Cuthina Road, Karwar 581301 India",14.8073777,74.129898
"Balaraj URS Road, Shimoga 577201 India",13.9379268,75.5784088
"Harihar Hospet Road, Shimoga 577201 India",13.9299299,75.568101
"Jn Road, Near To Bus Station, Dandeli 581325 India",15.251081,74.6205091
"Sudarshan Nagar Dandeli Nirmal Nagar, Dandeli 581325 India",15.2658186,74.6169853
"Dandeli-Mainal Road Kariyampalli, Dandeli 581325 India",15.2393511,74.6564517
"Noble Lodge Patancheru, Muthangi Near Orr Junction, Shimoga 577201 India",17.5425548,78.2267425
"Opp: Bus Stand Jn Road, Dandeli 581325 India",15.251081,74.6205091
"101, J.N Road, Dandeli 581325 India",15.2503756,74.62077769999999
"J.N Rd, Dandeli, Karnataka Bldg No. IA/217, Dandeli 581325 India",15.2467568,74.62349999999999
"Dandeli Karwar Road Potoli, Dandeli 581325 India",14.9496863,74.6942455
"IPM Colony, Dandeli 581325 India",15.2361191,74.6172819
"Beside Moulangi Eco Park, Dandeli 581325 India",15.2568795,74.59318689999999
"Pansoli, Dandeli India",15.1923819,74.6177173
"Jungleshwar Temple Road IPM Colony, Dandeli 581325 India",15.2361191,74.6172819
"Kodibagh Road, Opp Amruth Hotel, Karwar 581301 India",14.8263517,74.1317027
"Dew Drops Jungle Camp Site borders Dandeli, Dandeli 581363 India",15.2369673,74.6381035
"Kodibagh Road opp Amruth Hotel, Karwar 581301 India",14.8263517,74.1317027
"Dandeli Ganesh Gudi Goa Road Near Degree College, Dandeli 581325 India",15.2637186,74.61952250000002
"IPM Colony, Bailpar, Dandeli 581325 India",15.2317352,74.6177173
"Motigudda, Achave Village, Karwar India",14.6095822,74.5041262
"Jawaharlal Nehru Road, Opp Bus Stand, Dandeli 581325 India",15.251081,74.6205091
"1/793, Magenta Residency Near Raghavendra Swamy Math, Dandeli 581325 India",15.2501058,74.6188771
"Post Pradhani Joida Road Village Amarde, Dandeli 581325 India",15.2000766,74.52582129999999
Kundapur 576257 India,13.6235274,74.6917418
Dandeli India,15.2361191,74.6172819
"Koravadi, Kundapur 576257 India",13.6235274,74.6917418
"SVAR Plaza, Balaraj Urs Road, Gopi Circle, Shimoga 577201 India",13.93566,75.575182
"NH-66, Opp. Shastri Circle., Kundapur 576201 India",13.6228713,74.6917441
"Bangur Nagar, Dandeli 581325 India",15.2512181,74.6268676
"Kodibag Main Road Asiya Business Park, Karwar 581301 India",14.8094418,74.1304384
"Near Water Tank Dandeli, House Number 182, Vanshree Nagar Near Water Tank, Dandeli 581325 India",15.2566171,74.6148724
"J.N. Road, opp. bus stand, Dandeli 581325 India",15.251081,74.6205091
"Opposite Kodibag Post Office, Karwar 581303 India",14.8333326,74.1313365
"Green Street, Karwar 581301 India",14.8072668,74.1282369
"National Highway, 52, Bagalkot 587104 India",16.1666085,75.6091724
"Rotary Circle, APMC Road, Bagalkot 587101 India",15.9638401,76.1206037
"B H Road Near MRF Tyers Showroom, Vidyanagara, Shimoga 577203 India",13.9136858,75.5895824
"J N Road Opp Dandeli Bus Stand, Dandeli 581325 India",15.251081,74.6205091
"Opp Bus Stand, Near to Railway Station, Bagalkot 587101 India",16.1691096,75.6615029
"604/ 1 Sea Shore Road Opposite to State Bank of India, Karwar 581301 India",14.811089,74.130057
"Badami Flyover Road Behind Railway Station, Bagalkot 587101 India",16.1691096,75.6615029
"Shivaji Circle Mudhol, Bagalkot India",16.343269,75.205787
"01 Hankal Kundapura, Kundapur 576201 India",13.635703,74.68930300000001
"Veenu Complex, Kundapura Main Rd Opp. Canara Bank, Kundapur 576201 India",13.6293101,74.6906646
"Fish Market Road Behind Town Municipality Building,, Kundapur 576201 India",13.6304124,74.6933831
"Hankon Village Karwar Taluka, Karwar 581356 India",14.895306,74.1918846
"Beejadi Beach Road, Kundapur 576222 India",13.5905664,74.67535
"Ranna Circle Mudhol, Bagalkot India",16.3272039,75.29050819999999
"Karje, Hebri-Brahmavar Road, Kundapur 576215 India",13.4252676,74.8722207
"VVs College Road Opposite Bus Stop, Bagalkot 587101 India",16.174955,75.6552274
"Balaraj Urs Road Court Circle Opposite Gandhi Park, Shimoga 577201 India",13.9336486,75.5760658
"Railway Station Road, Karwar 581301 India",14.8184812,74.1416127
"Koodal Sangama, Hungund, Bagalkot 587118 India",16.0576259,76.06094759999999
"Kaikini Road, Karwar India",14.8082922,74.1326032
"Majali Beach, Majali Village Uttar Kannada dist, Karwar 581345 India",14.8662295,74.1083965
"Anagalli Rd, Kundapur 576201 India",13.6341426,74.7025949
"Badami Near Bus Stand, Bagalkot India",16.1691096,75.6615029
"Basrur Road Vaderahobli, Kundapur 576201 India",13.6235274,74.6917418
"Thirthahalli Town, Shimoga, Shimoga 577432 India",13.6894963,75.24498919999999
"#1/1,Kattinahole Village, Mathikai Post, Nagara Hobli, Hosanagara Taluk, Shimoga 577452 India",13.9153869,75.06403499999999
"BH Road, NH206 Sagar, Shimoga 577401 India",14.1624516,75.0296709
"Kanthi Nagar Near A.P.M.C. Navanagar, Bagalkot India",22.4691056,70.0722712
"Honalli Main Road Jyothi Prakash Complex, Tavare Chanthalli, Shimoga 577201 India",13.941744,75.574202
"Bhatrahadi road Opposite Shetty iceplant,8th ward, Door number 229, Kundapur 576201 India",13.632069,74.69933
"Besides Corporation Bank, Karwar 581301 India",14.8184812,74.1416127
"Green Street, near Shivaji Circle, Karwar 581301 India",14.8084952,74.12859209999999
"Bangarappa Nagar Near Karwar Railway Station, Karwar 581301 India",14.8073777,74.129898
"Sampgodu, Shimoga 577432 India",13.9299299,75.568101
"Vakwady, Kundapur 576257 India",13.5700026,74.7134071
"Devbagh, Karwar 581301 India",14.8456561,74.1160317
"Near Mulla Stop Main Road Kajubag, Karwar 581301 India",14.8186369,74.1331579
"Tarivada, Near Post Office/ Kapre Temple, Karwar 581303 India",14.8333326,74.1313365
"Survey No.11/2B, 11/3, 11/4, 12/1, 12/2, 12/4, 12/5 Near N.H.66, Trasi Post, Kundapur 576235 India",13.6245221,74.6921637
"Kaiga Road Mallapur Township, Karwar India",17.4464663,78.5745744
"Near Bus Stand & Railway Station-Bagalkot, Bagalkot 587101 India",16.1691096,75.6615029
"Nr Bus Stand N T Road, Shimoga 577201 India",13.9201196,75.5672374
"L.L.R Road Sri Manjunatha Arcade, Durgigudi, Shimoga 577201 India",13.934157,75.5705086
"Jayadev Complex Near Ksrtc Bus Stand, Shimoga India",13.9299299,75.568101
"SH 57, Sector 22, Bagalkot India",16.1828413,75.6647844
"Sampekatte Kodachadri Road, Shimoga India",13.8623079,74.8752009
"Bidar Bangalore Road Near Hasanapur Camp, Bidar India",17.9103939,77.51990789999999
"Mahipal Singh Pawar Complex Near Old Bus Stand, Bidar India",17.9145706,77.5149582
"Kodibag Rd, Karwar 581303 India",14.8317787,74.132048
"Billi Gadde, Karwar 581359 India",14.9656478,74.7130763
"Agumbe Road, Opp Hdfc Bank Thirthahalli, Shimoga 577432 India",13.689147,75.2386324
"Udgir Road Near Ambedkar Circle, Bidar India",17.9150807,77.5189193
"Azad Road, Opposite Corporation Bank, Shimoga 577432 India",13.6424466,75.2595731
"Basrur- Hunsemakki Road Opposite to Municipal Water Tank, Kundapur 576211 India",13.6064169,74.7653586
"National Highway 17, Sadashivgad Toll Naka, Karwar 581 301 India",14.8599257,74.1269322
"Sagar Road, NH 69, KIADB Auto Complex, Vinoba Nagar, Shimoga 577202 India",13.9391623,75.5560544
Bidar 585401 India,17.9218144,77.5218127
"Beside Zoom Computer Opp TPS Bhalki, Bidar India",18.0503666,77.2183652
"Opposite New Bus Stand, Bidar 585401 India",17.9103939,77.51990789999999
"Opposite New Bus Stand, Bidar 585401 India",17.9103939,77.51990789999999
"Opposite New Bus Stand, Bidar 585401 India",17.9103939,77.51990789999999
"NH 66 Panvel - Kochi - Kanyakumari Highway Opposite Durgamba ofc Hanglur, Kundapur 576217 India",13.6094122,74.69307069999999
"Opp. Indira Market, Near Old Bus Stand, Bidar 585401 India",17.9152452,77.516201
"No 513 Kajubag Main Road, Karwar 581301 India",14.8093395,74.130218
"Janwada Rd Rajiv Gandi Chowk, Outside, Shah Ganj, Bidar 585401 India",17.9103939,77.51990789999999
"Survey No 148 Kochavalli, Kalkulli, Sringeri 577139 India",13.4197675,75.2566564
"Survey No 148 Kochavalli, Kalkulli, Sringeri 577139 India",13.4197675,75.2566564
"Survey No 148 Kochavalli, Kalkulli, Sringeri 577139 India",13.4197675,75.2566564
"6/3 Ambewadi Village Dandeli, Dandeli 581325 India",15.2733116,74.6146961
"Mohan Market Railway Station Bidar, Bidar India",17.914497,77.5136777
"Kulgi village Haliyal Taluka, Dandeli 581325 India",15.2369007,74.6256177
"Own, Main Raod Hulsoor Near Police Station, Bidar India",18.0140303,77.0080118
"Subash Street Near Shree Sharadamba Temple, Sringeri 577139 India",13.4162583,75.2509671
"Kalakandur, Coorg, Somvarpet 571236 India",12.6181677,75.832255
"Bharahti St, Sringeri 577139 India",13.421862,75.2547217
"Abburkate Village, Somvarpet 571236 India",12.5867646,75.89260709999999
"Mallur Village, Mallur-Ballariamma Temple Junction, Nakur-Shirangala Post , Shuntikoppa Via,  Somvarpet Taluk,Coorg District, Somvarpet India",12.4525736,75.82942729999999
"Mallur Village, Mallur-Ballariamma Temple Junction, Nakur-Shirangala Post , Shuntikoppa Via,  Somvarpet Taluk,Coorg District, Somvarpet India",12.4525736,75.82942729999999
"Bapali Cross Joida Road, Dandeli 581325 India",15.2361191,74.6172819
"Mallur Village, Mallur-Ballariamma Temple Junction, Nakur-Shirangala Post , Shuntikoppa Via, Somvarpet India",12.5943101,75.8504904
"Mallur Village, Mallur-Ballariamma Temple Junction, Nakur-Shirangala Post , Shuntikoppa Via, Somvarpet India",12.5943101,75.8504904
"Main Road next to amrut jewelers, Karwar 581301 India",14.8108271,74.1307113
"Hangal Road Chowdlu Village, Somvarpet 571236 India",12.5972129,75.8482012
"Talthare Shetalli, Yedur, Somvarpet 571236 India",12.6179254,75.8244139
"Nakoor Village, Kanbile Post, Somwarpet Taluk, Somvarpet 571237 India",12.4945427,75.840435
"Kirudale Village Near Somwarpet Madhapur, Somvarpet 560038 India",17.4485835,78.39080349999999
"Chinnally, Shanivarasanthe Town, Somvarpet 571235 India",12.726713,75.88970290000002
"12km from Ramnagar, Chandwadi road, Shinoli, Joida, Near Jagelbet/ Ganeshgudi., Dandeli India",15.2842677,74.5302159
"Udgir Road, Bidar 585401 India",17.9218213,77.5090066
"Bharathi St KR Thimmappa Hegde Arcade Complex, Sringeri 577139 India",13.421862,75.2547217
"Opposite SRR Theatre, Kalamma Street, Bellary India",15.1393932,76.9214428
"OLV Convent Road Coorg, Somvarpet 571236 India",12.5982427,75.8401935
"Belandur, Sringeri 577139 India",13.4478309,75.24467120000001
"Bharathinagara Post Menase, Opp. Rajivgandhi Sanskrit University, Sringeri India",13.4180834,75.27217399999999
Somvarpet 571236 India,12.5943101,75.8504904
"140/39, Anantapur Road Near Government Guest House, Bellary India",15.1393932,76.9214428
"D No 113/A Court Road, Bellary 583101 India",15.1482671,76.9315679
"Sulimalthe Village, Hancode Post, Somvarpet 571236 India",12.5943101,75.8504904
"Shanthalli village & post Mallalli falls road, North Coorg, Somvarpet 571236 India",12.6339048,75.8025698
"Siddeswara Estate, Kaimara, Sringeri 577101 India",13.4197675,75.2566564
"Opp. Akkamahadevi College, Beside Reliance Petrol Bunk, New Bus Stand Road, Bidar 585 401 India",17.9122395,77.2864879
"48 Kandanakolli Somwarpet Madikeri Road, Somvarpet 571201 India",12.3398426,76.171775
"Nh-13, Sringeri-Karkala Road, Sringeri 577139 India",13.4197675,75.2566564
"Herur, Kushalnagar Sunti Koppa Hobli coorg district, Somvarpet India",12.4525736,75.82942729999999
"Barchi Ganeshgudi Road Near Barchi Post, Dandeli 581325 India",15.2842677,74.5302159
"Nanjarajapatna Post, Somvarpet 571234 India",12.4200386,75.8882508
"7th Hosakote, Thondoor Village, Suntikoppa Post Coorg, Somvarpet 571237 India",12.4496984,75.8626614
"New Trunk Road behind Hotel Pola Paradise, Bellary 583104 India",15.1475871,76.9033749
"No.102, Ambedkar Complex 1ST Floor, Beside Bus Stand, Bellary India",15.1372483,76.9187828
"Opp KSRTC Bus Stand, Bellary India",15.1368518,76.9189458
"Abheraj Baldota Rd, Bellary 583225 India",15.2625719,76.365972
"Sharada Nagar, Sringeri 577139 India",13.425639,75.25483349999999
"Sringeri-Halandur Road, Sringeri 577139 India",13.4197675,75.2566564
"Chelavara Village, Cheyyandane Post, Nariyandada, Madikeri Taluk 571212 India",12.4244205,75.7381856
"Bharathi Street Near Sri Sharadamba Temple, Sringeri 577139 India",13.421862,75.2547217
"Kandanakolli Somwarpet Madikeri road, Somvarpet India",12.5943101,75.8504904
"321, New Hampi, Bellary 583239 India",15.3108819,76.4461899
"Joida, Dandeli India",15.2361191,74.6172819
"115 Court Road Court Road, Bellary India",15.1479743,76.9323301
"No 56 2nd Monnangeri, Mekeri, Madikeri Taluk 571201 India",12.3889008,75.7482577
"Kirgandoor Post, Somvarpet 571251 India",12.5375408,75.78365889999999
"SH 88 Madenaadu Bus Stop, II.Monnageri, Madikeri Taluk 571201 India",12.419294,75.6863755
"SH 88 Madenaadu Bus Stop, II.Monnageri, Madikeri Taluk 571201 India",12.419294,75.6863755
"Near Gowrishankar Temple, Mekeri, Madikeri Taluk 571201 India",12.3889008,75.7482577
"Shanthalli Village & Post, Somvarpet 571236 India",12.6339048,75.8025698
"Arattukulam Estate, Kumaralli Village Close to Shantahalli and Malalli Falls, Somvarpet 573123 India",12.680643,75.72366699999999
"Bethu Village General Thimmaya Stadium Road, Napoklu, Madikeri Taluk 571214 India",12.3180533,75.6941781
"No.1576, sir M Visvesvaraya Road, Mandya 571401 India",12.5468574,76.8868402
"Vidyanagar Township Toranagallu, Bellary 583123 India",15.1712377,76.62683059999999
"Kundamastri road, Galibeedu, Madikeri Taluk 571201 India",12.4576885,75.6982808
"Cheyandane Post Madikeri Taluk, Nariyandada, Madikeri Taluk 571212 India",12.2279377,75.6904699
"Sri Rama Complex Shettihalli Main Road, Tumkur India",13.3269397,77.1173922
"#3580 Royal Palace Hostel Mcc B Block Jjmmc Hostel Road 6th Main Road, Davanagere 577004 India",14.45053,75.91379669999999
"Milan Theatre Road Milan Theatre Annex, Chikmagalur 577101 India",13.3172349,75.77069209999999
"Siddi Venayaka Market, Tumkur India",13.3219323,77.14512069999999
"T.p Complex Main Road Near Bus Stand, Tumkur India",13.3378762,77.117325
"Gokul Rd, Beside Deshpande Foundation, Hubli-Dharwad 580030 India",15.3706867,75.1223388
"Nagamangala Road B.Hosur, Mandya 571432 India",12.6069911,76.8740872
"No.2, Bangalore Mysore Road Kirangandur Gate, Mandya 571401 India",12.5276498,76.8925509
"No.2, Bangalore Mysore Road Kirangandur Gate, Mandya 571401 India",12.5276498,76.8925509
"#D2/2233/2233 SSR Residency Opp Sports Club Kirangadur Gate Kalaahalli, Mandya 571401 India",12.5227643,76.8691438
"Pune-Bangalore Road, Davanagere 577502.0 India",14.4644085,75.921758
"B M Road Kiragandur Gate, Mandya India",12.522066,76.8686269
"B M Road Kiragandur Gate, Mandya India",12.522066,76.8686269
"Mekeri, Madikeri Taluk 571201 India",12.3889008,75.7482577
Chikmagalur 577111 India,13.2058001,75.6906241
"Mahalakshmi Nagar Opp. APMC Yard NH 4, Tumkur 572103 India",13.3283987,77.13161819999999
"Near Kukke Subrahmanya Temple Sullia Taluk, Subramanya India",12.5580735,75.3907667
"Hemavathi Farm, Hassan 573125 India",13.2836274,76.07399989999999
"P.B. Road, Davanagere 577002 India",14.4581997,75.9331466
"P.B. Road, Davanagere 577002 India",14.4581997,75.9331466
"Kaggodlu Village, Mekeri, Madikeri Taluk 571201 India",12.37402,75.7568659
"Kurali Road, Napoklu, Madikeri Taluk 571214 India",12.4244205,75.7381856
"Potoli village Pradhani Post, Dandeli 581325 India",15.2361191,74.6172819
"#86 Tantipal Road Hemmathal Village, Madikeri Taluk 571201 India",12.4249968,75.7380296
"Opp Ganesh Estate, Madikeri - Virajpet Road, Mekeri, Madikeri Taluk 571201 India",12.4060298,75.7411083
"Kolakeri, Napoklu, Napoklu, Madikeri Taluk 571201 India",12.371976,75.7040719
"Bh Road, Tumkur 572101 India",13.3413645,77.0947413
"B M Highway Near DC Office, Mandya India",12.5218924,76.88427639999999
"Saathanur Kanakapura Taluk, Davanagere India",14.4644085,75.921758
"BM Road, Hassan 573201 India",13.0033365,76.0997584
"Barachukki Falls Rd Cauvery Beat, Mandya 571440 India",12.2920754,77.1787156
"Niduvale Mudigere, Chikmagalur 577122 India",13.1832152,75.4981881
"Niduvale Mudigere, Chikmagalur 577122 India",13.1832152,75.4981881
"BM Road, Hassan 573201 India",13.0033365,76.0997584
"Shivanasamudra Malavalli Taluq, Mandya 571437 India",12.2997484,77.1772737
"Param Edge, B.H. Road Next to Nayanadhama Hospital, Batawadi, Tumkur 572103 India",13.3298871,77.12906869999999
"Main Road Hebbalu, Hassan 573121 India",13.1988485,75.9158681
"Bm Highway, Hassan 573201 India",13.0033365,76.0997584
"Bm Highway, Hassan 573201 India",13.0033365,76.0997584
"Barachukki Falls Road, Mandya 571440 India",12.2709605,77.1711433
"Bangalore-Mangalore Highway Hirisave Road, Hassan 573124 India",12.9520896,76.5745732
"Virajpet-Talakaveri Rd Near Talacauvery, Bhagamandala, Madikeri Taluk India",12.2873676,75.6364157
"Virajpet - Byndoor Rd, II.Monnageri, Madikeri Taluk 571201 India",12.412895,75.727801
"Virajpet - Byndoor Rd, II.Monnageri, Madikeri Taluk 571201 India",12.412895,75.727801
"Harsha Mahal Road Opposite to Maharaja Park, Hassan 573201 India",13.0080999,76.0998645
"Wind Tunnel Road, Galibeedu, Madikeri Taluk 560017 India",12.4551706,75.7026632
"Bhagamandala Road, Madikeri Taluk 571201 India",12.4244205,75.7381856
"Bangalore Mysore Road, Mandya 571404 India",12.5157102,76.8571012
"Bangalore Mysore Road, Mandya 571404 India",12.5157102,76.8571012
"Kurali Road Moovera Trishul Estate, Napoklu, Madikeri Taluk 571214 India",12.4244205,75.7381856
"Misty Villa Estate Stay Kumbaladalu, Napoklu, Madikeri Taluk 571214 India",12.3408677,75.72341449999999
"Elunoorkhan Road Sy No.216 & 344 Channagondanahalli, Vasthur Hobli, Mullayangiri, Chikmagalur 577101 India",13.3823765,75.6943934
"Ring Rd Near Gowri Medicals, Hassan 573201 India",13.0198254,76.1146624
"Madhuvana Yenekal Kukke Subramanya Sulia, Subramanya 574238 India",12.6636275,75.61584789999999
"Solapur Rd, Adarsh Nagar, Vijayapura 586103 India",16.8638436,75.7203543
"Janata Plot, River Road, Hampi 583239 India",15.3363316,76.4577547
"Bus Stand Road, Hampi 583201 India",15.2786244,76.3885281
"Virupapur Gaddi, Hampi 583227 India",15.3408783,76.45308930000002
"Park Road, Hassan India",13.0097213,76.1005512
"Gangavathi Road Near Old Stone Bridge, Hampi 583227 India",15.3350132,76.46002399999999
"Hampi Bazaar Street, Hampi 583239 India",15.3347446,76.4621458
"Chikmagalur- Kadur Bypass Rd Above Union Bank, Pooja Tower, Kalyan Nagar, Chikmagalur 577102 India",13.3161441,75.7720439
"Virupapura Gadda, Hampi 583 234 India",15.3350132,76.46002399999999
"Bilisare Village, Achanahally,, Hassan India",12.9763916,75.6594339
"Temple Road, Hassan 573115 India",13.16348,75.8626234
"Janata Plot, River Road Near Akash Art Gallery, Hampi 583 239 India",15.3350132,76.46002399999999
"#12 Ward 2 Anegundi, Hampi 583227 India",15.3947779,76.5229434
"No 348 Sister Stone Road, Hampi 583239 India",15.3198005,76.4623865
"Janata Plot Road, Hampi 583239 India",15.3350132,76.46002399999999
Hampi 583239 India,15.3350132,76.46002399999999
"Janata Plot Near Vicky Guest House, Hampi 583239 India",15.3360064,76.4612633
"Near Virupaksha Tempal, Hampi 583239 India",15.3351333,76.45865289999999
"New Hampi Last Line, 2nd Building, Hampi 583239 India",15.3108819,76.4461899
"Hospet Taluk Behind Govt School, Hampi 583239 India",15.3350132,76.46002399999999
"Thurta Canal Road 5 Km From Old Hampi Follow The Canal Road, Hampi 583239 India",15.3330796,76.4616359
"Near Monky Temple Between Hanuman Temple Laxmi Temple, Hampi 583239 India",15.3333243,76.4684882
"Near Malnad Engineering College Leela Paradise, Hassan 573202 India",13.031475,76.102228
"Venkatadri Towers B M Road, Hassan India",13.0033365,76.0997584
"River Road Janatha Plot, Hampi 583239 India",15.3363316,76.4577547
"Lalitha Arcade, Hassan 573201 India",13.0032341,76.09838359999999
"Hampi Road, Hampi 583227 India",15.3309611,76.4589803
"#243 Main Road, Hampi 583239 India",15.3350132,76.46002399999999
"Janatha Plot, River Road, Hampi 583239 India",15.3363316,76.4577547
"Janatha Plot, River Road, Hampi 583239 India",15.3363316,76.4577547
"Bangalore-Mangalore Road, NH 48, Hassan 573201 India",20.8044222,73.0714457
"Attalgere Opposite Yagachi Dam, Hassan 573115 India",13.1809656,75.8686008
"B.M. Road, Hassan India",13.0033365,76.0997584
"Virupapuragaddi Chinnas Camping Area, Hampi 583234 India",15.3397602,76.4610912
Hampi 583234 India,15.3350132,76.46002399999999
"New Hampi, Hampi 583239 India",15.3108819,76.4461899
"Donanalli Village, Hannbal Post,, Hassan 577119 India",20.593684,78.96288
"B.M. Road Opp. Pruthvi Theatre, Hassan 573201 India",13.003363,76.11251519999999
"Avk College Road, Hassan India",13.0067484,76.1010596
"Virupapurgaddi, Sanapur. Post, Hampi 583234 India",15.3350132,76.46002399999999
"Janata Plot, Hampi 583201 India",21.0850621,71.764843
"512/a, Hassan 563201 India",20.593684,78.96288
"Sanapur Post Gangavathi Tq Koppal, Hampi 583234 India",15.3350132,76.46002399999999
"Bangalore - Shivamogga Road No 125, Hassan 573111 India",13.3144268,76.2556096
"Bangalore-Mangalore Highway Road, Hassan 573124 India",12.9571913,76.586112
"Hampi Bazar, Hampi 583239 India",15.3347446,76.4621458
"Virupapuragadde, Gangavathi Taluk Kopal, Hampi 583234 India",15.3350132,76.46002399999999
"Harshamahal Road, Hassan India",13.0033234,76.1003894
"Merve Village, Hassan 573128 India",12.8716614,76.0014712
"Janatha Plot, Hampi 583239 India",15.3350132,76.46002399999999
"Race Course Road Near Government hospital, Hassan 573201 India",13.0102703,76.1029628
"00, Besid Mallage Hospital, Near Alamgir Masjid, Vijayapura 586108 India",16.8301708,75.710031
"river valley home stay nelke village, TD halli, post, arehalli hobli, belur taluk, hassan district nelke village, TD halli post, arehalli hobli, Hassan 573101 India",13.1729053,75.87497619999999
"B M Road Venkatadri Towers, Above Big Bazar, Hassan 573201 India",13.0004391,76.0943733
"Madhuvana, Yenekal,Kukke Subramanya, Subramanya 574238 India",12.6636275,75.61584789999999
"Thota Garike Main Road Opposite Thota Garike, Hubli-Dharwad India",15.3647083,75.1239547
"Car Street Opposite New K.S.R.T.C Bus Stand Kukke, Subramanya 574238 India",12.6595958,75.6079223
"Belur Road, Kuppalli, Hassan 573217 India",13.0533092,76.0537605
"Station Road, Vijayapura 586104 India",16.8269517,75.7327346
"Saquaf Roza Navbag Main Rd, Vijayapura 586101 India",16.8223305,75.7126845
"B M Road Ameer Mohalla Behind Suvarna Regency, Hassan 573201 India",13.0018748,76.0985627
"Ward No 7, Station Rd, Vijayapura India",16.8284168,75.72372539999999
"Maharaja Park Road Sahyadri Circle, Northern Extension, APMC Yard, Hassan 573201 India",13.0033234,76.1003894
"Lamington Road Siddappa Kambli Road, Hubli-Dharwad India",15.351435,75.14184
"P B Road, Hubli-Dharwad 580021 India",15.3647703,75.1239756
"Near Bustand, Mission Compound, Vijayapura 586101 India",16.8238151,75.71594689999999
"Canadian Paying Huest House Gagan Chownk, Vijayapura 586104 India",16.8301708,75.710031
"Canadian Paying Huest House Gagan Chownk, Vijayapura 586104 India",16.8301708,75.710031
"Mukund Nagar Chattrapati Shivaji Nagar Vijayapur - Sindagi Road, Vijayapura 586101 India",16.8272554,75.7310845
"Station Road, Vijayapura 586104 India",16.8269517,75.7327346
"Solapur Road Behind Patil Planet, Vijayapura 586103 India",16.8505534,75.7119247
"Kar) North Karnataka Parekh Residency, Parekh ventures, BLDEA Road, Vijayapura 586101 India",16.8370607,75.7166076
"K Hosa Kappalu Byepass Mysore Road, Hassan 573201 India",12.9886655,76.1146502
"Solapur Road Hanchinal, Vijayapura 586103 India",16.8536978,75.7127466
"No.41 E, Plot No.10, Solapur Road, BLDE Campus, Vijayapura India",16.8378352,75.70691409999999
"Opp. Old Bus Stand, Hubli-Dharwad 580029 India",15.3504998,75.1361106
"Opp. Old Bus Stand, Hubli-Dharwad 580029 India",15.3504998,75.1361106
"Senani Residency Road, Subramanya 574238 India",12.6745255,75.6039387
"Pune-Bangalore Road Sattur, Hubli-Dharwad 580002 India",15.4177492,75.03658399999999
"Sullia Taluka Kukke, Subramanya 574238 India",12.6636275,75.61584789999999
"Station Road Bendigeri Onni, Vijayapura 586101 India",16.8269517,75.7327346
"Station Road, Gacchinakatti Colony, Vijayapura 586101 India",16.8285964,75.7216792
"Vaibhav Residency P B Road, Opp District Court, Hubli-Dharwad 580001 India",15.4603384,75.0062142
"near old Bus-Stand, Hubli-Dharwad 580029 India",15.3504998,75.1361106
"Station Road, Vijayapura 586104 India",16.8269517,75.7327346
"Station Road, Vijayapura 586104 India",16.8269517,75.7327346
"Solapur Road Beside NCC Camp, Bangaramma Sajjan Campus, Vijayapura 586103 India",16.8465077,75.7100386
"Station Road Shivaju Nagar Station Road, Vijayapura 586101 India",16.8269273,75.732977
"Athani Road Afzalpur Takke, Vijayapura 586102 India",16.827599,75.6818641
"Devaragadde Road Sullia Subrahmanya, Subramanya 574238 India",12.6595958,75.6079223
"101, Near Channapatna Bypass, Hosakoppalu, Holenarsipura Road, Hassan 573201 India",12.6518078,77.20857939999999
"Station Road Near Supid of Post Office, Vijayapura 586101 India",16.8630431,75.7429636
"3 Bldea Road Ward No, Vijayapura 586101 India",16.8428422,75.7156305
"Near Kumaradhara River Senani Residency Near Kumaradhara River, Subramanya 574238 India",12.6739546,75.60397809999999
"Ring Road Beside Sukoon Colony, Vijayapura 586103 India",16.8538154,75.6970883
"Near Seventh Day Adventist School, Hubli-Dharwad 580023 India",15.3990931,75.2245693
"P B Road, Hubli-Dharwad 580001 India",15.3678493,75.12095049999999
"Lamington Road, Hubli-Dharwad India",15.351435,75.14184
"Athani Rd, Vijayapura 586102 India",16.8291914,75.6902709
"Hosur, Hubli-Dharwad 580021 India",15.3541984,75.1281027
"Gokul Road, Hubli-Dharwad 580021 India",15.3505094,75.1131929
"Vijaya Road Vidyagiri, Hubli-Dharwad India",15.4625008,75.0129671
"1234, Revankar Complex T B Road, Deshpande Nagar, Hubli-Dharwad 580029 India",15.3531222,75.1393058
"Basveshwar Circle Near Bara Kaman Main Gate, Vijayapura 586101 India",16.8303151,75.7182706
"P.B Road, Near Old Bus Stand, Davanagere 577002 India",14.4581997,75.9331466
"Lamington Road, Hubli-Dharwad 580020 India",15.3513927,75.1419035
"Bijapur Road Keshavapur Hubli, Hubli-Dharwad India",15.3631626,75.1415729
"Saipet, Sangam Circle, Sangam Talkies Opposite, Line Bazar, Hubli-Dharwad 580001 India",15.3518104,75.1290951
"1 & 2 1'st Main Road Near Ambedkar Statue, Hubli-Dharwad 580030 India",15.4377184,75.0212815
"Near Abhaya Ganapathi Temple, Subramanya 574238 India",12.6694085,75.609211
"1, Near, RTO NH 48 Near Gabbur Circle, Hubli-Dharwad 580024 India",15.315375,75.1442001
"Bangalore Road, Hubli-Dharwad 580001 India",15.3647083,75.1239547
"Laxmi Complex Club Road, Near Court Circle, Hubli-Dharwad 580029 India",15.3516879,75.13783760000001
"R S No 41/8 Near Kumaradhara Snana Ghatta, Subramanya 574238 India",12.6762768,75.6051257
"Vidyanagar, Hubli-Dharwad India",15.3647597,75.1239698
"Sirur Bldg PB Road, Haveri, Hubli-Dharwad India",15.3653059,75.1234396
"Shankar Plaza P.B. Road, Hubli-Dharwad India",15.4573194,75.00694229999999
"Lamington Road Opposite To Lamington School, Hubli-Dharwad 580020 India",15.3523705,75.1426807
"Pune Bangalore Road Near Court Circle, Hubli-Dharwad 580001 India",15.3647083,75.1239547
"45/4&5 Near Kumaradhara River Opp. Indian Oil Petrole Pump, Subramanya 574238 India",12.6595958,75.6079223
"No 705, Sukanya Plaza, Near Old Bus Stand, P.B Road, Davanagere 577002 India",14.4581997,75.9331466
"Tabaibland Opp KEB office, Hubli-Dharwad 580028 India",15.366038,75.14908919999999
"Railway Station Road, Hubli-Dharwad 580001 India",15.4478191,75.0048155
"Near New Bus Stand, Hubli-Dharwad 580030 India",15.3517048,75.114085
"M C Road, Mandya India",12.5300701,76.8934325
"P.B. Road Opp to Old KSRTC Bus-Stand, Hubli-Dharwad 580029 India",15.3504998,75.1361106
"Club Road Near Court Circle, Hubli-Dharwad 580029 India",15.3535783,75.1404135
"SH 76,No.27,S K P Road, Davanagere 577004 India",14.4671815,75.9179383
"Channagiri Road, Davanagere India",14.0253156,75.9260936
"Sandhunavar Estate, Hubli-Dharwad 580005 India",15.491162,74.9851678
"Behind Main Bus Stopp, Old Taluka Office Road, Davanagere 577213 India",14.022113,75.9291361
"4 /47 Vishal Khand Gomtinagar Opposite Old Bus-Stand, P D Road, Davanagere 577002 India",26.8496217,81.0072193
"4784 Gokul Road, Hubli-Dharwad 580030 India",15.3504136,75.11113089999999
"Opp To KRSTC Bus Stand, P B Road, Davanagere 577001 India",14.4663438,75.9238397
"Station Road, Hubli-Dharwad 580020 India",15.3481033,75.145494
"Station Road, Hubli-Dharwad 580020 India",15.3481033,75.145494
"1034, Dhammanagi Prestige Plaza, P B Road, New Cotton Market, Deshpande Nagar Opposite Old Bus Stand, Hubli-Dharwad 580029 India",15.3515137,75.1361069
"Lamington Road, Hubli-Dharwad 580020 India",15.3513927,75.1419035
"Kamat Yatri Nivas P B Road, Hubli-Dharwad 580009 India",15.3869871,75.1051369
"P B Road Opp Reliance Market, Davanagere 577002 India",14.464222,75.9265842
"Plot No 20, Opp New Ksrtc Bus Stand Belgham Road, Hubli-Dharwad 580003 India",15.3499422,75.1163613
"Chennamma Circle, Hubli-Dharwad 580029 India",15.4858894,75.1301021
"Shamanur Rd 4141, Siddaveerappa Badavane, Davanagere 577004 India",14.4524476,75.904307
"132, Mandi Plaza, Halyal Road, Narayanpura, Dharwad Opposite K.C Park Post Office, Hubli-Dharwad 580008 India",15.461007,75.0016574
"3621 Nh - 4 Bypass Road, Davanagere 577001 India",14.4644085,75.921758
"Sri Shivakumara Swamy Circle, B.H. Road, Tumkur 572107 India",13.3370196,77.020805
"300 Palahalli Village Mysore, Mandya 571606 India",12.4096029,76.6535444
"Hampi Bazzar Near Mango Tree Restaurant, Hampi 583239 India",15.3023428,76.47249819999999
"Anegundi, Hampi India",15.3932604,76.5185379
"Vishaal Farms, Tannenahalli Dabbaspet-Korategere Rd, Korategere, Tumkur India",13.4616584,77.2315342
Hampi India,15.3350132,76.46002399999999
"Kiran Mansion Opp. Govt. Hospital, B.H. Road, Tumkur India",13.338378,77.0977697
"Mission Street Citywalk Building, Next To P.V Pai, Nellikai Road, Statebank Area, Mangalore 575001 India",12.8632899,74.8352089
"Virupapur Gaddi Island, Hampi 583234 India",15.3408783,76.45308930000002
"Opposite Basava Vana Near Old Bus Stand, Hubli-Dharwad India",15.3504998,75.1361106
"Sri Ramadevara Dam, Sri Ramdevara Dam, Holenarasipur Taluk,, Holenarasipur, Karnataka 576201, Hassan 573201 India",12.784906,76.24356689999999
"Balmatta Road Near Milagres Bus Stop, Mangalore 575003 India",12.8714801,74.8475326
"2-366, Tirand Darga Road, Gulbarga India",17.3418163,76.8444315
"Mularahalli, Mudigere 577132 India",13.0325514,75.559693
"Mularahalli, Mudigere 577132 India",13.0325514,75.559693
"B.h.road Param Edge Next to Nayanadhama Hospital, Batawadi, Tumkur 572103 India",13.3298871,77.12906869999999
"Belur Gendehalli Road, Mudigere 577132 India",13.1778802,75.8103473
"Near Kbn Hospital Timmapur, Gulbarga 585101 India",17.3259481,76.8336248
"Janatha Plot, Hampi 583239 India",15.3350132,76.46002399999999
"RG Road, Chikmagalur 577101 India",13.3295294,75.7728298
"Main Road, Gulbarga 585102 India",17.3245213,76.8317981
"#292, Janata Plot, Hampi 583239 India",15.3350132,76.46002399999999
"Ashoka Road, Tumkur 572101 India",13.3417598,77.1016416
"Manorama Embassy, PDA Engineering College Road, Shambhognlli, Gulbarga 585102 India",17.3182583,76.8283558
"Kodialbail, Mangalore India",12.8746143,74.84009619999999
"Kaddirampur, Hampi 583239 India",15.3129646,76.44980129999999
"High School Field Road K R Puram, Hassan 573201 India",13.007703,76.1040045
"110 Dollors Colony, Airport Road, Hubli-Dharwad 580030 India",15.3831098,75.1198214
"Hubli _ Dharwad Highway Rayapur, Opposite Sanjeevini Vana, Hubli-Dharwad 580009 India",15.4122683,75.056369
"Varur Panchayat, Hubli-Dharwad 5800127 India",15.2122325,75.1384848
"Bidarahalli Village, Mudigere 577132 India",13.1365287,75.64032449999999
"Behind Government School Main Bazar, Hampi 583239 India",15.3350132,76.46002399999999
"Indian Palace Lodge Main Road, Near Railway Station, Gulbarga 585102 India",17.329731,76.8342957
"P B Road Dharwad, Hubli-Dharwad 580009 India",15.3869871,75.1051369
"Venkatadri Towers, Above Big Bazar, BM Road, Hassan 573201 India",13.0025514,76.1088899
"Janata Plot, Hampi 583239 India",15.3350132,76.46002399999999
"Behind Virupaksha Temple River Street, Hampi 583239 India",15.3351333,76.45865289999999
"IB Road Banglegudda, Gokarna 581326 India",14.5467409,74.324677
"IB Road Banglegudda, Gokarna 581326 India",14.5467409,74.324677
"Temple Road, Gokarna India",14.5478586,74.31884099999999
"Main Road Ganagapur, Gulbarga 585212 India",17.3245213,76.8317981
"Kudle Beach Road, Gokarna 581326 India",14.5432369,74.3171358
"NGO's Colony, New Jewargi Rd N.K. Seeri Plaza Above Ibaco Ice Cream, Gulbarga 585102 India",17.3145705,76.8153536
"near Mahabaleshwara Temple, Gokarna 581326 India",14.5435357,74.31641909999999
"Gokul Rd Opposite Hubli Airport Airport Road, Hubli-Dharwad 580030 India",15.3831098,75.1198214
"Ganjigadde, Gokarna 581326 India",14.5476092,74.3217207
"Gokul Road Opposite Hubballi Airport, Hubli-Dharwad 580030 India",15.3572418,75.0848589
"Bangle Gudda, Gokarn - 581 326 Tq Kumta, Uttar Kannada Dist, Gokarna 581326 India",14.4553967,74.6999208
"Kudle Beach Trail Kudle, Gokarna 581326 India",14.5329484,74.3153004
"8b Opposite To Ganga Beach, Gokarna 581326 India",14.5957373,74.29238289999999
"Ganjigadde, Kumta, Gokarna 581326 India",14.5476092,74.3217207
"Main Road, Ganjigadde Near Bus Stand, Gokarna 581326 India",14.5478111,74.3216226
"Melinakeri Near Wood Depot, Gokarna 581326 India",14.5371752,74.32941989999999
"Belehittal Road On Beach, Near Hema Shree, Gokarna 581326 India",14.5435357,74.31641909999999
"#54 Soori Garden House Belehittal Road, Gokarna 581326 India",14.5500022,74.31533619999999
"Belehittal Road, Gokarna 581326 India",14.5509797,74.3140175
"Next to sunset cafe Gokarna Main Beach, Gokarna 681319 India",14.5478586,74.31884099999999
"Kudle Beach Road Dandebagh, Gokarna 581326 India",14.5416534,74.3166511
"Kudle Beach Trail kudle beach midpoint, Gokarna 581326 India",14.5348989,74.3198436
"Public Gardens, Behind Yatri Nivas, Brhampur, Gulbarga 585106 India",17.3296305,76.8308661
"Ram Mandir - Kudle Beach Road Near Sunset, Gokarna 581326 India",14.5478586,74.31884099999999
"Survey No 129/3/B, Plot No 48 & 49, Humnabad Rd, Kalaburagi, Gulbarga 585104 India",17.3711437,76.8530056
"Belekan Road, Gokarna 581326 India",14.5390516,74.3378219
"Near Central Jail, Gulbarga 585308 India",17.2607741,76.81046429999999
"Om Beach Road, Gokarna 581326 India",14.533117,74.3263378
"Belehittal Road Gokarna Main Beach, Dandebagh, Gokarna 581326 India",14.5437352,74.3136288
Gulbarga 585101 India,17.3298307,76.8634479
"MSK Mill Road, Gulbarga 585 102 India",17.3253441,76.8193691
"Near Government Hospital Opp BSNL Office, Gokarna 581326 India",14.5371752,74.32941989999999
"1, Humnabad Gulbarga Road Opposite Syndicate Bank, Near Gada Peteole Pump, Gulbarga 585300 India",17.3715257,76.85351519999999
"#537 Near Bosga Cross Aland Highway, Gulbarga 585102 India",17.3534586,76.8191381
"Opp to Gokarna Bus stand, Gokarna 581326 India",14.5478586,74.31884099999999
"Main Rd, Near Temple, Ganjigadde, Melinkeri, Gokarna 581326 India",14.5478111,74.3216226
"Main Rd, Near Temple, Ganjigadde, Melinkeri, Gokarna 581326 India",14.5478111,74.3216226
"Timmapuri Chowk Opposite Mohan Lodge, Gulbarga India",17.3198236,76.8259573
"University Road Bilgundi Garden, Gulbarga 585 105 India",17.3146426,76.8755429
"2nd Floor, Fort Road Near Prakash Takies, Gulbarga India",17.3423294,76.8366015
"310/1 Koodle Beach, Gokarna 581326 India",14.5371752,74.32941989999999
"Near Purnima Lodge, Gokarna 581343 India",14.431824,74.4243855
"Main beach, Gokarna 581319 India",14.5437352,74.3136288
"OM Beach Road Bangle Gudda, Gokarna 581326 India",14.5448995,74.3238998
"OM Beach Road Bangle Gudda, Gokarna 581326 India",14.5448995,74.3238998
"Sedam Road,Sh 125, Sannur, Gulbarga 585102 India",17.2967655,76.982085
"01, Opp IB, Busstand Road, Gulbarga 585300 India",17.336893,76.8117187
"Station Road Opp Mini Vidhana Soudha, Gulbarga 585102 India",17.3214297,76.82959199999999
"Bidarahalli Village, Mudigere 577132 India",13.1365287,75.64032449999999
"Sigandur Road, Shimoga 577401 India",14.1139051,75.0193379
"Subash Road, Near Sandesh Theater, Mudigere 577132 India",13.1312604,75.6429478
"Sadem Yadgir Road, Sedam Sh 15, Gulbarga 585222 India",17.1783909,77.2872658
"Bunts Hostel Road, Mangalore 575003 India",12.8750547,74.8485105
Mudigere 577132 India,13.1365287,75.64032449999999
"Devangi Post, Shimoga India",13.9385873,75.5696306
"Kumbardi, Urubage Village, Gonnibeedu Hobli, Mudigere India",13.1365287,75.64032449999999
"Main Road Ganagapur, Gulbarga 505102 India",17.329731,76.8342957
"Javali Mudigere Tq, Mudigere 577122 India",13.148175,75.511748
"Vinayak Estate, Mudigere 577132 India",13.1365287,75.64032449999999
"Vinayak Estate, Mudigere 577132 India",13.1365287,75.64032449999999
"Near Durga Parameshwari Temple, Mangalore 574148 India",13.043881,74.87008039999999
"Surabhii Complex Opp. K S R T C Bus Stand, Mangalore India",12.8861771,74.84212490000002
"Maruthi Veethika Rd, Udupi 576101 India",13.3405182,74.749464
"295, Lakshmi Vilas Road, Devaraja Mohalla, Chamrajpura, Mysuru (Mysore) 570001 India",12.3062894,76.64882779999999
"Horatti Road Devrunda, Mudigere 577132 India",13.0223668,75.6311741
"Panambur Beach near New Mangalore Port Trust, Mangalore 575010 India",12.9333336,74.8212256
"Addagude, Chikamagalur Billur Post, Mudigere 577132 India",13.1365287,75.64032449999999
"Near Rang Mandir Public Garden Opp Dist Balabhavan, Gulbarga 585105 India",17.3302279,76.83434450000001
"Katekeri Village, Mangalore - Mysore Highway Near Nethaji Youth Club, Madikeri 571201 India",12.4183685,75.7408406
"No.12, Vidhya Nagar, B.H Road, Shimoga 577201 India",13.917388,75.5981682
"Opposite MIO, NH 17, Near, Indiana Hospital Rd, Pumpwell, Mangalore 575002 India",12.8674982,74.866016
"Block Number 18 Near Chain Gate,, Madikeri 571201 India",12.4244205,75.7381856
"Alangar Moodabiri, Mangalore 574224 India",13.0687993,74.99360039999999
"Ingoor Road Thontalapura, Sakleshpur 573137 India",12.8035525,75.8522117
"Nellikai Rd. Citywalk Complex, Next To P. V. Pai, Near State Bank, Mangalore 575001 India",12.8632899,74.8352089
"40/c, Behind Kanti Conventional Hall Industrial Suburb, Vidyaranyapura, 2nd Stage Visveshwara Nagar, Mysuru (Mysore) India",12.2833604,76.6278743
"#35 9th Mile Kanakapura Road, Bengaluru 560062 India",12.8690868,77.5366265
"2723, Near Hardinge Circle Bangalore-Nilgiri Road, Mysuru (Mysore) 570001 India",12.3074359,76.6603744
"Biligeri Village & Post, Madikeri 571201 India",12.4244205,75.7381856
"SP Office Road Main Road, Gulbarga 585105 India",17.3284323,76.8342153
"# 2941/1, B. N. Road, Near Five Light Circle, Lakshkar Mohalla # 2941/1, B. N. Road, Near Five Light Circle, Lakshkar Mohalla, Mysuru (Mysore) 570001 India",12.3034282,76.6582204
"Near Police Station, Opposite Fort, Stuart Hill, Madikeri 571201 India",12.4201021,75.7395923
"No 69 Ashoka Road, Mysuru (Mysore) 570001 India",12.315252,76.6566048
"Father Mullers Road Near Swagath Hotel, Balmatta, Mangalore 575002 India",12.8620384,74.8561551
"5/A Hydarali Road Nazarabad Mohalla, Mysuru (Mysore) 570007 India",12.3179579,76.6654349
"#39 Manandawady Road, Mysuru (Mysore) 570008 India",12.2065251,76.5557756
"Hilltown Road Mahadevpet, Madikeri 571201 India",12.4249565,75.73910769999999
"163 Moksha Marg Siddartha Layout, Mysuru (Mysore) 570011 India",12.3052635,76.68499589999999
"2929 19/1 B N Road, Mysuru (Mysore) 570001 India",12.3016882,76.6536338
"2639/1 Valmiki Road V V Mohalla, Mysuru (Mysore) 570002 India",12.3225614,76.6348527
"#128, Belagula Industrial Area Opposite to Vision Cinemas Behind GRS Fantasy Park, Mysuru (Mysore) 570016 India",12.3531329,76.6346149
"1#39, Mekeri Village, Kaggodlu Post, Madikeri 571201 India",12.4244205,75.7381856
"2727, L 40, Opposite Mysuru Complex, Nilgiri Road, Mysuru (Mysore) 570001 India",12.3218623,76.6499348
"#378/379 M G Road Opposite to Nehru Park, Udayagiri, Mysuru (Mysore) 570019 India",12.294578,76.6533515
"No 12/39, Block No 14 Near Vartha Bhavan, Madikeri 571201 India",12.4172085,75.7329793
"45/A K R S Road, Mysuru (Mysore) 570016 India",12.3508111,76.6123884
"Behind Rajkamal Theatre, D Devaraj Urs Rd, Mysuru (Mysore) 570001 India",12.3101243,76.64934970000002
"1966 N S Road Near K.R. Hospital, Mysuru (Mysore) 570001 India",12.3117118,76.64798329999999
"1302 Hotel Dewans Residency Dewans Road Near Railway Station Beside Govt Nanjaraja Bahadur Choultry, Mysuru (Mysore) 570001 India",12.3113177,76.64539409999999
"Mysore-Hunsur Road Hinkal, Mysuru (Mysore) 570017 India",12.3295326,76.6051304
"#354 Ashoka Road Near St. Philomena's Church, Mysuru (Mysore) 570001 India",12.3210417,76.65826349999999
"2932/AL-4/A-32, Ashoka Road Lashkar Mohalla, Mysuru (Mysore) 570001 India",12.3110365,76.6564949
"#8 Dr. Nelson Mandela Road Bannimantap, Mysuru (Mysore) 570015 India",12.3322273,76.6518823
"#1771 Sardar Patel Road 2nd Floor, Urs Complex, Near Prabha Theatre, Mysuru (Mysore) 570001 India",12.311239,76.6538434
"Dhanavanthri Road Devaraja, Mohalla, Mysuru (Mysore) 570001 India",12.3124943,76.6483969
"617, KRS Road Near Brindavan Gardens, Zuari Garden City, Mysuru (Mysore) 571606 India",12.3995464,76.57926309999999
"88/2 Richmond Road Richmond Town, Bengaluru 560025 India",12.9649146,77.60138549999999
"2, Jhansi Laxmi Bai Road, Mysuru (Mysore) 570005 India",12.3044877,76.63838319999999
"Brigade Millennium Campus, 7th Phase JP Nagar, Bengaluru 560078 India",12.8993462,77.5850904
"31 5th Main, WH Hanumanthappa Road Gandhi Nagar, Bengaluru 560009 India",12.9794436,77.5769816
"408 Contour Road Gokulam 3rd Stage, Mysuru (Mysore) 570002 India",12.3317945,76.6251608
"#269d - 1 Lakshmi Vilas Road near Jaganmohan Palace, Devaraja Mohalla, Mysuru (Mysore) 570001 India",12.3064031,76.6488643
"#1/1, Mysore-Bangalore Road, Near Govt Guest House Opposite Yaallah Masjid, Five Light Circle, Mysuru (Mysore) 570001 India",12.318044,76.6594702
"Lodging 112 Gokulam Main Road, Mysuru (Mysore) 570002 India",12.3299524,76.6304316
"283/D17, Lakshmi Vilas Road Subbarayanakere, Devraj Mohalla, Chamrajpura, Mysuru (Mysore) 570024 India",12.3063215,76.6495544
"2716, Sri Harsha Rd, Mysuru (Mysore) 570001 India",12.3095131,76.65750369999999
"No 9 P B 4708 Drafadilla Layout 4th Block, Bengaluru 560047 India",12.9442051,77.62195249999999
"6TH Main, Vinayaka Nagar, Hunsur Rd, Mysuru (Mysore) 570006 India",12.3164525,76.6287369
"143 / 1 Kadubesanahalli Marthahalli Outer Ring Road, Varthur, Bengaluru 560087 India",12.9079061,77.64445909999999
"No, 15, Contour Rd, Gokulam 3rd Stage, Mysuru (Mysore) 570002 India",12.334172,76.623811
"Kempegowda Int'l Airport Rd. Down Town Park,Sadahalli Gate, Bengaluru 562157 India",13.1921302,77.6460831
"Vijayanagar 2nd Stage Opp. S.V Regency Apartment, Mysuru (Mysore) 570017 India",12.3389572,76.598441
"#374/375, Ashoka Road Opp St. Philomena's Cathedral, Mysuru (Mysore) 570001 India",12.3210417,76.65826349999999
"Hosur Main Road Opposite Live 100 Hospital, Singasandra, Bengaluru 560008 India",12.8791113,77.6456134
"369 Cheluvamba Agrahara Veenesh Sheshanna Road, Mysuru (Mysore) 570024 India",12.3035613,76.649119
"NH 207, Budigere Road, Brigade Orchards Rayasandra Village, Devanahalli, Bengaluru 562110 India",13.2352454,77.7147098
"14/1 Kodigehalli Main Road Sahakar Nagar, Hebbal, Bengaluru 560092 India",13.0588416,77.5860168
"Plot No.1 and 2,KIADB Industrial Area Attibele Bangalore, Bengaluru 562107 India",12.778963,77.7702029
"32/3 Crescent Road High Grounds Off Race Course., Bengaluru 560001 India",12.9854241,77.57946849999999
"No 3 Raj Bhavan Road Opp General Post Office, Bengaluru 560001 India",12.982582,77.59452859999999
"6, Rest House Rd Shanthala Nagar, Ashok Nagar, Bengaluru 560001 India",12.9736406,77.60703230000001
"Opp Jakkur Aerodrome Allalasandra, Yelahanka, Bengaluru 560065 India",13.0842388,77.5891644
"N. H. 66 Kaup, Udupi 574106 India",13.2309734,74.7462214
"25 Kensington Road Ulsoor, Bengaluru 560008 India",12.981831,77.6234209
"Swiss Town, Hollywood Junction, Sadahalli Post, Devanahalli Road, Bengaluru 562 110 India",13.2111655,77.64609540000001
"10/6 Lavelle Road, Bengaluru 560001 India",12.975672,77.59921700000001
"Bus Stand Brahmavar, Udupi 576213 India",13.4367138,74.7443542
"54b/55a Hosur Main Road, Bengaluru 560100 India",12.8232468,77.6851301
"No. 75 & 172, Bannerghatta Main Road JP Nagar, Bengaluru 560083 India",12.914418,77.5997921
"Sri Mahalingeshawara Temple Road, Udupi 576107 India",13.3169584,74.7655142
"Katapadi, Udupi India",13.2847618,74.7485829
"Thenkapet, Udupi India",13.3408807,74.7421427
"1, Jodukatte Ajjarkad, Brahmagiri, Udupi 576101 India",13.3316039,74.747057
"No. 49, Cunningham Crescent Road Behind Fortis Hospital, Bengaluru 560052 India",12.9895603,77.5948906
"Opp. Adarsh Hospital, Udupi 576101 India",13.3400247,74.7473998
"No 51 11th Main Road 4th Block, Jayanagar, Bengaluru 560011 India",12.9254168,77.5858439
"BH Road Opp Muncipal Water Tank Kundapura, Udupi 576211 India",13.7480644,75.7722952
"6 Plot No Whitefield, Bengaluru 560048 India",12.9744909,77.7505442
"Near Central Park, Udupi India",13.3408807,74.7421427
"Near Service Bus Stand, Shiridbeedu, Udupi 576101 India",13.3239534,74.7395591
"Maruthi Veethika, Udupi India",13.3392398,74.7600404
"1 Aroor Arcade Sanskrit College Road Beside Parivar Sweets, Udupi 576101 India",9.875409,76.3183526
"23 The Leela Palace Bengaluru Hal Old Airport Rd HAL 2nd Stage, Bengaluru 560008 India",12.9603365,77.6484361
"Gopalpura 1st Main Road Opp 5th Cross, Udupi 576105 India",13.3836412,74.7363976
"Indrali, Hayagreeva Nagar Udupi Railway Station, Udupi 576104 India",13.3361451,74.77082279999999
"No. 60, MLA Layout, RMV 2nd Stage Junction of 5th Main & 7th Cross, Dollars Colony, Bengaluru 560094 India",13.041837,77.5643221
"K M Road, Udupi, Udupi 576101 India",13.3239534,74.7395591
"Belampalli Village- Kukkehalli Post, Udupi 576107 India",19.0715462,79.4911571
"Bannajee, Shiribeedu, Udupi 576101 India",13.3429819,74.743251
"near City Bus Stand, Udupi 576101 India",13.3404449,74.7454935
"Madikeri Road Near Pump House, Kannada bane, Madikeri India",12.4225985,75.7403142
"B H Road Kandavara village, Udupi 576201 India",13.624492,74.6927354
"Mysore - Madikeri Road Near Chain Gate, Madikeri 571201 India",12.424945,75.7521402
"Padubidri, Udupi India",13.1408219,74.77208879999999
"Court Road, Udupi India",13.3335366,74.7482858
"Madhav Nagar P.Box no 174, Udupi 576104 India",13.3542289,74.7871011
"Parkala Road Manipal, Udupi India",13.3549873,74.80689629999999
"Race Course Road High Grounds, Bengaluru 560001 India",12.9838272,77.5846456
"Rajangana, Udupi 576101 India",13.3421204,74.75200989999999
"No 23 Daswal Road Near Vivus Hospital, Madikeri 571201 India",12.4251875,75.73928409999999
"Anangalli, Udupi 576201 India",13.624492,74.6927354
"Padubidri Karkala Road, Udupi 574111 India",13.1469661,74.8159695
"Behind KSRTC Bus Stand, Madikeri 571201 India",12.4231854,75.73787229999999
"CPC Plaza Opp To Service Bus Stand, Udupi India",13.3412091,74.7479297
"28 Prestige Enclave, Bangalore International Airport Road Betthalsuru Cross, Bengaluru 562157 India",13.1560473,77.6268978
"Mysore - Madikeri Rd Horur, Somwarpet Taluk, Madikeri 571237 India",12.4396774,75.7947017
"Thalathmane Village & Post, Madikeri 571201 India",12.4244205,75.7381856
"Mysore Road, Opposite Bus Depot, Madikeri 571201 India",12.4249968,75.7380296
"Near Raja Seat Mercara, Madikeri 571201 India",12.4145076,75.7369473
"Kempegowda International Airport Road SVLS Bulding,Chikkajala, Bengaluru 562157 India",13.1989089,77.70681309999999
"Near Raja Seat, Race Course Road, Madikeri 571201 India",12.4245659,75.7331578
"Satva Sup And Kayak Camps Kanakoda, Udyavara, Matti Post, Udupi 576101 India",13.31158,74.732703
"Arekard Village Via Siddapur, Madikeri 571253 India",12.4244205,75.7381856
"School Road, Near Private Bus Stand Coorg, Madikeri 571201 India",12.4228052,75.73882979999999
"Madikeri-Tala Kaveri Road, Madikeri 571247 India",12.4127621,75.7356821
"3hills Coorg Betathur Village, Bhagamandala Hobli, Madikeri 560043 India",12.4244205,75.7381856
"Somwarpet Road Near Welcome Arch, Sampigekatte, Coorg District, Madikeri 571201 India",12.4244205,75.7381856
"Madikeri - Mysore Highway near Sampigekatte Junction, Madikeri 571201 India",12.4291822,75.72680179999999
"123 Ibnivalavadi Village Boikeri, Madikeri 571201 India",12.4331488,75.786202
"Jodupal, Madhanad post, Madikeri 571201 India",12.4244205,75.7381856
"1st Monnangeri, Galibeedu, Madikeri 571201 India",12.4278887,75.7060758
"Biligeri Road Kaggodlu Village, Madikeri 571201 India",12.3614614,75.7404682
"Mekeri Village, Kodagu District, Madikeri 571201 India",12.4244205,75.7381856
"Hullahalli Amba Bhavani Estate on NH75, Donigal, Sakleshpur 573134 India",13.0213448,77.0705559
"Virajpet Main Road, Madikeri 571201 India",12.41817,75.74099
"51/5, Behind Chikkathur Govt School, Chikkathur Village Kudumangalore Post, Kushalnagar 571232 India",12.484951,75.95213
"51/5, Behind Chikkathur Govt School, Chikkathur Village Kudumangalore Post, Kushalnagar 571232 India",12.484951,75.95213
"16/1 Theppadakandi Dubare Road, Kushalnagar 571234 India",12.3726436,75.9004325
"Madapatna Rd, Near Cauvery Nisargadhama, Kushalnagar 571234 India",12.4526275,75.9380341
"264, D1, Mangala layout, Alvoor Road, 2nd Cross Road, Dasharath Nagar, Udupi 576104 India",13.3392804,74.7908418
Kushalnagar 571234 India,12.4555177,75.9570234
"#25 C - Nisargadhama Tourist Center B M Road, Kushalnagar 571234 India",12.384125,76.0307988
Sakleshpur India,12.9441511,75.78656529999999
"No 114 B M Road 7th Hosakote, Kushalnagar 571213 India",12.4555177,75.9570234
"Raxidi Coffee Estate, Kyamanahalli Post, Sakleshpur 577119 India",12.9540352,75.7230955
"Shivanad Plaza Kadai Bazhar Road, Belgaum India",15.8609432,74.51502169999999
"Convent Road, Madikeri 571201 India",12.4249968,75.7380296
"1-405,Kodagu Tower, Kushalnagar 571234 India",12.4555177,75.9570234
"Om Beach Rd., Gokarna 581326 India",14.533117,74.3263378
"21, Mysore Madikeri Road, B M Road Bylakuppe, Kushalnagar 571104 India",12.3380878,76.092492
"IB Road, Kushalnagar 571234 India",12.4576837,75.9594822
"Palace Road, Bengaluru 560052 India",12.9848683,77.5882152
"Ratha Beedhi, Kushalnagar, Kushalnagar 571234 India",12.4584624,75.9621852
"BM Road, Kushalnagar 571234 India",12.384125,76.0307988
"Galibeedu Road, Village Kalakeri Nidugane, Madikeri 571204 India",12.4244205,75.7381856
"Kudlur Village, Kushalnagar 571234 India",12.4555177,75.9570234
"3022, Khade Bazar Near Central Bus Stand, Belgaum 590002 India",15.8618255,74.51870629999999
"Behind Sri Subramanya Temple, Kushalnagar 571234 India",12.4607621,75.95655270000002
"43 Kundanahalli Gate Opposite Sanakra Eye Hospital, Bengaluru 560037 India",12.955859,77.713652
"#547/1a Near Inspection Bungalow, beside water tank, Gokarna 581326 India",14.5371752,74.32941989999999
"Hanbal Road Jamavaradi Village, Sakleshpur 573165 India",13.0046838,75.6969615
"B M Road, Near Bharath Petrol Bunk, Kushalnagar 571234 India",12.384125,76.0307988
"25 Shine Residency Banni Mantap A Layout Main Road Bannimantap Industrial Area, Mysuru (Mysore) 570015 India",12.3470394,76.6533986
"No 4/5 Ganesh Residency Fmc Circle, Kushalnagar 571234 India",12.4577408,75.9603442
"Bypass Road, Kushalnagar 571234 India",12.4553757,75.9673089
"Mohammed Ali Road Bunder, Bombay Lucky Restaurant Building, Mangalore 575006 India",12.8640329,74.833265
"Main Road Basavanahalli Village, SY No-166,16/6, 16/12, Guddehosuru Post, Kushalnagar 571234 India",12.4555177,75.9570234
"Kerala Samaja Road, Kushalnagar 571234 India",12.4537875,75.95919239999999
"Nh 66 Kunthikana Derebail, Ashok Nagar Post, Mangalore 575006 India",12.9083013,74.8375522
"16 Rajaram Mohan Roy Road Richmond Circle, Bengaluru 560025 India",12.9661328,77.5952267
"Survey No.72 Hesaraghatta Village, 90 Minutes from MG Road, Bengaluru 560088 India",12.9746983,77.609448
"Somwarpet Opposite Tata Petrol Bunk, Near Check Post, Kushalnagar 571234 India",21.2470242,72.7860901
"144 Attur Village, Kushalnagar 571234 India",12.4555177,75.9570234
"#3845/1, Karunapura Road Near FTS Circle, Mysuru (Mysore) 570007 India",12.3229721,76.6607509
"Bandadka - Bengaluru Rd, Sakleshpur 573127 India",12.9432588,75.7836087
